%
M3
G21
G00 X27.122860 Y16.626890
G03 X28.078299 Y15.767249 Z-1.000000 I2.517033 J1.836754 F3500.000000
G03 X28.193366 Y16.074810 Z-1.000000 I-0.254302 J-0.084767
G02 X27.404736 Y16.526220 Z-1.000000 I2.056839 J3.266023
G00 X28.532240 Y18.237610
G03 X28.814116 Y17.633590 Z-1.000000 I2.188263 J1.012988
G02 X29.314973 Y16.528471 Z-1.000000 I-2.817024 J-1.942776
G02 X29.013412 Y16.408405 Z-1.000000 I-0.000000 J0.164145
G02 X28.934920 Y16.707426 Z-1.000000 I0.530327 J0.299021
G03 X28.871644 Y17.067621 Z-1.000000 I-1.056842 J0.000000
G03 X28.530280 Y17.040118 Z-1.000000 I-0.082440 J-0.123660
G03 X29.116126 Y16.123540 Z-1.000000 I2.110682 J0.703561
G03 X29.467607 Y15.885576 Z-1.000000 I1.075345 J1.209763
G03 X29.840950 Y15.761128 Z-1.000000 I0.622238 J1.244476
G02 X29.777293 Y16.081481 Z-1.000000 I0.395186 J0.526915
G03 X29.659744 Y16.445684 Z-1.000000 I-1.078889 J-0.538345
G02 X29.390172 Y16.784012 Z-1.000000 I0.842599 J0.947923
G03 X29.283486 Y17.229716 Z-1.000000 I-0.561107 J-0.000000
G03 X28.934920 Y17.834930 Z-1.000000 I-3.960785 J-1.878186
G03 X28.582093 Y18.259083 Z-1.000000 I-1.941887 J-1.256515
G00 X29.679878 Y18.197342
G01 X29.386125 Y18.079810 Z-1.000000
G03 X29.478538 Y17.774528 Z-1.000000 I0.680182 J0.039272
G01 X29.840950 Y17.150374 Z-1.000000
G01 X29.981888 Y17.673858 Z-1.000000
G03 X29.973952 Y18.361477 Z-1.000000 I-1.314726 J0.328681
G03 X29.656208 Y18.467056 Z-1.000000 I0.000000 J-0.084985
G00 X30.424836 Y18.298012
G02 X30.283898 Y17.935600 Z-1.000000 I-0.124382 J0.050397
G02 X30.451566 Y17.597861 Z-1.000000 I-0.135667 J-0.217067
G03 X30.225864 Y17.313954 Z-1.000000 I0.000000 J-0.182515
G03 X30.606042 Y16.566488 Z-1.000000 I1.543364 J0.314574
G02 X30.839552 Y15.966181 Z-1.000000 I-0.654881 J-0.600307
G02 X30.606042 Y15.660458 Z-1.000000 I-0.316889 J-0.000000
G03 X31.266426 Y15.900362 Z-1.000000 I0.035929 J0.754508
G03 X31.129526 Y16.425550 Z-1.000000 I-0.321749 J0.196567
G02 X31.028856 Y16.848364 Z-1.000000 I0.428457 J0.098028
G03 X30.827333 Y17.077669 Z-1.000000 I-0.000000 J-0.215698
G02 X30.604002 Y16.808477 Z-1.000000 I-0.111685 J0.037228
G02 X30.454459 Y17.084814 Z-1.000000 I0.210436 J0.140290
G02 X30.666444 Y17.412116 Z-1.000000 I0.698655 J-0.220202
G03 X30.746980 Y17.734260 Z-1.000000 I-0.059876 J0.015754
G03 X30.643702 Y18.037157 Z-1.000000 I-0.191259 J0.095629
G03 X30.505372 Y18.338280 Z-1.000000 I-0.765725 J-0.169423
G00 X28.411436 Y19.808062
G02 X28.387346 Y19.418103 Z-1.000000 I-0.907720 J-0.139649 F3500.000000
G03 X28.310766 Y19.063104 Z-1.000000 I0.411079 J0.043805
G02 X27.445004 Y18.640290 Z-1.000000 I-1.092544 J2.190039
G02 X26.371600 Y18.569045 Z-1.000000 I-1.073404 J8.050528
G03 X25.967502 Y18.663684 Z-1.000000 I-0.119005 J-0.238010
G02 X25.532274 Y18.398682 Z-1.000000 I-0.403265 J0.854063
G02 X25.216827 Y18.502215 Z-1.000000 I-0.033173 J0.431250
G02 X24.928254 Y18.902032 Z-1.000000 I0.692237 J0.803680
G03 X24.916929 Y18.194464 Z-1.000000 I1.606831 J-0.048692
G03 X25.230264 Y18.076538 Z-1.000000 I0.224067 J0.120121
G02 X25.975222 Y17.814796 Z-1.000000 I-0.502871 J-1.426432
G02 X26.236964 Y18.217476 Z-1.000000 I0.224695 J-0.034148
G02 X26.593058 Y18.116262 Z-1.000000 I0.113543 J-0.277548
G02 X26.901386 Y17.291312 Z-1.000000 I-1.330791 J-0.967482
G03 X27.221905 Y17.196933 Z-1.000000 I0.000000 J0.080030
G02 X27.016023 Y18.100960 Z-1.000000 I0.961710 J0.601069
G02 X27.283932 Y18.358414 Z-1.000000 I0.283718 J-0.027119
G03 X28.673490 Y18.510167 Z-1.000000 I-2.026592 J24.994636
G03 X28.632910 Y19.465784 Z-1.000000 I-8.516469 J-2.225444
G03 X28.449411 Y19.822166 Z-1.000000 I-2.611530 J-1.119227
G00 X29.095992 Y21.519452
G03 X29.085054 Y21.017581 Z-1.000000 I1.515066 J-0.284075 F3500.000000
G02 X29.337600 Y20.553020 Z-1.000000 I-0.740954 J-0.330893
G03 X29.420885 Y20.221041 Z-1.000000 I0.703287 J-0.000000
G02 X29.639610 Y19.606722 Z-1.000000 I-1.215800 J-0.212270
G03 X29.986749 Y20.672141 Z-1.000000 I-2.419934 J1.168244
G03 X29.700012 Y20.915432 Z-1.000000 I-0.251203 J-0.005446
G02 X29.337600 Y21.459050 Z-1.000000 I1.149416 J0.727780
G01 X29.216796 Y22.063070 Z-1.000000
G01 X29.095992 Y21.519452 Z-1.000000
G00 X30.022156 Y22.405348
G02 X30.056865 Y22.041232 Z-1.000000 I-0.684692 J-0.248979 F3500.000000
G03 X29.807404 Y21.710837 Z-1.000000 I0.173881 J-0.289802
G03 X29.740280 Y21.398648 Z-1.000000 I0.692428 J-0.312189
G02 X30.080122 Y21.427631 Z-1.000000 I0.172562 J-0.120794
G03 X30.283898 Y21.841596 Z-1.000000 I-3.285634 J0.648733
G03 X30.215637 Y22.534987 Z-1.000000 I-2.358143 J0.117907
G00 X30.646310 Y22.767760
G02 X30.767114 Y21.237576 Z-1.000000 I-11.327308 J-0.977323
G03 X30.929049 Y20.067768 Z-1.000000 I3.814246 J-0.068112
G03 X31.210062 Y19.747660 Z-1.000000 I0.491821 J0.148355
G02 X31.093714 Y20.160555 Z-1.000000 I0.369906 J0.470790
G02 X30.988588 Y21.338246 Z-1.000000 I5.285852 J1.065378
G02 X31.071997 Y22.373282 Z-1.000000 I10.178718 J-0.299374
G03 X31.532206 Y22.526152 Z-1.000000 I-0.212784 J0.623757
G02 X31.254804 Y22.696354 Z-1.000000 I-0.200449 J0.534531
G02 X30.867784 Y22.808028 Z-1.000000 I0.186982 J1.374479
G00 X31.069124 Y25.042902
G03 X30.907213 Y23.242246 Z-1.000000 I12.454628 J-2.027498 F3500.000000
G03 X31.910707 Y25.121908 Z-1.000000 I-2.147586 J2.147586
G03 X31.290598 Y25.787860 Z-1.000000 I-0.620109 J0.044266
G03 X31.069124 Y25.042902 Z-1.000000 I7.866412 J-2.318869
G00 X31.814082 Y25.143572
G03 X31.667335 Y24.859779 Z-1.000000 I0.528855 J-0.453304 F3500.000000
G03 X31.491938 Y23.875130 Z-1.000000 I6.979939 J-1.751292
G03 X31.531581 Y23.363607 Z-1.000000 I1.508868 J-0.140360
G03 X31.802769 Y23.839965 Z-1.000000 I-1.436458 J0.773477
G03 X31.793948 Y24.338212 Z-1.000000 I-1.276495 J0.226603
G02 X31.803584 Y24.685972 Z-1.000000 I0.764191 J0.152838
G02 X32.437411 Y23.939883 Z-1.000000 I-0.622748 J-1.011965
G02 X32.136226 Y23.573120 Z-1.000000 I-0.301185 J-0.059716
G03 X31.955020 Y23.130172 Z-1.000000 I0.914830 J-0.368974
G01 X32.267897 Y22.950790 Z-1.000000
G02 X32.317432 Y22.143606 Z-1.000000 I-3.628343 J-0.627776
G03 X32.363567 Y21.115456 Z-1.000000 I5.129186 J-0.284955
G03 X32.639576 Y21.338246 Z-1.000000 I-0.314153 J0.168793
G02 X32.590349 Y21.670472 Z-1.000000 I2.292497 J0.509444
G02 X32.498638 Y23.130172 Z-1.000000 I57.023712 J4.315472
G03 X32.313422 Y24.558042 Z-1.000000 I-8.418113 J-0.366005
G02 X32.014612 Y24.967015 Z-1.000000 I0.148869 J0.260521
G00 X30.545640 Y25.707324
G02 X30.527429 Y25.048145 Z-1.000000 I-11.938953 J0.000000 F3500.000000
G02 X30.444970 Y24.056336 Z-1.000000 I-17.933956 J0.991691
G03 X30.950365 Y26.149903 Z-1.000000 I-13.033712 J3.442867
G03 X30.726846 Y26.391880 Z-1.000000 I-0.223519 J0.017754
G03 X30.545640 Y25.707324 Z-1.000000 I2.279023 J-0.606161
G00 X30.827516 Y27.599920
G02 X30.975459 Y27.089163 Z-1.000000 I-4.101537 J-1.464835 F3500.000000
G02 X31.089258 Y26.552952 Z-1.000000 I-22.800018 J-5.118974
G03 X31.251115 Y26.111273 Z-1.000000 I1.504858 J0.300972
G03 X31.585034 Y26.735103 Z-1.000000 I-0.320992 J0.481488
G03 X30.867784 Y27.942198 Z-1.000000 I-2.729651 J-0.805305
G03 X30.827516 Y27.599920 Z-1.000000 I0.804821 J-0.096889
G00 X29.538940 Y27.579786
G02 X29.851404 Y27.461475 Z-1.000000 I0.041051 J-0.061576
G02 X29.941620 Y26.915364 Z-1.000000 I-1.607799 J-0.546111
G03 X30.027177 Y26.256987 Z-1.000000 I2.575945 J-0.000000
G03 X30.324166 Y26.875096 Z-1.000000 I-3.098374 J0.646291
G03 X30.134045 Y27.651383 Z-1.000000 I-2.155673 J-0.116523
G03 X29.617265 Y27.720418 Z-1.000000 I0.000000 J-0.539580
G00 X28.149694 Y27.821394
G03 X27.932868 Y27.595403 Z-1.000000 I0.338789 J-0.542062 F3500.000000
G03 X27.787282 Y27.177106 Z-1.000000 I1.061862 J-0.604058
G03 X28.069158 Y27.016034 Z-1.000000 I0.086793 J0.153032
G03 X28.241258 Y26.632169 Z-1.000000 I0.777913 J-0.233374
G03 X28.532240 Y26.774426 Z-1.000000 I-0.394473 J0.255945
G03 X28.458490 Y27.149300 Z-1.000000 I-0.989624 J-0.000000
G02 X28.234906 Y27.594679 Z-1.000000 I0.117851 J0.202030
G02 X28.552374 Y27.801260 Z-1.000000 I0.317468 J-0.140647
G03 X28.625953 Y27.488791 Z-1.000000 I0.048397 J-0.027655
G03 X28.834250 Y27.821394 Z-1.000000 I-0.184341 J0.067719
G03 X28.149694 Y27.821394 Z-1.000000 I0.000000 J-0.845579
G00 X28.632910 Y29.371712
G03 X28.073341 Y29.100420 Z-1.000000 I1.179903 J-3.146407 F3500.000000
G03 X27.767148 Y28.828094 Z-1.000000 I0.583342 J-0.964186
G03 X26.760448 Y28.526084 Z-1.000000 I0.783244 J-2.775746
G03 X24.897467 Y26.129423 Z-1.000000 I2.420837 J-3.804173
G03 X24.002090 Y20.150340 Z-1.000000 I17.093738 J-5.616399
G03 X24.298418 Y15.314565 Z-1.000000 I58.514564 J1.158704
G03 X24.545708 Y14.794696 Z-1.000000 I0.855217 J0.088058
G03 X25.394218 Y14.612398 Z-1.000000 I0.565287 J0.565287
G03 X25.955088 Y15.318180 Z-1.000000 I-0.312077 J0.823748
G03 X25.945710 Y15.904736 Z-1.000000 I-1.524239 J0.268983
G03 X25.698352 Y16.095013 Z-1.000000 I-0.047921 J-0.054767
G03 X25.632944 Y15.640324 Z-1.000000 I0.955999 J-0.369572
G02 X25.583120 Y15.023039 Z-1.000000 I-1.765554 J-0.168148
G02 X25.287831 Y14.916459 Z-1.000000 I-0.043351 J0.097540
G02 X25.149728 Y15.640324 Z-1.000000 I2.213138 J0.797341
G02 X25.174778 Y16.459139 Z-1.000000 I5.671087 J0.236295
G03 X25.773882 Y16.626890 Z-1.000000 I-2.474211 J14.187214
G03 X26.003848 Y16.366031 Z-1.000000 I0.152692 J-0.091615
G02 X26.248931 Y16.053594 Z-1.000000 I-0.207671 J-0.259588
G03 X26.259030 Y15.624398 Z-1.000000 I0.147935 J-0.059174
G02 X26.565136 Y15.557361 Z-1.000000 I0.063605 J-0.159011
G03 X26.625033 Y15.213006 Z-1.000000 I0.211112 J-0.090477
G03 X27.203396 Y14.593356 Z-1.000000 I2.859642 J2.089369
G02 X27.681370 Y13.920900 Z-1.000000 I-0.989564 J-1.209468
G02 X27.787282 Y13.043038 Z-1.000000 I-1.815566 J-0.664364
G03 X27.809311 Y12.129840 Z-1.000000 I2.868706 J-0.387663
G03 X28.028890 Y11.694060 Z-1.000000 I0.855754 J0.157984
G03 X29.060427 Y11.562557 Z-1.000000 I0.592678 J0.537545
G03 X29.740280 Y12.821564 Z-1.000000 I-0.825838 J1.259007
G02 X29.917864 Y13.535677 Z-1.000000 I1.524614 J-0.000000
G02 X30.203362 Y13.707460 Z-1.000000 I0.285498 J-0.151354
G03 X30.639644 Y13.751683 Z-1.000000 I0.000000 J2.174165
G03 X32.156360 Y14.110140 Z-1.000000 I-5.205992 J25.415824
G02 X33.656320 Y14.484175 Z-1.000000 I11.290708 J-42.083547
G02 X34.050000 Y14.420693 Z-1.000000 I0.000000 J-0.155471
G02 X34.270430 Y13.707460 Z-1.000000 I-2.849987 J-1.271490
G03 X35.083799 Y12.610834 Z-1.000000 I1.496952 J0.260339
G03 X35.901284 Y12.881966 Z-1.000000 I0.273583 J0.543083
G03 X36.310891 Y14.840071 Z-1.000000 I-3.513905 J1.756953
G03 X35.740212 Y16.485952 Z-1.000000 I-3.120106 J-0.159963
G03 X33.565052 Y19.190361 Z-1.000000 I-32.271204 J-23.728826
G03 X33.223462 Y19.344980 Z-1.000000 I-0.341590 J-0.300017
G02 X32.961720 Y19.747660 Z-1.000000 I0.473157 J0.312276
G03 X32.851332 Y20.051457 Z-1.000000 I-0.473233 J-0.000000
G03 X32.511896 Y20.049570 Z-1.000000 I0.000000 J-0.131273
G02 X32.688661 Y19.605090 Z-1.000000 I-0.456457 J-0.399400
G03 X32.156360 Y19.445650 Z-1.000000 I0.801558 J-4.466754
G02 X30.432017 Y19.218789 Z-1.000000 I-1.999475 J8.531093
G02 X30.122826 Y19.385248 Z-1.000000 I-0.010994 J0.349964
G03 X30.087994 Y18.920096 Z-1.000000 I0.310923 J0.000000
G03 X30.444970 Y18.861764 Z-1.000000 I0.248304 J0.398090
G02 X30.953332 Y18.915620 Z-1.000000 I0.508362 J-2.372355
G02 X31.250330 Y18.861764 Z-1.000000 I0.000000 J-0.845851
G02 X31.330866 Y18.298012 Z-1.000000 I-0.589233 J-0.089109
G03 X31.221191 Y17.992601 Z-1.000000 I1.683052 J-0.776793
G02 X31.874484 Y17.553054 Z-1.000000 I-1.529656 J-2.178548
G02 X32.207324 Y16.907161 Z-1.000000 I-1.349467 J-1.104109
G03 X31.836640 Y16.780615 Z-1.000000 I-0.110642 J-0.295045
G03 X31.709216 Y16.431015 Z-1.000000 I0.151295 J-0.060518
G03 X32.704309 Y16.773099 Z-1.000000 I-0.204605 J1.364036
G03 X32.961720 Y17.412116 Z-1.000000 I-0.664467 J0.639017
G02 X32.347295 Y17.309235 Z-1.000000 I-0.233246 J0.148430
G02 X31.753680 Y18.438950 Z-1.000000 I1.679380 J1.603255
G03 X31.491938 Y18.902032 Z-1.000000 I-1.606238 J-0.950295
G03 X32.036770 Y19.115329 Z-1.000000 I0.217449 J1.195970
G02 X32.526979 Y19.258584 Z-1.000000 I0.188439 J-0.282658
G02 X33.001988 Y19.123506 Z-1.000000 I-0.193740 J-1.584033
G02 X33.907655 Y18.420897 Z-1.000000 I-0.870075 J-2.056541
G02 X33.767080 Y18.136940 Z-1.000000 I-0.140575 J-0.107183
G03 X33.686544 Y17.834930 Z-1.000000 I0.363192 J-0.100561
G03 X34.008688 Y17.532920 Z-1.000000 I0.145646 J0.148397
G03 X34.089224 Y17.834930 Z-1.000000 I-0.302832 J0.083558
G02 X34.169760 Y18.136940 Z-1.000000 I0.090866 J-0.025159
G02 X34.766353 Y17.570768 Z-1.000000 I0.000000 J-0.597410
G02 X34.270430 Y16.465818 Z-1.000000 I-1.324406 J-0.069346
G03 X34.572409 Y16.525876 Z-1.000000 I-0.083492 J0.333966
G02 X34.697918 Y16.986252 Z-1.000000 I0.308615 J0.034291
G02 X34.975120 Y16.465818 Z-1.000000 I-1.194896 J-0.398299
G02 X35.377094 Y16.503498 Z-1.000000 I0.405396 J-0.253372
G02 X35.418417 Y16.196383 Z-1.000000 I-0.125073 J-0.125073
G02 X33.344266 Y15.640324 Z-1.000000 I-3.454800 J8.740307
G03 X33.030314 Y15.554410 Z-1.000000 I0.115342 J-1.038074
G03 X32.458370 Y15.237644 Z-1.000000 I1.636122 J-3.628864
G02 X32.097143 Y15.065269 Z-1.000000 I-0.780204 J1.170306
G03 X29.599342 Y14.814830 Z-1.000000 I2.514303 J-19.962333
G01 X28.532240 Y14.553088 Z-1.000000
G01 X26.901386 Y16.284612 Z-1.000000
G03 X25.700633 Y17.484589 Z-1.000000 I-14.298039 J-13.106535
G01 X25.995356 Y16.828230 Z-1.000000
G01 X25.492006 Y17.291312 Z-1.000000
G03 X24.949717 Y17.678972 Z-1.000000 I-2.468159 J-2.879519
G02 X24.590880 Y17.889645 Z-1.000000 I0.000000 J0.156170
G02 X24.726914 Y21.459050 Z-1.000000 I41.428195 J0.208415
G02 X25.040298 Y24.259194 Z-1.000000 I67.479356 J-6.134487
G02 X25.230264 Y25.183840 Z-1.000000 I6.652997 J-0.885003
G03 X24.929550 Y21.343066 Z-1.000000 I64.179801 J-9.701598
G03 X24.948388 Y20.170474 Z-1.000000 I5.661272 J-0.495500
G03 X25.189996 Y21.861730 Z-1.000000 I-31.777163 J4.354712
G02 X25.400596 Y24.071866 Z-1.000000 I37.527308 J-2.460807
G02 X25.552408 Y24.740892 Z-1.000000 I3.457050 J-0.432720
G03 X25.681690 Y25.425338 Z-1.000000 I-4.772046 J1.255802
G03 X25.673212 Y25.888530 Z-1.000000 I-1.717699 J0.200235
G02 X25.874552 Y26.230808 Z-1.000000 I0.105854 J-0.062512
G03 X26.075892 Y26.552952 Z-1.000000 I-0.288278 J0.186260
G02 X26.138605 Y26.881170 Z-1.000000 I0.385653 J0.096413
G02 X26.538974 Y27.197240 Z-1.000000 I0.749863 J-0.538247
G03 X27.063949 Y27.497620 Z-1.000000 I-1.541013 J3.302170
G03 X27.364468 Y27.781126 Z-1.000000 I-0.766083 J1.113084
G02 X26.998220 Y27.744351 Z-1.000000 I-0.285712 J0.371426
G03 X26.716788 Y27.924914 Z-1.000000 I-0.135619 J-0.067810
G02 X26.452943 Y27.664072 Z-1.000000 I-0.489737 J0.209887
G02 X26.586461 Y28.065985 Z-1.000000 I0.459243 J-0.401837
G02 X27.082592 Y28.103270 Z-1.000000 I0.336589 J-1.159284
G03 X27.619702 Y28.140572 Z-1.000000 I0.132167 J1.982504
G03 X28.149694 Y28.324744 Z-1.000000 I-0.443764 J2.131684
G02 X29.828867 Y28.899182 Z-1.000000 I3.149202 J-6.464151
G02 X30.908052 Y28.868362 Z-1.000000 I0.475072 J-2.274671
G02 X31.203652 Y28.646010 Z-1.000000 I-0.105344 J-0.447712
G02 X31.351000 Y28.083136 Z-1.000000 I-1.001426 J-0.562874
G03 X31.421893 Y27.456787 Z-1.000000 I2.802368 J-0.000000
G02 X31.610492 Y27.165324 Z-1.000000 I-0.105724 J-0.176206
G02 X31.632876 Y26.472416 Z-1.000000 I-4.191408 J-0.482219
G03 X31.750122 Y26.104340 Z-1.000000 I0.504420 J-0.042035
G02 X32.272378 Y26.258350 Z-1.000000 I0.474926 J-0.511459
G03 X32.210891 Y26.687341 Z-1.000000 I-0.348566 J-0.209140
G02 X31.793948 Y26.854962 Z-1.000000 I0.163651 J0.307926
G03 X31.749145 Y27.296724 Z-1.000000 I-12.339068 J-1.028256
G03 X31.632876 Y28.002600 Z-1.000000 I-8.029666 J-0.960102
G02 X31.715723 Y28.313135 Z-1.000000 I0.356304 J0.071261
G02 X32.247876 Y27.913036 Z-1.000000 I-1.171047 J-1.288151
G02 X32.659710 Y27.016034 Z-1.000000 I-4.395200 J-2.560976
G02 X33.082038 Y25.130645 Z-1.000000 I-6.437861 J-2.432081
G02 X33.203328 Y20.553020 Z-1.000000 I-43.057634 J-3.431282
G03 X33.284098 Y19.845606 Z-1.000000 I2.258952 J-0.100398
G03 X33.884321 Y21.854485 Z-1.000000 I-3.355642 J1.864245
G03 X33.042256 Y26.794560 Z-1.000000 I-19.826066 J-0.837665
G03 X32.232935 Y28.345386 Z-1.000000 I-4.285837 J-1.250036
G03 X31.109392 Y29.210640 Z-1.000000 I-2.357859 J-1.899614
G03 X29.774532 Y29.528930 Z-1.000000 I-1.616343 J-3.820447
G03 X28.632910 Y29.371712 Z-1.000000 I-0.192285 J-2.827229
G00 X27.304066 Y25.143572
G03 X27.264002 Y24.413292 Z-1.000000 I3.849495 J-0.577424 F3500.000000
G03 X27.344334 Y24.036202 Z-1.000000 I1.134520 J0.044586
G02 X27.613956 Y24.640485 Z-1.000000 I1.026235 J-0.060367
G02 X27.847684 Y24.257676 Z-1.000000 I-0.428457 J-0.098028
G03 X27.928220 Y23.875130 Z-1.000000 I0.218130 J0.047670
G03 X28.129560 Y24.459016 Z-1.000000 I-1.668054 J0.544063
G03 X28.007596 Y25.000359 Z-1.000000 I-1.262367 J-0.000000
G02 X27.645846 Y25.100513 Z-1.000000 I-0.073635 J0.165679
G02 X27.485272 Y25.425448 Z-1.000000 I0.399629 J0.399629
G03 X27.304066 Y25.143572 Z-1.000000 I0.621516 J-0.400706
G00 X25.854418 Y24.660356
G02 X25.726860 Y24.026375 Z-1.000000 I-9.550561 J1.591760 F3500.000000
G02 X25.592676 Y23.492584 Z-1.000000 I-18.696766 J4.416230
G03 X25.591135 Y23.066721 Z-1.000000 I0.919102 J-0.216259
G02 X25.790638 Y23.324136 Z-1.000000 I0.271728 J0.163037
G02 X25.934954 Y24.056336 Z-1.000000 I3.840316 J-0.376600
G03 X26.091363 Y24.783093 Z-1.000000 I-4.484364 J1.345309
G00 X27.142994 Y23.291244
G03 X27.027600 Y23.001664 Z-1.000000 I0.342132 J-0.304118 F3500.000000
G03 X27.102726 Y22.546286 Z-1.000000 I1.188742 J-0.037772
G03 X27.272357 Y22.251713 Z-1.000000 I1.025570 J0.394450
G03 X27.424870 Y23.029502 Z-1.000000 I-313.570004 J39.760978
G03 X27.142994 Y23.291244 Z-1.000000 I-0.085148 J-0.091360
G00 X28.995322 Y24.579820
G03 X28.869522 Y23.641732 Z-1.000000 I5.418558 J-1.204124 F3500.000000
G02 X29.196662 Y23.150306 Z-1.000000 I-1.018622 J-0.662388
G02 X29.015456 Y22.848296 Z-1.000000 I-0.105905 J0.061742
G03 X28.733580 Y22.465750 Z-1.000000 I0.461534 J-0.331462
G01 X28.733580 Y21.962400 Z-1.000000
G01 X29.136260 Y22.365080 Z-1.000000
G03 X29.441499 Y22.812679 Z-1.000000 I-1.030893 J1.030893
G02 X29.336629 Y23.230317 Z-1.000000 I0.408788 J0.272525
G02 X29.317466 Y24.398614 Z-1.000000 I12.242601 J0.785117
G03 X29.293472 Y25.551596 Z-1.000000 I-27.714276 J-0.000000
G03 X28.995322 Y24.579820 Z-1.000000 I11.122873 J-2.997901
G00 X24.525574 Y22.365080
G02 X24.389526 Y21.651899 Z-1.000000 I-3.753665 J0.346492 F3500.000000
G02 X24.450202 Y24.063870 Z-1.000000 I16.548450 J0.337723
G02 X24.525574 Y22.365080 Z-1.000000 I-113.870410 J8.197806
G00 X24.948388 Y15.821530
G02 X24.814760 Y15.004293 Z-1.000000 I-5.023748 J0.401900 F3500.000000
G02 X24.364157 Y15.884004 Z-1.000000 I0.980441 J0.980441
G02 X24.646378 Y16.989302 Z-1.000000 I1.827195 J0.122133
G02 X24.948388 Y15.821530 Z-1.000000 I-3.619809 J-0.894061
G00 X28.270498 Y14.371882
G02 X28.806093 Y12.628778 Z-1.000000 I-2.925267 J-1.852669 F3500.000000
G02 X28.290632 Y12.096740 Z-1.000000 I-0.515461 J-0.016319
G02 X28.189962 Y13.063172 Z-1.000000 I4.231607 J0.455509
G03 X28.136350 Y13.953618 Z-1.000000 I-2.700386 J0.284251
G03 X27.867818 Y14.472552 Z-1.000000 I-1.140444 J-0.261198
G02 X27.631704 Y14.830429 Z-1.000000 I0.999714 J0.916405
G02 X28.270498 Y14.371882 Z-1.000000 I-1.790721 J-1.935560
G00 X29.216796 Y12.861832
G02 X28.918167 Y12.257370 Z-1.000000 I-1.333706 J0.282907 F3500.000000
G02 X28.915726 Y13.322168 Z-1.000000 I2.805342 J0.062341
G02 X29.176528 Y13.506120 Z-1.000000 I0.260802 J-0.092904
G02 X29.216796 Y12.861832 Z-1.000000 I-2.270135 J-0.060576
G00 X33.022122 Y14.673892
G02 X32.297298 Y14.512820 Z-1.000000 I-0.595898 J3.188742
G03 X30.615204 Y14.292816 Z-1.000000 I0.230668 J-8.304045
G03 X29.579208 Y13.828264 Z-1.000000 I0.695027 J-2.937442
G02 X28.995322 Y13.949068 Z-1.000000 I0.136390 J0.668797
G02 X29.317466 Y14.271212 Z-1.000000 I0.336791 J-0.336791
G03 X29.907683 Y14.360397 Z-1.000000 I-0.000000 J1.997599
G03 X30.324166 Y14.553088 Z-1.000000 I-0.509731 J1.648171
G02 X32.663656 Y15.332096 Z-1.000000 I2.478380 J-3.540543
G02 X33.022122 Y14.673892 Z-1.000000 I0.013484 J-0.419371
G00 X34.673110 Y15.318180
G02 X34.980110 Y15.472447 Z-1.000000 I0.451616 J-0.516132 F3500.000000
G02 X35.317398 Y15.459118 Z-1.000000 I0.142755 J-0.661773
G02 X35.136192 Y15.157108 Z-1.000000 I-0.409568 J0.248192
G03 X34.639590 Y14.887484 Z-1.000000 I0.717891 J-1.914376
G02 X33.928152 Y14.673892 Z-1.000000 I-0.236675 J2.774805
G02 X33.642615 Y14.816660 Z-1.000000 I0.071384 J0.499689
G01 X33.767080 Y15.116840 Z-1.000000
G02 X34.234114 Y15.363358 Z-1.000000 I0.310961 J-0.684115
G03 X34.673110 Y15.318180 Z-1.000000 I-0.053633 J0.440686
G00 X35.397934 Y14.351748
G01 X35.657210 Y14.510901 Z-1.000000
G02 X35.720078 Y13.969202 Z-1.000000 I-1.874332 J-0.492027
G02 X35.408836 Y13.252393 Z-1.000000 I-1.064123 J0.036072
G02 X35.095924 Y13.345048 Z-1.000000 I-0.131296 J0.131296
G02 X35.001789 Y14.725328 Z-1.000000 I5.440069 J1.064361
G02 X35.323157 Y14.654337 Z-1.000000 I-0.135631 J-0.271261
G02 X35.397934 Y14.351748 Z-1.000000 I-1.105501 J-0.433731
G00 X32.961720 Y18.801362
G03 X33.183194 Y18.418816 Z-1.000000 I0.460130 J0.280360
G02 X33.203328 Y18.096672 Z-1.000000 I-0.235159 J-0.009364
G03 X33.067670 Y17.590087 Z-1.000000 I0.370735 J-0.370735
G03 X33.404668 Y17.331580 Z-1.000000 I0.336998 J0.090407
G03 X33.733761 Y17.715298 Z-1.000000 I0.000000 J0.332981
G03 X33.183194 Y18.801362 Z-1.000000 I-1.934945 J-0.298314
G00 X15.465274 Y17.492652
G02 X15.775359 Y16.958086 Z-1.000000 I-1.737053 J-1.364827 F3500.000000
G02 X15.847820 Y16.586622 Z-1.000000 I-0.915902 J-0.371464
G02 X15.243800 Y17.331580 Z-1.000000 I4.094237 J3.226896
G02 X14.731503 Y18.454722 Z-1.000000 I8.787083 J4.686444
G02 X14.659914 Y18.841630 Z-1.000000 I1.009739 J0.386908
G03 X15.132667 Y18.065000 Z-1.000000 I5.543670 J2.078876
G03 X15.465274 Y17.492652 Z-1.000000 I4.807963 J2.411223
G00 X12.223700 Y18.136940
G03 X12.827720 Y17.935600 Z-1.000000 I0.524444 J1.497765
G03 X13.356427 Y18.029217 Z-1.000000 I0.000000 J1.539759
G03 X12.827720 Y18.338280 Z-1.000000 I-0.515279 J-1.619739
G03 X12.317317 Y18.262967 Z-1.000000 I-0.000000 J-1.767175
G00 X11.821020 Y20.532886
G03 X12.223700 Y20.452350 Z-1.000000 I0.120405 J0.569165
G02 X12.636679 Y20.481820 Z-1.000000 I0.264073 J-0.792219
G02 X12.948524 Y20.331546 Z-1.000000 I-0.115801 J-0.639013
G03 X13.241480 Y20.186875 Z-1.000000 I0.533438 J0.711251
G03 X13.230400 Y20.553020 Z-1.000000 I-0.392101 J-0.169775
G03 X12.143257 Y20.862303 Z-1.000000 I-1.044896 J-1.607532
G03 X11.821020 Y20.532886 Z-1.000000 I0.007260 J-0.329417
G00 X8.398240 Y20.251010
G03 X8.693850 Y20.018226 Z-1.000000 I0.770054 J0.673798 F3500.000000
G03 X9.425074 Y19.707392 Z-1.000000 I2.299460 J4.393875
G02 X10.111946 Y19.403412 Z-1.000000 I-0.659537 J-2.418302
G03 X10.803118 Y18.566706 Z-1.000000 I0.660996 J0.000000
G03 X12.485442 Y18.982568 Z-1.000000 I0.263775 J2.543687
G02 X13.592812 Y19.143640 Z-1.000000 I0.842969 J-5.218376
G02 X14.283729 Y18.986650 Z-1.000000 I-0.000000 J-1.598866
G03 X14.506164 Y18.324962 Z-1.000000 I1.311516 J-0.000000
G03 X14.901522 Y17.371848 Z-1.000000 I6.951732 J2.325073
G02 X15.290945 Y16.403855 Z-1.000000 I-5.755644 J-2.877822
G02 X15.304202 Y16.083272 Z-1.000000 I-0.595928 J-0.185209
G03 X15.827686 Y15.438984 Z-1.000000 I1.101584 J0.897668
G02 X16.369210 Y15.055878 Z-1.000000 I-1.576516 J-2.802695
G02 X16.834386 Y14.532954 Z-1.000000 I-1.852681 J-2.116451
G02 X17.503524 Y12.927593 Z-1.000000 I-3.167145 J-2.262247
G02 X17.297468 Y11.774596 Z-1.000000 I-1.700021 J-0.291094
G02 X16.874654 Y11.955802 Z-1.000000 I0.177912 J0.403004
G02 X16.686401 Y12.535760 Z-1.000000 I6.359498 J2.384812
G03 X16.331906 Y13.600694 Z-1.000000 I-1.205561 J-0.000000
G03 X15.344470 Y14.190676 Z-1.000000 I-1.500983 J-1.390840
G03 X14.838713 Y14.213625 Z-1.000000 I-0.305358 J-1.145091
G03 X14.277368 Y14.029604 Z-1.000000 I0.341307 J-1.989324
G02 X13.697428 Y13.783455 Z-1.000000 I-1.676023 J3.142543
G02 X12.928390 Y13.586656 Z-1.000000 I-1.961788 J6.065137
G03 X12.171556 Y13.375461 Z-1.000000 I0.762713 J-4.194920
G03 X11.818994 Y12.555826 Z-1.000000 I0.837805 J-0.558536
G03 X12.082762 Y12.378616 Z-1.000000 I0.206654 J0.022687
G03 X12.022360 Y11.633658 Z-1.000000 I2.916346 J-0.575742
G02 X11.789346 Y10.545372 Z-1.000000 I-2.657914 J-0.000000
G02 X11.468829 Y10.633357 Z-1.000000 I0.185670 J0.185670
G02 X11.277402 Y11.694060 Z-1.000000 I11.425946 J2.609686
G03 X10.897635 Y12.588112 Z-1.000000 I-1.947711 J-0.299648
G03 X10.210300 Y13.083306 Z-1.000000 I-1.156241 J-0.880264
G02 X9.377705 Y13.517516 Z-1.000000 I1.150535 J3.221499
G02 X8.176766 Y14.532954 Z-1.000000 I5.465797 J7.682174
G02 X7.165756 Y16.122239 Z-1.000000 I3.212448 J3.159785
G02 X6.807654 Y18.237610 Z-1.000000 I5.371075 J1.997244
G01 X6.827788 Y19.244310 Z-1.000000
G01 X7.029128 Y18.338280 Z-1.000000
G03 X7.294407 Y17.477444 Z-1.000000 I4.357167 J0.871433
G03 X7.552612 Y17.049704 Z-1.000000 I1.618375 J0.685127
G03 X8.555673 Y16.307711 Z-1.000000 I2.410467 J2.209595
G03 X9.163332 Y16.264478 Z-1.000000 I0.358922 J0.752725
G03 X9.477187 Y16.735360 Z-1.000000 I-0.156930 J0.444635
G03 X9.102930 Y17.251044 Z-1.000000 I-0.587539 J-0.032756
G02 X8.525413 Y17.788741 Z-1.000000 I0.386671 J0.994297
G02 X7.915024 Y19.808062 Z-1.000000 I6.433231 J3.046515
G02 X8.078895 Y20.272237 Z-1.000000 I0.514939 J0.079221
G02 X8.398240 Y20.251010 Z-1.000000 I0.149483 J-0.163911
G00 X7.653282 Y20.432216
G03 X7.594478 Y19.166418 Z-1.000000 I1.861975 J-0.720764 F3500.000000
G03 X8.418374 Y17.653724 Z-1.000000 I3.759001 J1.066640
G02 X8.525098 Y17.035839 Z-1.000000 I-0.459330 J-0.397497
G02 X8.136498 Y16.928900 Z-1.000000 I-0.234096 J0.091143
G02 X7.574301 Y17.715136 Z-1.000000 I1.030347 J1.330865
G02 X7.069396 Y20.049670 Z-1.000000 I9.719709 J3.324013
G01 X6.928458 Y21.459050 Z-1.000000
G01 X7.351272 Y21.096638 Z-1.000000
G02 X7.641502 Y20.688406 Z-1.000000 I-1.063062 J-1.063062
G00 X5.639882 Y19.103372
G02 X5.465045 Y17.266714 Z-1.000000 I-25.478730 J1.498749 F3500.000000
G02 X5.209700 Y17.092333 Z-1.000000 I-0.063780 J0.057402
G02 X5.136532 Y18.237610 Z-1.000000 I5.185386 J0.906251
G03 X5.163010 Y18.639425 Z-1.000000 I-8.066607 J0.733328
G02 X5.196934 Y19.405382 Z-1.000000 I115.310844 J-4.723420
G02 X5.294127 Y20.068692 Z-1.000000 I3.509654 J-0.175483
G03 X5.579480 Y20.553020 Z-1.000000 I-0.740954 J0.330893
G02 X5.618882 Y20.922493 Z-1.000000 I1.752000 J0.000000
G02 X5.639882 Y19.103372 Z-1.000000 I-46.355044 J0.978499
G00 X7.089530 Y14.875232
G02 X7.854622 Y14.291346 Z-1.000000 I-0.880259 J-1.824687
G02 X8.317414 Y13.746113 Z-1.000000 I-3.101963 J-3.101963
G02 X6.078085 Y14.336075 Z-1.000000 I-0.000000 J4.232534
G02 X5.861356 Y15.096706 Z-1.000000 I0.307128 J0.498702
G02 X6.586180 Y15.277912 Z-1.000000 I0.774897 J-3.099586
G02 X7.002989 Y15.149651 Z-1.000000 I0.042979 J-0.601710
G00 X6.586180 Y14.210810
G02 X7.061048 Y13.778814 Z-1.000000 I-1.849518 J-2.510060 F3500.000000
G02 X6.062696 Y14.210810 Z-1.000000 I2.770973 J5.498425
G02 X5.584534 Y14.635488 Z-1.000000 I1.591140 J2.273057
G02 X5.884873 Y14.649008 Z-1.000000 I0.000000 J-0.572020
G02 X6.586180 Y14.210810 Z-1.000000 I-2.505970 J-4.790930
G00 X5.841222 Y14.029604
G02 X6.213721 Y13.574323 Z-1.000000 I-0.290800 J-0.617950 F3500.000000
G02 X6.002294 Y13.304780 Z-1.000000 I-0.211427 J-0.051851
G03 X5.941892 Y12.801430 Z-1.000000 I1.193906 J-0.188136
G02 X5.860681 Y12.437750 Z-1.000000 I-0.511398 J-0.076710
G02 X5.378281 Y12.431182 Z-1.000000 I-0.000000 J0.250576
G03 X5.531379 Y13.621924 Z-1.000000 I-1.324159 J0.693607
G03 X5.196934 Y13.908800 Z-1.000000 I-0.334445 J-0.051513
G03 X5.076130 Y13.405450 Z-1.000000 I1.536696 J-0.316060
G02 X5.059612 Y12.949429 Z-1.000000 I-1.274910 J-0.182130
G02 X4.774120 Y13.183976 Z-1.000000 I0.828507 J0.370540
G03 X4.746391 Y13.673770 Z-1.000000 I-4.339554 J-0.000000
G02 X4.831764 Y14.199640 Z-1.000000 I0.169894 J0.067958
G02 X5.841222 Y14.029604 Z-1.000000 I0.141959 J-2.238687
G00 X9.727084 Y11.694060
G02 X9.968692 Y11.049772 Z-1.000000 I-1.148847 J-0.417371
G02 X9.663358 Y10.707571 Z-1.000000 I-0.383499 J0.034864
G02 X9.384806 Y10.928968 Z-1.000000 I-0.047012 J0.226781
G01 X9.344538 Y11.593390 Z-1.000000
G01 X9.223734 Y10.888700 Z-1.000000
G03 X9.235683 Y10.249919 Z-1.000000 I1.514130 J-0.291179
G01 X9.414084 Y9.979578 Z-1.000000
G02 X9.051539 Y10.125939 Z-1.000000 I0.040129 J0.321032
G02 X8.841188 Y10.969236 Z-1.000000 I2.035365 J0.955583
G02 X8.930156 Y11.735275 Z-1.000000 I2.069569 J0.147826
G03 X9.437466 Y11.724214 Z-1.000000 I0.959733 J2.879200
G00 X15.545810 Y13.747728
G02 X14.982058 Y13.586656 Z-1.000000 I-0.589675 J1.840219
G03 X14.551809 Y13.531465 Z-1.000000 I0.405432 J-4.865187
G03 X13.935090 Y13.405450 Z-1.000000 I1.824353 J-10.500569
G02 X14.237100 Y13.667192 Z-1.000000 I0.811888 J-0.945510
G02 X15.455347 Y13.946228 Z-1.000000 I1.500016 J-3.750041
G00 X16.210232 Y13.204110
G02 X15.223666 Y12.982636 Z-1.000000 I-1.954284 J8.620650
G02 X14.570894 Y12.990325 Z-1.000000 I-0.293062 J2.832931
G02 X14.779646 Y13.212209 Z-1.000000 I0.433728 J-0.520473
G02 X15.445140 Y13.345048 Z-1.000000 I1.051532 J-3.534528
G02 X16.181808 Y13.306551 Z-1.000000 I0.224588 J-2.769913
G00 X16.411572 Y11.814864
G03 X16.581123 Y11.233318 Z-1.000000 I1.450670 J0.107457 F3500.000000
G02 X16.888809 Y11.132412 Z-1.000000 I0.039427 J-0.118282
G02 X16.343580 Y10.836745 Z-1.000000 I-0.330321 J0.126299
G02 X15.847820 Y11.975936 Z-1.000000 I1.060973 J1.139191
G02 X16.115462 Y12.177534 Z-1.000000 I0.209746 J0.000000
G02 X16.411572 Y11.814864 Z-1.000000 I-0.113376 J-0.394786
G00 X14.901522 Y24.438882
G03 X15.163264 Y24.257676 Z-1.000000 I0.128773 J0.186844
G02 X14.619646 Y24.197274 Z-1.000000 I0.018789 J0.910080
G03 X14.124642 Y24.384664 Z-1.000000 I-0.952903 J-1.769677
G03 X13.693482 Y24.398614 Z-1.000000 I-0.250439 J-1.070378
G02 X13.304217 Y24.427033 Z-1.000000 I-0.100391 J1.305086
G02 X14.136430 Y24.740892 Z-1.000000 I0.988844 J-3.983131
G02 X14.817156 Y24.623222 Z-1.000000 I0.047396 J-1.753666
G00 X14.096162 Y25.485850
G03 X14.478708 Y25.183840 Z-1.000000 I0.282843 J0.361669
G03 X14.841120 Y25.485850 Z-1.000000 I-0.173516 J0.202297
G03 X14.478708 Y25.787860 Z-1.000000 I-0.269410 J-0.314096
G03 X14.096162 Y25.485850 Z-1.000000 I0.159964 J-0.204544
G00 X14.680048 Y26.311344
G03 X15.074566 Y26.147514 Z-1.000000 I0.568576 J0.812252 F3500.000000
G03 X15.928356 Y26.089870 Z-1.000000 I0.690134 J3.870115
G02 X16.453877 Y25.921306 Z-1.000000 I0.019175 J-0.843693
G02 X16.129874 Y25.371584 Z-1.000000 I-0.839951 J0.659961
G03 X15.736102 Y25.531029 Z-1.000000 I-0.427795 J-0.513354
G03 X15.364604 Y25.586520 Z-1.000000 I-0.371498 J-1.215799
G03 X15.425006 Y25.163706 Z-1.000000 I0.463351 J0.064852
G02 X15.788932 Y24.768503 Z-1.000000 I-1.399304 J-1.653723
G02 X15.364604 Y24.761026 Z-1.000000 I0.283823 J0.899097
G03 X15.035581 Y24.928715 Z-1.000000 I-0.496353 J-0.567261
G03 X14.398172 Y24.982500 Z-1.000000 I-0.509980 J-2.239941
G02 X13.653342 Y25.056156 Z-1.000000 I-0.145632 J2.330113
G03 X12.565978 Y25.445582 Z-1.000000 I-1.262862 J-5.152917
G03 X11.882188 Y25.405743 Z-1.000000 I-0.158437 J-3.168749
G02 X11.637555 Y25.222285 Z-1.000000 I-0.088008 J0.029336
G03 X11.119561 Y25.516929 Z-1.000000 I-0.687761 J-0.802388
G03 X10.774052 Y25.586520 Z-1.000000 I-0.345509 J-0.822910
G02 X10.411640 Y25.888530 Z-1.000000 I0.173516 J0.202297
G02 X10.572712 Y26.150272 Z-1.000000 I0.086591 J-0.048053
G03 X11.257268 Y26.271076 Z-1.000000 I-1.554754 J7.982431
G02 X11.796528 Y26.341743 Z-1.000000 I0.539260 J-2.022226
G02 X12.072063 Y26.144397 Z-1.000000 I-0.044679 J-0.067019
G02 X11.720350 Y25.969066 Z-1.000000 I-0.487481 J0.537453
G03 X12.002226 Y25.807994 Z-1.000000 I0.309866 J0.544615
G03 X12.572039 Y25.937151 Z-1.000000 I0.030442 J1.187228
G02 X12.648244 Y26.258264 Z-1.000000 I0.074911 J0.058858
G02 X13.149864 Y26.311344 Z-1.000000 I0.355922 J-0.966804
G03 X13.523436 Y26.307804 Z-1.000000 I0.197271 J1.104719
G02 X13.733750 Y26.573086 Z-1.000000 I0.221675 J-0.221675
G02 X14.325673 Y26.490773 Z-1.000000 I-0.000000 J-2.169458
G02 X14.680048 Y26.311344 Z-1.000000 I-0.283465 J-0.999510
G00 X12.928390 Y24.982500
G03 X12.735072 Y24.718979 Z-1.000000 I0.000000 J-0.053152
G02 X12.919365 Y24.442346 Z-1.000000 I-0.130305 J-0.186150
G02 X12.505576 Y24.680490 Z-1.000000 I0.362897 J0.421170
G03 X12.203566 Y24.861696 Z-1.000000 I-0.071085 J-0.112471
G03 X12.143164 Y24.539552 Z-1.000000 I0.309112 J-0.050154
G02 X11.821020 Y24.579820 Z-1.000000 I0.108829 J0.832431
G02 X11.588778 Y24.835089 Z-1.000000 I0.262052 J0.471694
G02 X12.476206 Y25.232429 Z-1.000000 I0.796061 J-1.260430
G02 X12.928390 Y24.982500 Z-1.000000 I-0.015197 J-0.561516
G00 X10.532444 Y24.640222
G03 X12.271532 Y23.825453 Z-1.000000 I2.871219 J3.865103 F3500.000000
G03 X14.800852 Y23.613388 Z-1.000000 I1.949051 J8.056763
G02 X15.416840 Y23.517938 Z-1.000000 I0.097137 J-1.408489
G02 X15.596357 Y22.958596 Z-1.000000 I-0.724958 J-0.144992
G03 X15.321909 Y22.624395 Z-1.000000 I0.163499 J-0.326999
G03 X15.143130 Y22.103338 Z-1.000000 I1.856041 J-0.928020
G03 X15.152247 Y21.683755 Z-1.000000 I0.682698 J-0.195056
G02 X15.515714 Y21.402828 Z-1.000000 I0.000000 J-0.195168
G02 X15.445140 Y20.955700 Z-1.000000 I-0.640328 J-0.128066
G02 X15.181906 Y20.691274 Z-1.000000 I-0.584920 J0.319048
G02 X14.762204 Y20.836295 Z-1.000000 I0.201739 J0.403479
G03 X14.659914 Y21.157040 Z-1.000000 I-0.098794 J-0.063312
G03 X14.760584 Y20.452350 Z-1.000000 I0.971325 J0.155422
G02 X14.928425 Y20.125697 Z-1.000000 I-0.424631 J-0.424631
G02 X13.641344 Y19.179445 Z-1.000000 I-1.519936 J1.266614
G02 X12.827720 Y19.546320 Z-1.000000 I-0.124272 J0.810030
G03 X12.062628 Y19.526186 Z-1.000000 I0.030235 J-1.857145
G02 X11.429665 Y19.432326 Z-1.000000 I-0.602753 J1.883603
G02 X11.096196 Y19.546320 Z-1.000000 I0.008711 J0.570235
G03 X10.773340 Y19.737600 Z-1.000000 I-0.675414 J-0.771902
G03 X10.250568 Y19.848330 Z-1.000000 I-0.648214 J-1.770910
G02 X9.714998 Y19.895224 Z-1.000000 I0.861020 J12.915305
G02 X9.267278 Y19.988063 Z-1.000000 I0.081898 J0.491390
G02 X8.196900 Y20.774494 Z-1.000000 I10.124929 J14.902253
G01 X7.170066 Y21.579854 Z-1.000000
G01 X7.311004 Y22.727492 Z-1.000000
G02 X7.540075 Y23.830463 Z-1.000000 I5.186805 J-0.501949
G02 X7.955292 Y24.781160 Z-1.000000 I5.007707 J-1.621097
G02 X8.857961 Y25.723553 Z-1.000000 I2.280409 J-1.280778
G02 X9.384806 Y25.667056 Z-1.000000 I0.227146 J-0.366531
G03 X9.921081 Y25.153440 Z-1.000000 I4.845197 J4.522184
G03 X10.532444 Y24.640222 Z-1.000000 I27.538220 J32.183680
G00 X9.928424 Y26.895230
G03 X9.925228 Y26.490282 Z-1.000000 I0.836353 J-0.209088 F3500.000000
G02 X10.049228 Y26.150272 Z-1.000000 I-0.241608 J-0.000000
G02 X9.660054 Y26.200842 Z-1.000000 I-0.175117 J0.175117
G02 X9.626414 Y26.854962 Z-1.000000 I0.618244 J0.359720
G02 X9.928424 Y26.895230 Z-1.000000 I0.011898 J-0.089870
G00 X11.357938 Y28.063002
G03 X11.519010 Y27.801260 Z-1.000000 I0.107959 J0.068532
G02 X11.821020 Y27.720724 Z-1.000000 I-0.034328 J-0.125325
G02 X12.160336 Y27.508023 Z-1.000000 I0.079358 J-0.158717
G03 X12.565978 Y27.338178 Z-1.000000 I0.106067 J0.543394
G03 X13.431740 Y27.318044 Z-1.000000 I-0.449976 J3.009756
G02 X14.229227 Y27.513266 Z-1.000000 I1.149691 J-2.970035
G03 X14.892453 Y27.226000 Z-1.000000 I0.478026 J0.478026
G03 X14.398172 Y27.760992 Z-1.000000 I-1.799794 J-2.822238
G03 X13.822804 Y27.832505 Z-1.000000 I-0.431604 J-1.122169
G03 X13.532410 Y27.660322 Z-1.000000 I0.050022 J-0.415338
G02 X13.054877 Y27.489688 Z-1.000000 I-0.367828 J0.275871
G02 X12.928390 Y27.801260 Z-1.000000 I0.049524 J0.201566
G03 X12.626380 Y27.901930 Z-1.000000 I-0.168862 J-0.539838
G02 X12.308355 Y27.913474 Z-1.000000 I-0.132724 J0.729982
G03 X11.970285 Y28.293377 Z-1.000000 I-0.271229 J0.000000
G03 X11.357938 Y28.063002 Z-1.000000 I-0.052042 J-0.790680
G00 X11.217000 Y29.009300
G03 X10.592931 Y28.709844 Z-1.000000 I0.417543 J-1.670172 F3500.000000
G03 X9.505610 Y27.720724 Z-1.000000 I5.040723 J-6.633371
G02 X8.462310 Y26.715476 Z-1.000000 I-6.255888 J5.448677
G02 X8.116364 Y26.593220 Z-1.000000 I-0.345946 J0.428330
G03 X7.073850 Y26.243982 Z-1.000000 I0.000000 J-1.730628
G03 X5.901624 Y24.922098 Z-1.000000 I2.693983 J-3.569680
G03 X5.024990 Y22.415268 Z-1.000000 I5.763917 J-3.422326
G03 X4.492244 Y14.915500 Z-1.000000 I56.394367 J-7.774779
G01 X4.472110 Y12.418884 Z-1.000000
G01 X5.015728 Y12.096740 Z-1.000000
G03 X5.852101 Y12.106335 Z-1.000000 I0.409780 J0.737604
G03 X6.344572 Y12.881966 Z-1.000000 I-0.507782 J0.866564
G02 X6.460919 Y13.472168 Z-1.000000 I3.856998 J-0.453764
G02 X7.270736 Y13.002770 Z-1.000000 I-5.233757 J-8.059589
G03 X8.179957 Y12.573441 Z-1.000000 I1.433305 J1.857987
G03 X8.211208 Y12.921709 Z-1.000000 I-0.355804 J-0.177902
G03 X7.834488 Y13.063172 Z-1.000000 I-0.548235 J-0.887627
G02 X7.491128 Y13.217311 Z-1.000000 I0.121807 J0.730842
G02 X7.585847 Y13.571051 Z-1.000000 I0.151605 J0.000000
G02 X8.519044 Y13.103440 Z-1.000000 I-0.825701 J-2.812808
G03 X9.330305 Y12.571348 Z-1.000000 I4.168932 J5.471724
G01 X9.642062 Y12.574753 Z-1.000000
G03 X9.284136 Y12.881966 Z-1.000000 I-1.034866 J-0.843584
G02 X8.438121 Y13.565527 Z-1.000000 I2.196690 J3.584073
G02 X9.143198 Y13.304780 Z-1.000000 I-3.473506 J-5.439217
G03 X9.687296 Y12.959268 Z-1.000000 I1.990420 J2.533262
G02 X10.111043 Y12.677804 Z-1.000000 I0.000000 J-0.186491
G02 X9.807620 Y12.358482 Z-1.000000 I-0.408801 J0.084628
G03 X9.545878 Y12.016204 Z-1.000000 I0.125028 J-0.100952
G02 X9.243868 Y12.157142 Z-1.000000 I0.553996 J1.162419
G03 X8.749999 Y12.143663 Z-1.000000 I-0.240081 J-0.257864
G03 X8.398240 Y11.271246 Z-1.000000 I0.905985 J-0.872417
G03 X8.527927 Y10.345863 Z-1.000000 I3.366387 J-0.000000
G03 X8.800920 Y9.882000 Z-1.000000 I1.031872 J0.295015
G03 X9.353952 Y9.608711 Z-1.000000 I0.680144 J0.680144
G03 X9.868022 Y9.741062 Z-1.000000 I0.093505 J0.701351
G03 X10.077551 Y10.033995 Z-1.000000 I-0.388130 J0.499024
G03 X10.250568 Y10.868566 Z-1.000000 I-3.164833 J1.091328
G02 X10.435342 Y11.634000 Z-1.000000 I2.240252 J-0.135773
G02 X10.878730 Y11.702353 Z-1.000000 I0.027609 J-0.193260
G02 X11.015660 Y11.069906 Z-1.000000 I-1.392096 J-0.632447
G03 X11.139405 Y10.344322 Z-1.000000 I2.189123 J0.000000
G03 X11.872646 Y10.307931 Z-1.000000 I0.158671 J0.436346
G03 X12.223700 Y11.392050 Z-1.000000 I-1.498454 J1.084119
G02 X12.468733 Y11.836109 Z-1.000000 I0.524889 J0.000000
G02 X13.612946 Y12.277946 Z-1.000000 I1.697510 J-2.693511
G02 X15.282945 Y12.175300 Z-1.000000 I0.600535 J-3.865944
G02 X15.646480 Y11.694060 Z-1.000000 I-0.136760 J-0.481240
G03 X15.798729 Y10.989033 Z-1.000000 I1.708521 J0.000000
G03 X16.169964 Y10.566556 Z-1.000000 I0.879386 J0.398382
G03 X16.662330 Y10.406070 Z-1.000000 I0.512444 J0.736638
G03 X16.995458 Y10.546422 Z-1.000000 I0.009893 J0.442038
G03 X17.222891 Y10.880548 Z-1.000000 I-0.765583 J0.765583
G03 X17.579344 Y11.875266 Z-1.000000 I-7.370509 J3.202421
G03 X17.695662 Y12.894419 Z-1.000000 I-3.799373 J0.949843
G03 X17.539076 Y13.808130 Z-1.000000 I-3.060221 J-0.054167
G03 X16.814845 Y15.056853 Z-1.000000 I-3.628099 J-1.269835
G03 X15.807552 Y15.781262 Z-1.000000 I-2.030854 J-1.761383
G02 X15.908222 Y16.123540 Z-1.000000 I0.362964 J-0.114493
G03 X16.135773 Y16.590311 Z-1.000000 I-0.276192 J0.423495
G03 X15.767284 Y17.633590 Z-1.000000 I-2.195032 J-0.188576
G02 X15.148237 Y19.150186 Z-1.000000 I3.254534 J2.213083
G02 X15.324336 Y20.049670 Z-1.000000 I1.243349 J0.223560
G03 X16.317906 Y22.356020 Z-1.000000 I-6.064197 J3.979629
G03 X16.029026 Y23.089904 Z-1.000000 I-0.671933 J0.159304
G02 X15.769629 Y23.682787 Z-1.000000 I0.294606 J0.482083
G02 X16.331036 Y24.599954 Z-1.000000 I1.529700 J-0.305940
G03 X16.768734 Y25.039627 Z-1.000000 I-1.578900 J2.009509
G03 X16.975324 Y25.425448 Z-1.000000 I-1.021477 J0.795177
G02 X17.124986 Y25.817166 Z-1.000000 I2.052815 J-0.559859
G02 X17.680014 Y26.834828 Z-1.000000 I14.542931 J-7.271465
G03 X18.202651 Y27.769911 Z-1.000000 I-10.867125 J6.687462
G03 X17.458540 Y27.479116 Z-1.000000 I4.187755 J-10.067663
G02 X16.807952 Y27.394793 Z-1.000000 I-0.446502 J0.893004
G02 X15.163264 Y27.962332 Z-1.000000 I1.410393 J6.754078
G03 X13.303803 Y28.791806 Z-1.000000 I-10.337563 J-20.675127
G03 X12.223700 Y29.109970 Z-1.000000 I-2.321351 J-5.888079
G03 X11.217000 Y29.009300 Z-1.000000 I0.536631 J-6.026906
G00 X12.586112 Y28.385146
G03 X13.633080 Y28.103270 Z-1.000000 I1.348219 J5.071409
G02 X14.308450 Y27.987028 Z-1.000000 I-0.153153 J-2.909908
G02 X15.143130 Y27.640188 Z-1.000000 I-1.220053 J-4.113850
G02 X15.504701 Y27.315703 Z-1.000000 I-0.466003 J-0.882953
G03 X15.186549 Y27.124435 Z-1.000000 I-0.000000 J-0.495640
G02 X13.874688 Y26.854962 Z-1.000000 I-1.562907 J11.313439
G03 X12.328774 Y26.780245 Z-1.000000 I0.752242 J-31.594146
G03 X11.478742 Y26.693890 Z-1.000000 I1.091732 J-14.973216
G02 X10.556051 Y26.855538 Z-1.000000 I-0.217867 J1.470605
G02 X10.431774 Y27.257642 Z-1.000000 I0.142278 J0.264231
G03 X10.528480 Y27.626819 Z-1.000000 I-0.656315 J0.369177
G02 X10.263872 Y27.875303 Z-1.000000 I0.117859 J0.353578
G02 X10.552578 Y28.063002 Z-1.000000 I0.088699 J-0.682458
G02 X10.670617 Y28.353002 Z-1.000000 I0.431019 J0.215509
G03 X11.579412 Y28.485816 Z-1.000000 I-0.352178 J3.247938
G02 X12.539485 Y28.596739 Z-1.000000 I0.726146 J-2.074703
G00 X8.237168 Y25.727458
G03 X7.851604 Y25.222656 Z-1.000000 I2.509024 J-2.316022 F3500.000000
G02 X7.749317 Y24.778209 Z-1.000000 I-0.688438 J-0.000000
G02 X7.512344 Y24.318078 Z-1.000000 I-2.156395 J0.819484
G03 X7.024452 Y22.965052 Z-1.000000 I2.821099 J-1.781747
G03 X6.706984 Y18.298012 Z-1.000000 I38.094785 J-4.935658
G02 X6.551978 Y15.651459 Z-1.000000 I-26.836519 J0.243968
G03 X6.403663 Y15.961100 Z-1.000000 I-0.099895 J0.084527
G03 X6.062553 Y15.832556 Z-1.000000 I0.162591 J-0.487773
G02 X5.892990 Y15.404982 Z-1.000000 I-0.257964 J-0.000000
G02 X5.488962 Y15.397132 Z-1.000000 I0.000000 J0.224775
G03 X5.237202 Y15.720860 Z-1.000000 I-0.215089 J-0.262166
G02 X4.814388 Y16.465818 Z-1.000000 I1.251973 J0.706885
G02 X4.910809 Y16.825151 Z-1.000000 I0.588716 J0.034630
G02 X5.247103 Y16.427730 Z-1.000000 I-1.544335 J-0.982759
G03 X5.254083 Y16.009149 Z-1.000000 I0.167975 J-0.071989
G03 X5.637694 Y16.003582 Z-1.000000 I0.000000 J0.336128
G02 X5.727357 Y16.408720 Z-1.000000 I3.644177 J-0.000000
G03 X5.780820 Y17.532920 Z-1.000000 I-39.555792 J2.444509
G02 X5.843550 Y18.635006 Z-1.000000 I23.438790 J-0.781293
G02 X6.022428 Y20.331546 Z-1.000000 I34.489819 J-2.778800
G03 X6.108019 Y21.984671 Z-1.000000 I-10.727519 J1.384196
G03 X5.982160 Y22.465750 Z-1.000000 I-1.085561 J-0.026999
G02 X5.904531 Y22.905511 Z-1.000000 I0.598191 J0.332328
G02 X6.183500 Y23.774460 Z-1.000000 I2.956997 J-0.470065
G03 X6.519204 Y24.632061 Z-1.000000 I-3.795313 J1.980164
G02 X6.538545 Y25.070403 Z-1.000000 I0.132884 J0.048322
G03 X7.277857 Y25.282237 Z-1.000000 I0.178487 J0.475967
G03 X7.230468 Y25.868396 Z-1.000000 I-0.368332 J0.265217
G03 X7.722411 Y25.854820 Z-1.000000 I0.199265 J0.448345
G02 X8.047925 Y26.122101 Z-1.000000 I0.306070 J-0.153035
G02 X8.425181 Y26.081817 Z-1.000000 I0.000000 J-0.089445
G02 X8.237168 Y25.727458 Z-1.000000 I-0.732780 J0.161737
G00 X7.713684 Y23.875130
G03 X7.783571 Y23.279945 Z-1.000000 I0.838405 J-0.203250 F3500.000000
G02 X8.117238 Y23.378339 Z-1.000000 I0.136239 J-0.056098
G03 X8.388016 Y23.184566 Z-1.000000 I0.161041 J0.006194
G03 X8.841188 Y23.552986 Z-1.000000 I-0.254348 J0.775780
G03 X8.927845 Y24.039415 Z-1.000000 I-0.701783 J0.375955
G03 X8.020031 Y24.224171 Z-1.000000 I-0.308024 J-1.139688
G03 X7.713684 Y23.875130 Z-1.000000 I0.171242 J-0.459254
M5
G00 X0.0000 Y0.0000
M2
%