%
M3
G21
G00 X26.187549 Y33.106881
G03 X25.886276 Y32.837130 Z-1.000000 I0.383301 J-0.406443
G03 X25.266907 Y32.616547 Z-1.000000 I0.355623 J-0.780519
G03 X25.165390 Y32.268688 Z-1.000000 I0.455389 J-0.321640
G02 X25.407681 Y32.511532 Z-1.000000 I2.310940 J-1.745665
G02 X25.947635 Y32.832477 Z-1.000000 I5.202377 J-4.515472
G03 X26.179861 Y33.075785 Z-1.000000 I-3.743564 J3.805538
G00 X26.220622 Y32.340519
G03 X25.926710 Y32.099526 Z-1.000000 I4.022915 J-3.852479
G03 X26.237526 Y32.294927 Z-1.000000 I-0.407088 J0.677726
G00 X25.787573 Y31.838224
G03 X25.594497 Y31.529654 Z-1.000000 I0.349221 J-0.218095
G03 X25.795843 Y31.836157 Z-1.000000 I-0.161897 J0.083266
G00 X25.644430 Y31.383988
G03 X25.350391 Y31.202604 Z-1.000000 I0.067295 J-0.126396
G03 X25.700780 Y31.331104 Z-1.000000 I-0.338070 J0.631779
G00 X25.316801 Y30.997448
G02 X24.896155 Y30.881692 Z-1.000000 I-0.062809 J0.356970
G03 X24.653276 Y30.545278 Z-1.000000 I0.189163 J-0.136619
G02 X24.400061 Y30.235737 Z-1.000000 I-0.140154 J0.114652
G03 X24.312731 Y29.910692 Z-1.000000 I0.724653 J-0.193811
G02 X24.074386 Y29.651267 Z-1.000000 I-0.166002 J-0.063741
G03 X24.081221 Y29.276101 Z-1.000000 I0.260121 J0.037753
G03 X24.078641 Y28.845636 Z-1.000000 I0.783942 J-0.222270
G03 X23.833644 Y28.383203 Z-1.000000 I1.508397 J-1.668950
G02 X23.877157 Y27.949568 Z-1.000000 I-0.430487 J-0.017170
G03 X23.565032 Y28.113898 Z-1.000000 I-0.061203 J-0.041060
G02 X23.306651 Y27.891172 Z-1.000000 I-0.071058 J0.138011
G02 X23.565030 Y27.680853 Z-1.000000 I-0.165533 J-0.106340
G02 X23.876124 Y27.502567 Z-1.000000 I-0.188719 J-0.630075
G03 X24.194968 Y27.472077 Z-1.000000 I0.016781 J0.174530
G03 X24.360691 Y27.166833 Z-1.000000 I0.058756 J-0.036694
G02 X24.755657 Y27.160990 Z-1.000000 I-0.007247 J-0.198535
G03 X25.078635 Y27.257110 Z-1.000000 I-0.150213 J0.504876
G02 X25.388176 Y27.391985 Z-1.000000 I0.043611 J-0.100068
G03 X25.026960 Y27.420863 Z-1.000000 I0.052274 J-0.513319
G03 X24.646105 Y27.396053 Z-1.000000 I-0.045999 J-0.164967
G03 X25.023347 Y27.551082 Z-1.000000 I-0.006060 J0.235379
G02 X24.998298 Y27.879956 Z-1.000000 I0.033366 J0.045631
G03 X25.448223 Y27.986305 Z-1.000000 I-0.089420 J1.924874
G03 X25.991248 Y28.301938 Z-1.000000 I-7.062747 J5.017404
G03 X26.232554 Y28.724766 Z-1.000000 I-5.497870 J3.417875
G03 X25.974712 Y28.434746 Z-1.000000 I3.916904 J-3.132560
G02 X25.650184 Y28.268348 Z-1.000000 I-0.034882 J0.068021
G02 X25.183719 Y28.146624 Z-1.000000 I-0.563721 J0.622875
G03 X25.473919 Y28.478139 Z-1.000000 I-1.845996 J2.503990
G03 X25.869594 Y28.539080 Z-1.000000 I-0.072309 J0.188360
G02 X26.025838 Y28.824370 Z-1.000000 I0.217251 J-0.172467
G03 X25.214002 Y28.893617 Z-1.000000 I0.314542 J-3.610355
G02 X25.531812 Y29.147810 Z-1.000000 I0.178924 J-0.404897
G02 X25.890963 Y29.356063 Z-1.000000 I0.202903 J-0.276120
G02 X25.585036 Y29.301848 Z-1.000000 I-0.164950 J0.120302
G02 X25.008294 Y29.440410 Z-1.000000 I-0.105046 J0.273745
G03 X25.024587 Y29.743672 Z-1.000000 I-0.046098 J0.046140
G03 X25.074329 Y30.045121 Z-1.000000 I0.000000 J0.083988
G03 X25.013675 Y30.386179 Z-1.000000 I-0.345351 J-0.066017
G03 X25.279608 Y30.728394 Z-1.000000 I-0.151728 J1.577268
G03 X25.595233 Y30.898145 Z-1.000000 I-1.137134 J1.764975
G00 X25.123531 Y31.273400
G03 X24.940651 Y31.007267 Z-1.000000 I0.089050 J-0.034806
G03 X25.155636 Y31.239967 Z-1.000000 I-0.459288 J0.290935
G00 X24.754561 Y31.648055
G03 X24.504964 Y31.380888 Z-1.000000 I0.123494 J-0.082221
G03 X24.786601 Y31.614983 Z-1.000000 I-0.123632 J0.082400
G00 X24.025407 Y31.368485
G03 X23.853324 Y30.957141 Z-1.000000 I0.883843 J-0.398123
G03 X24.074876 Y31.259866 Z-1.000000 I-0.743195 J0.280502
G00 X24.084835 Y30.839835
G00 X23.475053 Y31.228958
G03 X23.504105 Y30.423269 Z-1.000000 I3.148354 J0.098568
G03 X23.574971 Y30.127326 Z-1.000000 I0.599484 J-0.595305
G03 X23.869420 Y30.362348 Z-1.000000 I-0.112766 J0.296288
G02 X23.691942 Y30.767539 Z-1.000000 I0.272858 J0.291874
G03 X23.626120 Y31.083555 Z-1.000000 I-0.393030 J-0.000000
G00 X23.117452 Y30.651733
G00 X22.760368 Y30.808313
G00 X22.504053 Y30.323588
G00 X22.561930 Y29.867281
G00 X22.596037 Y29.516411
G03 X22.756238 Y29.261643 Z-1.000000 I0.013898 J0.112916
G03 X22.596041 Y29.516408 Z-1.000000 I-0.173846 J-0.109325
G00 X22.178491 Y29.588241
G03 X22.194779 Y29.280975 Z-1.000000 I0.398191 J-0.006847
G03 X22.269746 Y28.914428 Z-1.000000 I1.139291 J-0.320946
G03 X22.342765 Y28.579511 Z-1.000000 I0.085462 J-0.054516
G03 X22.782919 Y28.600673 Z-1.000000 I-0.011857 J0.313826
G03 X22.830944 Y28.907439 Z-1.000000 I-0.311138 J0.022983
G02 X22.313306 Y29.386177 Z-1.000000 I1.251010 J1.269144
G00 X22.104077 Y28.831705
G00 X21.836910 Y28.568155
G03 X21.866370 Y28.266884 Z-1.000000 I0.759868 J0.148811
G02 X21.872570 Y27.831252 Z-1.000000 I-0.436875 J-0.006314
G02 X21.592479 Y28.032269 Z-1.000000 I0.515588 J0.151955
G03 X21.435406 Y28.290535 Z-1.000000 I-0.295425 J-0.002774
G03 X21.072877 Y28.020372 Z-1.000000 I0.255795 J-0.255824
G02 X21.251667 Y27.679020 Z-1.000000 I-0.484660 J-0.473946
G02 X21.395070 Y27.385797 Z-1.000000 I-2.123194 J-1.220044
G03 X21.593128 Y27.147547 Z-1.000000 I0.476963 J0.195053
G03 X21.982188 Y26.945831 Z-1.000000 I0.215136 J0.132224
G03 X22.259175 Y27.107646 Z-1.000000 I0.052887 J0.085568
G03 X22.548491 Y27.197180 Z-1.000000 I-0.513774 J0.148178
G02 X22.619291 Y27.500004 Z-1.000000 I0.127311 J-0.029924
G03 X22.420767 Y27.897126 Z-1.000000 I-0.618130 J0.111602
G02 X22.089388 Y27.922718 Z-1.000000 I-0.143956 J0.155016
G02 X21.872569 Y28.495810 Z-1.000000 I0.648981 J0.573092
G00 X21.691699 Y28.910765
G00 X22.093225 Y27.877228
G02 X22.280249 Y27.620916 Z-1.000000 I-0.062678 J-0.029029
G02 X22.073059 Y27.858831 Z-1.000000 I0.580206 J0.000000
G00 X23.251811 Y27.349012
G02 X23.013848 Y27.107434 Z-1.000000 I-0.573094 J0.463556
G03 X22.591152 Y26.835649 Z-1.000000 I-0.000000 J-0.355377
G03 X22.726782 Y26.464311 Z-1.000000 I0.303592 J-0.099552
G03 X22.801682 Y26.069503 Z-1.000000 I1.141137 J-0.011919
G03 X22.973461 Y26.328675 Z-1.000000 I-0.028616 J0.060457
G02 X22.741610 Y26.745561 Z-1.000000 I0.161653 J0.330950
G02 X23.007902 Y26.986243 Z-1.000000 I0.266292 J-0.026972
G03 X23.252210 Y27.330811 Z-1.000000 I-4.099668 J1.985676
G02 X23.367230 Y26.712473 Z-1.000000 I-1.167613 J-0.202840
G03 X23.125738 Y26.532379 Z-1.000000 I0.000000 J-0.116806
G03 X23.542231 Y26.910796 Z-1.000000 I-0.785954 J0.580760
G03 X23.466781 Y27.223439 Z-1.000000 I-0.123290 J-0.029736
G00 X23.963912 Y26.985265
G00 X23.720516 Y26.579464
G03 X23.593628 Y26.298825 Z-1.000000 I0.315313 J-0.183296
G02 X23.685311 Y25.982402 Z-1.000000 I-0.260204 J-0.162361
G03 X23.993502 Y25.831912 Z-1.000000 I-0.000000 J0.504207
G02 X23.851267 Y26.103396 Z-1.000000 I-0.034519 J0.231605
G03 X23.740539 Y26.552531 Z-1.000000 I-2.658799 J-0.024557
G00 X23.376868 Y26.234314
G00 X23.311239 Y25.446248
G00 X22.568648 Y25.358398
G00 X22.319051 Y25.669993
G03 X22.278736 Y25.324245 Z-1.000000 I0.432393 J0.000000
G03 X22.366551 Y25.640145 Z-1.000000 I-0.429415 J0.000000
G00 X22.339722 Y26.515944
G00 X20.859192 Y26.980565
G03 X20.838856 Y26.607884 Z-1.000000 I0.280264 J-0.000000
G03 X20.896179 Y26.964803 Z-1.000000 I-0.438231 J-0.168239
G00 X20.878312 Y27.412572
G02 X21.027144 Y27.024480 Z-1.000000 I-0.562890 J-0.193927
G03 X21.174422 Y26.761447 Z-1.000000 I0.172523 J0.096406
G03 X21.253149 Y26.360973 Z-1.000000 I0.334884 J-0.106243
G01 X21.235284 Y26.054306 Z-1.000000
G03 X21.432807 Y25.490202 Z-1.000000 I2.432101 J0.534977
G03 X21.388642 Y25.162475 Z-1.000000 I0.023824 J-0.070943
G03 X21.412117 Y24.797221 Z-1.000000 I1.442041 J-0.090702
G02 X21.520212 Y23.624924 Z-1.000000 I-5.817947 J-1.127593
G03 X21.308767 Y23.174065 Z-1.000000 I1.043741 J-0.293847
G01 X21.179565 Y22.886450 Z-1.000000
G03 X21.363029 Y22.625777 Z-1.000000 I0.224132 J0.220259
G03 X21.526378 Y22.325482 Z-1.000000 I0.152512 J0.000000
G03 X21.673089 Y23.203003 Z-1.000000 I-9.501677 J1.172639
G02 X21.837420 Y23.508411 Z-1.000000 I0.096751 J-0.051962
G02 X21.830190 Y24.106307 Z-1.000000 I1.090989 J0.115299
G03 X21.833861 Y24.424195 Z-1.000000 I-0.903094 J0.169394
G02 X21.585819 Y25.081269 Z-1.000000 I0.717837 J0.502725
G03 X21.744930 Y25.341374 Z-1.000000 I-0.143108 J0.050504
G03 X22.090171 Y25.540747 Z-1.000000 I0.000000 J0.240934
G02 X22.170743 Y25.867957 Z-1.000000 I0.141006 J-0.034488
G02 X21.858050 Y26.221147 Z-1.000000 I0.150035 J0.329219
G03 X21.767871 Y26.778569 Z-1.000000 I-0.692268 J0.052588
G02 X21.416267 Y26.959363 Z-1.000000 I0.263581 J0.527581
G03 X20.966348 Y27.380000 Z-1.000000 I-3.178141 J-2.948446
G00 X20.386869 Y26.581564
G03 X20.498686 Y26.004585 Z-1.000000 I3.711396 J0.797511
G03 X20.611412 Y26.310611 Z-1.000000 I-0.582682 J0.067027
G03 X20.411190 Y26.574711 Z-1.000000 I-1.313403 J-1.313616
G00 X20.082495 Y26.328364
G03 X20.029017 Y25.988086 Z-1.000000 I0.340294 J0.000000
G03 X20.145274 Y26.292437 Z-1.000000 I-0.340295 J-0.000000
G00 X19.982760 Y26.693704
G03 X19.674383 Y26.489798 Z-1.000000 I0.213520 J-0.400772
G03 X19.983897 Y26.666510 Z-1.000000 I-2.687819 J2.060698
G00 X19.732646 Y26.986265
G03 X19.550918 Y26.733238 Z-1.000000 I0.655831 J-0.250365
G03 X19.760145 Y26.954367 Z-1.000000 I-0.172419 J0.143205
G00 X19.351274 Y27.689608
G03 X18.961635 Y27.226071 Z-1.000000 I1.254881 J-0.868153
G02 X18.799779 Y26.950827 Z-1.000000 I-0.946448 J0.371344
G03 X18.834183 Y26.452845 Z-1.000000 I1.134349 J0.428158
G03 X19.026693 Y26.727907 Z-1.000000 I-0.088300 J0.049042
G03 X19.223809 Y27.160897 Z-1.000000 I-0.562601 J0.488479
G03 X19.331581 Y27.443109 Z-1.000000 I-1.594499 J0.770597
G00 X19.738330 Y28.080871
G03 X19.703190 Y27.573959 Z-1.000000 I1.035366 J-0.047349
G03 X19.775181 Y28.054524 Z-1.000000 I-0.804592 J0.000000
G00 X19.562113 Y28.460151
G00 X20.245276 Y28.282891
G03 X20.148646 Y27.748040 Z-1.000000 I1.129483 J-0.248839
G03 X20.011222 Y27.449559 Z-1.000000 I-0.030653 J-0.049611
G03 X20.054076 Y26.799260 Z-1.000000 I2.479897 J-0.163138
G02 X20.398241 Y26.735182 Z-1.000000 I0.041715 J-0.095550
G02 X20.323878 Y27.149630 Z-1.000000 I0.275417 J0.049798
G03 X20.441994 Y27.766727 Z-1.000000 I-1.395733 J0.587004
G03 X20.302178 Y28.241036 Z-1.000000 I-0.937656 J-0.018639
G00 X20.552234 Y28.636365
G03 X20.581174 Y28.031754 Z-1.000000 I3.159744 J0.257785
G03 X20.724014 Y27.586113 Z-1.000000 I2.961115 J0.703407
G02 X20.724918 Y28.068467 Z-1.000000 I5.208908 J1.420192
G02 X20.659206 Y28.396073 Z-1.000000 I8.758133 J1.927118
G00 X19.178674 Y29.115402
G00 X18.429366 Y28.444101
G03 X18.397326 Y28.107688 Z-1.000000 I0.714549 J-0.085638
G02 X18.421096 Y27.669471 Z-1.000000 I-0.371417 J-0.020099
G03 X18.704527 Y27.483090 Z-1.000000 I0.088848 J-0.000000
G01 X18.958009 Y27.691682 Z-1.000000
G03 X18.698076 Y28.251855 Z-1.000000 I-1.929675 J-0.895259
G03 X18.429359 Y28.444091 Z-1.000000 I-0.068717 J-0.099109
G00 X17.811316 Y28.936085
G02 X17.281669 Y28.794487 Z-1.000000 I-0.211787 J0.561067
G03 X16.990177 Y28.915938 Z-1.000000 I-0.035298 J-0.112065
G02 X17.057735 Y28.572438 Z-1.000000 I-0.063389 J-0.086685
G02 X17.147279 Y28.258980 Z-1.000000 I0.000000 J-0.118797
G02 X16.953422 Y27.906198 Z-1.000000 I-0.583638 J0.091061
G03 X16.770376 Y27.623661 Z-1.000000 I0.408499 J-0.465216
G02 X16.871789 Y27.016416 Z-1.000000 I-2.656840 J-0.960722
G02 X17.145907 Y26.787431 Z-1.000000 I0.091704 J-0.058198
G02 X17.411277 Y26.234469 Z-1.000000 I-1.018739 J-0.829057
G02 X17.782828 Y25.882038 Z-1.000000 I-0.427118 J-0.467610
G03 X17.963436 Y25.508942 Z-1.000000 I2.987413 J1.215878
G02 X18.078434 Y25.036095 Z-1.000000 I-2.991096 J-0.454940
G03 X18.155538 Y23.971197 Z-1.000000 I9.349973 J0.141745
G02 X18.278941 Y23.565383 Z-1.000000 I-1.314485 J-0.202433
G03 X18.284008 Y23.191428 Z-1.000000 I1.481104 J-0.166943
G03 X18.470656 Y23.689407 Z-1.000000 I-2.382436 J0.604605
G03 X18.464662 Y24.095471 Z-1.000000 I-2.802760 J0.161703
G02 X18.346116 Y24.493542 Z-1.000000 I1.587675 J0.332751
G02 X18.380763 Y24.841215 Z-1.000000 I1.871017 J-0.010892
G03 X18.328026 Y25.470227 Z-1.000000 I-0.682227 J-0.099399
G02 X18.246896 Y25.811291 Z-1.000000 I1.001690 J0.237107
G03 X18.089800 Y26.080525 Z-1.000000 I-0.093214 J-0.054379
G03 X18.148002 Y26.398084 Z-1.000000 I-0.135603 J0.228761
G01 X18.306846 Y26.900113 Z-1.000000
G01 X18.048981 Y26.731648 Z-1.000000
G03 X18.117655 Y27.381634 Z-1.000000 I-2.530215 J1.374167
G03 X18.080035 Y27.679862 Z-1.000000 I-0.423417 J0.098074
G02 X17.831470 Y27.985786 Z-1.000000 I0.239128 J0.118009
G02 X17.693085 Y28.369125 Z-1.000000 I0.109634 J0.109653
G01 X17.811316 Y28.936085 Z-1.000000
G00 X17.377234 Y28.662205
G02 X17.495573 Y28.364549 Z-1.000000 I-0.252248 J-0.129771
G02 X17.272334 Y28.591925 Z-1.000000 I0.359293 J0.083098
G00 X17.090946 Y29.222372
G03 X16.797424 Y29.040471 Z-1.000000 I0.067971 J-0.126587
G03 X17.147297 Y29.169491 Z-1.000000 I-0.338151 J0.631887
G00 X16.301847 Y29.200672
G03 X15.957166 Y29.023422 Z-1.000000 I0.094444 J-0.183863
G03 X15.693651 Y28.815439 Z-1.000000 I-0.018556 J-0.178321
G03 X16.029513 Y28.872010 Z-1.000000 I-0.112670 J0.279751
G03 X16.058324 Y28.539108 Z-1.000000 I0.294002 J-0.279157
G03 X16.511141 Y28.945391 Z-1.000000 I-1.077850 J0.894096
G03 X16.301851 Y29.200672 Z-1.000000 I-0.168532 J-0.138171
G00 X15.769063 Y29.899841
G00 X15.476058 Y30.087944
G00 X15.416630 Y29.770131
G03 X15.482770 Y29.175854 Z-1.000000 I1.122412 J0.183132
G03 X15.529131 Y29.491985 Z-1.000000 I-0.057787 J0.035661
G01 X15.416646 Y29.770137 Z-1.000000
G00 X14.854907 Y30.518408
G03 X14.882815 Y30.207779 Z-1.000000 I0.295189 J-0.014682
G02 X15.168794 Y30.042356 Z-1.000000 I-0.123480 J-0.472190
G02 X14.965986 Y30.320642 Z-1.000000 I0.000000 J0.202090
G00 X14.735018 Y30.745784
G00 X14.210502 Y30.276046
G03 X14.327291 Y29.902426 Z-1.000000 I4.920471 J1.548595
G03 X14.493634 Y29.588284 Z-1.000000 I1.470705 J0.577650
G03 X14.669887 Y29.988443 Z-1.000000 I-0.168403 J0.272467
G03 X14.211019 Y30.276046 Z-1.000000 I-0.458868 J-0.222257
G00 X13.836882 Y30.419706
G02 X13.600206 Y30.181995 Z-1.000000 I-0.141260 J0.199306
G01 X13.498273 Y29.859384 Z-1.000000
G03 X13.242774 Y29.443855 Z-1.000000 I0.008093 J-0.432468
G03 X13.195584 Y29.090588 Z-1.000000 I0.300332 J-0.219904
G02 X13.489623 Y28.860114 Z-1.000000 I-0.338747 J-0.427272
G03 X13.256558 Y28.529385 Z-1.000000 I0.145749 J-0.198112
G02 X13.606070 Y28.228034 Z-1.000000 I-0.158647 J-0.907705
G03 X13.613590 Y27.778852 Z-1.000000 I0.654520 J-0.221074
G03 X13.801753 Y27.543453 Z-1.000000 I0.368597 J0.101730
G02 X13.729427 Y27.949497 Z-1.000000 I0.581133 J0.406978
G03 X14.101990 Y27.800289 Z-1.000000 I0.045792 J0.126675
G02 X13.983165 Y28.092613 Z-1.000000 I0.629701 J0.519538
G02 X14.190865 Y27.848862 Z-1.000000 I-0.272884 J-0.132395
G02 X14.528313 Y27.956861 Z-1.000000 I0.065685 J-0.099719
G02 X14.647426 Y27.606320 Z-1.000000 I-0.202659 J-0.000000
G03 X14.358814 Y27.383253 Z-1.000000 I0.397851 J-0.431056
G03 X14.158959 Y27.159422 Z-1.000000 I0.235276 J0.064197
G03 X14.548730 Y27.054558 Z-1.000000 I0.073694 J0.073720
G03 X14.843068 Y27.184872 Z-1.000000 I0.002917 J0.058585
G03 X15.300810 Y27.356637 Z-1.000000 I-0.048696 J0.662897
G03 X15.053392 Y27.684065 Z-1.000000 I-0.393450 J-0.655414
G02 X14.872007 Y27.929528 Z-1.000000 I0.125192 J0.092232
G02 X14.856497 Y28.286095 Z-1.000000 I0.297024 J-0.070507
G02 X14.582706 Y28.538940 Z-1.000000 I-0.112360 J0.447609
G02 X14.500670 Y29.079641 Z-1.000000 I0.992154 J0.515186
G03 X14.455505 Y29.378592 Z-1.000000 I-0.127226 J-0.037327
G02 X14.386718 Y28.880248 Z-1.000000 I-1.041607 J-0.121373
G01 X14.084463 Y28.876292 Z-1.000000
G03 X14.229010 Y29.142937 Z-1.000000 I-0.309032 J0.251724
G02 X14.238459 Y29.457652 Z-1.000000 I0.228327 J-0.026404
G03 X14.203839 Y29.852977 Z-1.000000 I-0.870457 J-0.075993
G02 X13.920138 Y30.111359 Z-1.000000 I1.012794 J0.232879
G03 X13.836938 Y30.419867 Z-1.000000 I-0.054275 J-0.014615
G00 X13.584701 Y30.933886
G01 X13.765568 Y30.690490 Z-1.000000
G03 X13.584701 Y30.933886 Z-1.000000 I-0.191636 J-0.142439
G00 X14.068392 Y29.701411
G00 X13.483931 Y29.335544
G02 X13.668068 Y29.086059 Z-1.000000 I-0.227743 J0.000000
G02 X13.297724 Y29.173555 Z-1.000000 I0.158195 J1.022544
G00 X12.556340 Y29.147962
G00 X12.379606 Y28.290091
G00 X12.004952 Y28.114941
G03 X12.240787 Y27.902782 Z-1.000000 I0.201460 J0.157994
G03 X12.019106 Y28.110150 Z-1.000000 I-2.299108 J-2.947705
G00 X12.098486 Y27.738738
G03 X12.314900 Y27.468260 Z-1.000000 I1.301480 J1.021102
G03 X12.113603 Y27.733350 Z-1.000000 I-2.644638 J-3.373074
G00 X12.631270 Y27.644128
G03 X12.881028 Y27.307900 Z-1.000000 I0.672292 J0.608446
G03 X12.635919 Y27.644128 Z-1.000000 I-0.296102 J-0.258249
G03 X13.098651 Y27.572324 Z-1.000000 I0.555428 J0.693450
G03 X12.782456 Y27.804988 Z-1.000000 I-3.736662 J-7.710480
G00 X13.272575 Y28.113941
G03 X13.209265 Y27.784984 Z-1.000000 I0.456043 J-0.070577
G03 X13.507700 Y28.013174 Z-1.000000 I-0.368797 J0.353813
G00 X13.811043 Y26.793444
G03 X14.023226 Y26.475185 Z-1.000000 I0.671219 J0.403025
G03 X13.827868 Y26.786067 Z-1.000000 I-4.523831 J-4.724132
G00 X14.959294 Y26.578464
G03 X15.246615 Y26.704094 Z-1.000000 I-0.068482 J0.026456
G03 X15.592437 Y26.659635 Z-1.000000 I0.414146 J0.411421
G03 X15.384641 Y26.911829 Z-1.000000 I-0.492807 J-0.673895
G00 X15.585095 Y27.399132
G03 X15.559991 Y27.060545 Z-1.000000 I0.429742 J-0.000000
G03 X15.599045 Y27.394481 Z-1.000000 I-0.109667 J-0.044450
G00 X15.857430 Y27.926318
G00 X15.381490 Y28.187291
G03 X15.104083 Y27.926924 Z-1.000000 I0.107794 J-0.172521
G02 X15.417632 Y27.727375 Z-1.000000 I-0.089621 J-0.156676
G02 X15.390846 Y28.160256 Z-1.000000 I14.672092 J4.209078
G00 X15.062130 Y28.301991
G00 X16.468245 Y27.736638
G03 X15.985929 Y27.484683 Z-1.000000 I-0.008824 J-0.570732 F3500.000000
G03 X15.922542 Y26.926351 Z-1.000000 I0.505191 J-0.340118
G02 X16.171002 Y27.214805 Z-1.000000 I0.183058 J0.047817
G01 X16.421218 Y27.409013 Z-1.000000
G03 X16.482826 Y27.712457 Z-1.000000 I-0.095745 J0.148270
G00 X16.853235 Y27.607958
G00 X16.471863 Y27.174345
G00 X16.463595 Y26.458074
G03 X16.384525 Y26.100992 Z-1.000000 I0.331693 J-0.027211
G03 X16.489608 Y26.440456 Z-1.000000 I-1.237241 J-0.181740
G00 X16.162838 Y26.215184
G00 X15.787150 Y26.497344
G00 X15.573726 Y25.482408
G00 X15.450736 Y25.012280
G03 X15.700602 Y24.676109 Z-1.000000 I0.676647 J0.612393
G03 X15.455388 Y25.012280 Z-1.000000 I-0.296102 J-0.258250
G00 X15.951481 Y25.106192
G00 X16.651180 Y24.656329
G03 X16.636310 Y24.334147 Z-1.000000 I1.198914 J-0.014915
G03 X16.661381 Y24.647587 Z-1.000000 I-0.199542 J-0.051748
G00 X17.388603 Y25.009280
G02 X17.135390 Y24.848053 Z-1.000000 I-0.021193 J0.121771
G03 X17.246491 Y24.119415 Z-1.000000 I4.404927 J0.682717
G03 X17.372581 Y24.448080 Z-1.000000 I-3.052093 J0.768343
G03 X17.418491 Y24.946841 Z-1.000000 I-6.526645 J0.852253
G00 X17.658354 Y25.842077
G03 X17.485788 Y25.453987 Z-1.000000 I0.938688 J-0.438038
G03 X17.490434 Y25.142424 Z-1.000000 I1.327575 J-0.136019
G03 X17.769218 Y25.268839 Z-1.000000 I0.000000 J0.254643
G03 X17.770007 Y25.720120 Z-1.000000 I-0.584938 J0.226664
G00 X17.643368 Y26.609984
G00 X16.838765 Y26.014678
G00 X16.341638 Y24.354536
G03 X16.179890 Y24.043381 Z-1.000000 I-0.000000 J-0.108648
G03 X16.338121 Y23.713966 Z-1.000000 I0.431976 J-0.000000
G02 X16.238803 Y23.388712 Z-1.000000 I-0.185454 J0.139815
G03 X15.990311 Y23.131139 Z-1.000000 I0.086985 J-0.332571
G02 X16.324583 Y23.132911 Z-1.000000 I0.063919 J-0.061713
G02 X16.129246 Y22.800631 Z-1.000000 I-0.407755 J0.239747
G02 X15.955093 Y22.432178 Z-1.000000 I-0.306776 J0.069752
G02 X15.974733 Y21.959855 Z-1.000000 I-0.675359 J-0.091805
G02 X16.098579 Y21.682802 Z-1.000000 I0.000000 J-0.061702
G03 X16.136422 Y21.339138 Z-1.000000 I0.247026 J-0.074364
G03 X16.551434 Y20.897905 Z-1.000000 I1.585891 J1.075857
G03 X16.906952 Y20.752630 Z-1.000000 I0.441129 J0.571577
G01 X17.233721 Y20.843925 Z-1.000000
G03 X17.139510 Y21.148021 Z-1.000000 I-0.329508 J-0.160603
G02 X17.027889 Y21.465314 Z-1.000000 I0.445881 J0.156587
G03 X16.964849 Y21.840485 Z-1.000000 I-0.615344 J-0.103022
G03 X17.210037 Y22.156369 Z-1.000000 I0.000000 J0.274113
G03 X17.361724 Y22.799083 Z-1.000000 I-1.285779 J0.642714
G02 X17.144682 Y23.470360 Z-1.000000 I2.310522 J0.536140
G03 X17.077557 Y23.895601 Z-1.000000 I-1.825602 J-0.070256
G03 X16.955543 Y23.563377 Z-1.000000 I1.110442 J-0.157762
G03 X16.762122 Y23.301403 Z-1.000000 I-0.033824 J-0.041167
G02 X16.736027 Y22.700898 Z-1.000000 I-1.684186 J-0.224604
G03 X16.528387 Y23.619271 Z-1.000000 I-4.309184 J-0.108028
G02 X16.376908 Y23.950461 Z-1.000000 I0.186773 J0.155178
G03 X16.391945 Y24.314576 Z-1.000000 I-0.336729 J0.087951
G03 X16.609319 Y23.832080 Z-1.000000 I2.882544 J-0.302684
G03 X16.645499 Y24.166426 Z-1.000000 I-0.244052 J-0.016655
G00 X15.881201 Y23.756118
G03 X16.048856 Y23.441012 Z-1.000000 I0.189077 J0.072550
G03 X15.914719 Y23.749580 Z-1.000000 I-0.938433 J-1.502720
G00 X14.846639 Y24.710589
G03 X14.978931 Y24.432570 Z-1.000000 I0.820709 J0.363212
G01 X14.846621 Y24.710587 Z-1.000000
G00 X14.825452 Y25.108292
G03 X15.052502 Y24.863418 Z-1.000000 I0.384724 J0.301706
G03 X14.839012 Y25.104063 Z-1.000000 I-1.323063 J-1.779114
G00 X14.231689 Y24.072376
G02 X14.336396 Y23.788210 Z-1.000000 I-0.302242 J-0.250494
G02 X14.397498 Y23.440806 Z-1.000000 I-0.128967 J-0.107130
G03 X14.360909 Y23.118946 Z-1.000000 I0.380796 J0.004800
G02 X14.694410 Y23.338091 Z-1.000000 I0.105119 J-0.170095
G03 X14.723808 Y22.972547 Z-1.000000 I1.121647 J-0.430488
G03 X14.942073 Y23.189385 Z-1.000000 I-0.280116 J0.299945
G03 X15.039400 Y23.571119 Z-1.000000 I-0.190037 J0.049352
G03 X15.164970 Y23.870325 Z-1.000000 I-0.410366 J0.205304
G02 X14.823339 Y23.787643 Z-1.000000 I-0.025064 J0.053479
G02 X14.451268 Y23.927163 Z-1.000000 I0.119767 J0.306314
G00 X14.552083 Y22.545256
G03 X14.884589 Y22.308566 Z-1.000000 I0.555415 J0.693429
G03 X14.568392 Y22.541748 Z-1.000000 I-3.735966 J-7.709043
G03 X14.501439 Y22.241867 Z-1.000000 I0.607942 J0.476381
G03 X14.776358 Y22.103891 Z-1.000000 I0.088959 J0.177074
G03 X14.438873 Y22.410370 Z-1.000000 I-0.893579 J-1.162915
G00 X13.275675 Y21.104004
G03 X12.926978 Y21.028324 Z-1.000000 I0.284541 J-0.620843
G02 X13.486066 Y21.043515 Z-1.000000 I0.229648 J-1.471984
G02 X13.572815 Y20.739194 Z-1.000000 I-0.286059 J0.094568
G03 X13.466361 Y20.241033 Z-1.000000 I0.496516 J-0.106120
G03 X13.267963 Y19.914908 Z-1.000000 I0.128184 J-0.141275
G03 X13.302183 Y19.615803 Z-1.000000 I1.937241 J0.070129
G02 X12.944320 Y19.878556 Z-1.000000 I0.674091 J0.426784
G02 X12.962551 Y20.193444 Z-1.000000 I0.742613 J0.114976
G03 X13.016793 Y20.509792 Z-1.000000 I-1.551098 J0.428779
G02 X13.288631 Y20.752583 Z-1.000000 I0.709824 J-1.238025
G01 X13.649849 Y20.863171 Z-1.000000
G03 X13.055536 Y20.850149 Z-1.000000 I-0.038686 J-1.592306
G02 X12.557230 Y20.741496 Z-1.000000 I-0.212100 J0.557875
G03 X11.966231 Y20.855391 Z-1.000000 I-0.213769 J-1.729759
G02 X11.551738 Y20.847050 Z-1.000000 I-0.252402 J2.239729
G02 X11.159735 Y20.849698 Z-1.000000 I-0.215908 J0.349339
G02 X10.379764 Y20.775812 Z-1.000000 I-1.217814 J8.701922
G03 X9.947346 Y20.723088 Z-1.000000 I0.152103 J-3.047098
G03 X9.601161 Y20.646145 Z-1.000000 I-0.038903 J-0.101380
G02 X9.525553 Y20.299357 Z-1.000000 I-20.034193 J1.914009
G03 X9.272118 Y20.049680 Z-1.000000 I0.028978 J-0.077949
G03 X9.275564 Y19.675183 Z-1.000000 I0.061803 J-0.084523
G02 X9.363286 Y19.343859 Z-1.000000 I-0.121168 J-0.006289
G03 X9.632003 Y19.091678 Z-1.000000 I0.302402 J0.322240
G02 X9.778519 Y19.502954 Z-1.000000 I0.222664 J0.222660
G03 X10.166074 Y19.702958 Z-1.000000 I0.000000 J0.413847
G02 X10.523422 Y19.897833 Z-1.000000 I0.104211 J-0.296162
G03 X10.898554 Y20.103844 Z-1.000000 I0.168812 J0.443964
G03 X11.542700 Y20.124668 Z-1.000000 I0.830769 J2.297895
G02 X11.591256 Y20.521894 Z-1.000000 I0.257553 J0.159168
G02 X11.892327 Y20.689506 Z-1.000000 I0.301071 J-0.186590
G02 X12.261814 Y20.078690 Z-1.000000 I-0.864067 J-0.522571
G03 X12.525993 Y18.885135 Z-1.000000 I3.414211 J0.129681
G03 X13.080369 Y18.129972 Z-1.000000 I1.850284 J0.777251
G03 X13.386293 Y17.871590 Z-1.000000 I242.080839 J286.733658
G03 X13.668446 Y17.743432 Z-1.000000 I0.293840 J0.646810
G02 X14.295254 Y17.563154 Z-1.000000 I-0.684133 J-3.558474
G02 X14.833745 Y17.392036 Z-1.000000 I-0.209230 J-1.798979
G03 X15.637338 Y17.245637 Z-1.000000 I1.045202 J3.458493
G03 X15.968559 Y17.316066 Z-1.000000 I0.041485 J0.618968
G02 X16.285853 Y16.718170 Z-1.000000 I-1.679923 J-0.891456
G03 X16.637252 Y16.502679 Z-1.000000 I0.098850 J0.161228
G02 X16.893567 Y16.135260 Z-1.000000 I-0.257491 J-0.179591
G03 X16.748196 Y15.775713 Z-1.000000 I1.979150 J-1.009366
G02 X16.573690 Y15.507908 Z-1.000000 I-0.427144 J0.423114
G03 X16.607184 Y15.195224 Z-1.000000 I0.205161 J0.205161
G03 X16.526134 Y14.767208 Z-1.000000 I0.427127 J-0.440085
G03 X16.474241 Y14.449871 Z-1.000000 I1.377254 J-1.151429
G02 X16.792763 Y14.577129 Z-1.000000 I0.128642 J-0.313279
G01 X16.662023 Y14.296010 Z-1.000000
G01 X16.280134 Y13.907403 Z-1.000000
G02 X16.712000 Y13.956016 Z-1.000000 I0.059364 J-0.270446
G03 X17.015490 Y13.822653 Z-1.000000 I0.189297 J0.682491
G02 X17.117927 Y14.170528 Z-1.000000 I0.304945 J-0.253087
G02 X17.387320 Y13.784553 Z-1.000000 I-0.053454 J-0.139291
G03 X17.017398 Y13.697167 Z-1.000000 I-0.095033 J-0.299439
G03 X16.919140 Y13.412545 Z-1.000000 I-0.051251 J-0.133548
G02 X16.640838 Y13.169974 Z-1.000000 I-0.110496 J0.142108
G02 X16.292020 Y13.121394 Z-1.000000 I0.088460 J0.525367
G03 X15.846052 Y13.200454 Z-1.000000 I-0.121646 J-0.686402
G02 X15.716867 Y13.485153 Z-1.000000 I0.044159 J0.044095
G03 X15.591795 Y13.795774 Z-1.000000 I-0.218931 J-0.283704
G02 X15.316895 Y13.632944 Z-1.000000 I-0.138340 J0.223305
G02 X15.408730 Y13.315801 Z-1.000000 I-0.038473 J-0.100291
G03 X15.721519 Y13.022129 Z-1.000000 I0.207441 J0.363115
G03 X15.472527 Y12.847148 Z-1.000000 I0.001941 J-0.408660
G03 X16.057416 Y12.752379 Z-1.000000 I0.250613 J2.915152
G02 X16.470835 Y12.735739 Z-1.000000 I0.130088 J-1.912013
G03 X16.867702 Y12.640239 Z-1.000000 I0.137425 J1.102342
G03 X17.215452 Y12.519005 Z-1.000000 I0.296034 J3.085910
G02 X17.024766 Y12.274576 Z-1.000000 I-0.276135 J0.215423
G02 X16.662186 Y12.334406 Z-1.000000 I-0.067097 J0.721949
G02 X16.373271 Y12.430649 Z-1.000000 I-0.571365 J2.818444
G03 X15.998608 Y12.403084 Z-1.000000 I0.065119 J-1.918633
G02 X16.240324 Y12.203215 Z-1.000000 I-0.035874 J-0.043920
G03 X16.503874 Y12.006845 Z-1.000000 I0.148309 J0.198795
G02 X16.838737 Y11.957755 Z-1.000000 I-0.017367 J-0.118898
G03 X17.185278 Y11.894324 Z-1.000000 I-0.000654 J0.097330
G02 X17.478495 Y12.185127 Z-1.000000 I0.342041 J-0.430396
G02 X17.972521 Y11.990307 Z-1.000000 I-0.205659 J-0.520712
G03 X18.514607 Y11.631673 Z-1.000000 I1.066192 J1.610455
G02 X19.502744 Y11.035659 Z-1.000000 I-1.437740 J-3.500770
G02 X19.907804 Y10.467919 Z-1.000000 I-0.885157 J-1.059892
G03 X20.122261 Y10.256563 Z-1.000000 I0.104319 J0.105877
G03 X20.416959 Y10.373632 Z-1.000000 I0.000000 J0.429455
G03 X21.419856 Y11.481294 Z-1.000000 I-6.519016 J6.910288
G02 X21.679498 Y11.800138 Z-1.000000 I6.180038 J-4.767402
G02 X22.053926 Y12.218717 Z-1.000000 I10.637738 J-9.138941
G03 X22.390427 Y12.648575 Z-1.000000 I-2.336336 J2.175567
G02 X22.091418 Y12.812842 Z-1.000000 I-0.057329 J0.032085
G03 X21.636827 Y13.195059 Z-1.000000 I-0.549909 J-0.406551
G02 X21.252170 Y13.181813 Z-1.000000 I-1.097031 J4.477837
G01 X21.465848 Y13.400550 Z-1.000000
G03 X20.888152 Y13.371184 Z-1.000000 I0.579613 J-7.067811
G02 X20.604645 Y13.151386 Z-1.000000 I-0.055013 J0.000000
G02 X20.305396 Y13.105999 Z-1.000000 I-0.000000 J0.095971
G01 X19.995198 Y13.079697 Z-1.000000
G01 X19.941160 Y13.387662 Z-1.000000
G02 X19.624174 Y13.334458 Z-1.000000 I0.286036 J0.367626
G02 X19.076404 Y13.227491 Z-1.000000 I-0.321463 J0.810046
G01 X18.844178 Y13.417416 Z-1.000000
G02 X18.614507 Y13.221491 Z-1.000000 I-0.287509 J0.234247
G03 X18.702763 Y13.619770 Z-1.000000 I-0.298484 J0.040690
G02 X18.828341 Y14.033693 Z-1.000000 I4.115716 J0.951956
G03 X18.994493 Y14.288547 Z-1.000000 I0.019705 J0.051362
G02 X18.845398 Y14.696728 Z-1.000000 I0.256421 J0.193861
G02 X18.824731 Y15.086338 Z-1.000000 I0.129891 J0.010120
G03 X18.553581 Y15.268176 Z-1.000000 I-0.063467 J-0.025349
G03 X18.786482 Y15.607770 Z-1.000000 I-0.193601 J1.089561
G02 X18.299771 Y15.835293 Z-1.000000 I0.029540 J1.075541
G02 X18.008720 Y16.005234 Z-1.000000 I0.271134 J0.326770
G03 X18.154358 Y16.296363 Z-1.000000 I-0.034030 J0.055073
G03 X18.230304 Y16.678582 Z-1.000000 I-0.103270 J0.175229
G02 X18.212692 Y17.102025 Z-1.000000 I0.265869 J0.142286
G03 X18.509980 Y17.326527 Z-1.000000 I-0.105178 J0.083069
G02 X18.674828 Y17.607646 Z-1.000000 I0.361279 J-0.212244
G02 X18.583882 Y17.954916 Z-1.000000 I0.032959 J0.054498
G03 X18.241912 Y17.915942 Z-1.000000 I0.110907 J-0.424021
G02 X18.319816 Y17.491374 Z-1.000000 I-0.458864 J0.112683
G03 X18.073012 Y17.244569 Z-1.000000 I1.793060 J-2.039857
G02 X17.789004 Y17.045831 Z-1.000000 I-0.090183 J0.050708
G02 X17.597379 Y17.399907 Z-1.000000 I0.432439 J0.462927
G03 X17.229982 Y18.800807 Z-1.000000 I-8.525377 J-1.487222
G03 X16.950391 Y19.228219 Z-1.000000 I-1.016757 J-0.359957
G03 X15.688660 Y20.236189 Z-1.000000 I-7.044028 J-7.523719
G03 X14.836308 Y20.660690 Z-1.000000 I-2.005918 J-2.959701
G02 X14.405337 Y20.830249 Z-1.000000 I1.612926 J4.732070
G03 X14.077842 Y21.079442 Z-1.000000 I-0.465005 J-0.828987
G03 X13.275592 Y21.104203 Z-1.000000 I-0.581807 J-5.841695
G00 X12.711886 Y21.064734
G00 X10.091374 Y19.453463
G03 X10.283646 Y19.141126 Z-1.000000 I0.275227 J0.243342
G03 X10.635461 Y19.113101 Z-1.000000 I-0.079070 J2.506246
G02 X10.242271 Y19.350630 Z-1.000000 I0.284903 J0.448586
G00 X10.132715 Y18.708247
G00 X10.288778 Y18.432300
G03 X10.031169 Y18.131164 Z-1.000000 I0.027399 J-0.104780
G02 X9.986992 Y17.754824 Z-1.000000 I-0.243608 J0.076784
G02 X10.509179 Y17.614578 Z-1.000000 I0.077970 J-2.298855
G02 X10.787507 Y17.447174 Z-1.000000 I-0.140108 J-0.728728
G01 X10.264993 Y17.384830 Z-1.000000
G02 X10.748873 Y17.173135 Z-1.000000 I-0.334760 J-0.916592
G02 X11.204993 Y17.240131 Z-1.000000 I-0.185359 J-3.346906
G01 X11.580680 Y17.191041 Z-1.000000
G02 X11.116177 Y17.539175 Z-1.000000 I3.100446 J4.262783
G03 X10.853942 Y17.754273 Z-1.000000 I-0.446417 J-0.456919
G02 X10.538827 Y17.921367 Z-1.000000 I0.000000 J0.260868
G02 X10.484623 Y18.363063 Z-1.000000 I0.608452 J0.298842
G00 X10.116178 Y17.481403
G00 X11.092863 Y16.834494
G00 X12.187370 Y16.894434
G02 X12.610083 Y16.731136 Z-1.000000 I-0.192141 J-0.556961
G02 X12.168229 Y16.739708 Z-1.000000 I0.036821 J0.909279
G00 X12.003918 Y17.578553
G03 X11.515925 Y17.659323 Z-1.000000 I0.278189 J-6.501754
G03 X11.815816 Y17.211651 Z-1.000000 I0.416844 J0.383311
G03 X11.383800 Y17.139301 Z-1.000000 I-0.089910 J-0.631026
G03 X11.834600 Y16.852278 Z-1.000000 I0.553130 J0.872718
G02 X12.038005 Y17.082966 Z-1.000000 I0.068322 J0.000000
G02 X11.763480 Y16.785146 Z-1.000000 I-0.741196 J1.116073
G02 X12.020347 Y16.509588 Z-1.000000 I-0.178210 J-0.511351
G03 X11.540416 Y16.527558 Z-1.000000 I-0.413692 J-0.772898
G03 X11.667521 Y16.205344 Z-1.000000 I0.166655 J0.000000
G03 X11.968777 Y16.281410 Z-1.000000 I0.070962 J0.353547
G02 X12.309325 Y16.237480 Z-1.000000 I-0.058702 J-0.456584
G03 X12.755810 Y16.139810 Z-1.000000 I0.110076 J0.503270
G02 X13.241568 Y16.209060 Z-1.000000 I0.450608 J-3.164295
G03 X13.562479 Y16.295360 Z-1.000000 I-0.047167 J0.175269
G03 X12.896886 Y16.382690 Z-1.000000 I-0.492080 J-3.751615
G02 X13.665833 Y16.441084 Z-1.000000 I-0.279991 J-2.377410
G03 X14.089062 Y16.395614 Z-1.000000 I0.064502 J0.606254
G03 X14.643156 Y16.338824 Z-1.000000 I-0.124224 J1.134829
G02 X14.387702 Y16.506692 Z-1.000000 I0.007909 J0.065029
G03 X14.002713 Y16.655004 Z-1.000000 I-0.248827 J-0.645999
G02 X13.643701 Y16.868266 Z-1.000000 I-0.070628 J0.270029
G02 X13.282087 Y16.971978 Z-1.000000 I-0.061162 J0.192747
G02 X13.103539 Y17.274083 Z-1.000000 I0.117536 J0.062848
G03 X12.820839 Y17.462207 Z-1.000000 I-0.135052 J-0.083479
G02 X12.525025 Y17.535628 Z-1.000000 I-0.000000 J0.225607
G03 X12.242608 Y17.702991 Z-1.000000 I-0.244838 J-0.640409
G00 X11.874211 Y18.057081
G00 X12.077816 Y16.084156
G03 X12.690638 Y15.628852 Z-1.000000 I0.742593 J0.856226
G02 X12.407829 Y15.926832 Z-1.000000 I0.000000 J0.430645
G03 X12.077816 Y16.084154 Z-1.000000 I-0.178908 J-0.484080
G00 X13.026595 Y15.935845
G01 X13.318052 Y15.833515 Z-1.000000
G03 X13.026564 Y15.935835 Z-1.000000 I-0.031983 J-0.293732
G00 X14.948958 Y16.324448
G00 X15.987138 Y14.760710
G03 X15.669328 Y14.626868 Z-1.000000 I0.754264 J-1.870620
G03 X16.004318 Y14.728889 Z-1.000000 I-0.414619 J0.548156
G00 X15.342216 Y14.271334
G03 X15.512792 Y14.017602 Z-1.000000 I0.055790 J0.027425
G03 X15.343289 Y14.271332 Z-1.000000 I-0.005393 J-0.080636
G00 X17.272847 Y14.862000
G00 X17.471285 Y15.222710
G00 X17.697111 Y14.825310
G00 X17.176729 Y13.243494
G00 X17.479553 Y12.927751
G00 X20.237527 Y9.834399
G01 X19.757970 Y9.724839 Z-1.000000
G01 X20.040123 Y9.575494 Z-1.000000
G03 X20.381705 Y9.582711 Z-1.000000 I-0.001960 J0.102437
G00 X19.266007 Y17.389933
G03 X19.054651 Y17.087625 Z-1.000000 I0.326852 J-0.247582
G03 X19.307096 Y17.314782 Z-1.000000 I-0.328024 J0.328808
G00 X19.683036 Y17.762523
G02 X19.323886 Y17.680873 Z-1.000000 I-0.088464 J0.415337
G03 X19.524526 Y17.446728 Z-1.000000 I0.226004 J0.199365
G03 X19.685481 Y17.744559 Z-1.000000 I-0.504660 J0.708158
G00 X20.224089 Y17.905669
G03 X19.946536 Y17.663792 Z-1.000000 I0.175526 J-0.281021
G02 X20.284547 Y17.598718 Z-1.000000 I-0.069575 J-0.289190
G01 X20.246288 Y17.897496 Z-1.000000
G00 X20.166728 Y18.432817
G03 X20.407476 Y18.101292 Z-1.000000 I0.679490 J0.581821
G03 X20.170350 Y18.432817 Z-1.000000 I-0.285654 J-0.241680
G00 X19.836515 Y18.678277
G00 X19.709391 Y18.328431
G02 X19.687688 Y17.970837 Z-1.000000 I-0.172011 J-0.038472
G03 X19.851499 Y18.239039 Z-1.000000 I-0.125944 J0.033836
G00 X19.282544 Y18.589397
G02 X18.935795 Y18.600757 Z-1.000000 I-0.036811 J0.108196
G02 X18.690329 Y18.381653 Z-1.000000 I-0.076399 J0.144882
G03 X18.392156 Y18.288123 Z-1.000000 I0.089062 J-0.283822
G02 X18.715252 Y18.193321 Z-1.000000 I0.082720 J-0.329626
G03 X18.912021 Y17.963078 Z-1.000000 I0.097963 J0.091216
G03 X19.178041 Y17.731802 Z-1.000000 I0.137829 J0.000000
G03 X19.491125 Y18.049594 Z-1.000000 I-0.135212 J0.135212
G03 X19.457438 Y18.442988 Z-1.000000 I-0.226134 J0.226010
G03 X19.359542 Y18.754249 Z-1.000000 I-0.047046 J-0.030537
G00 X19.367293 Y19.149041
G00 X18.843294 Y19.337713
G03 X18.603000 Y19.035440 Z-1.000000 I0.405432 J-0.270878
G02 X18.892908 Y18.879379 Z-1.000000 I-0.017602 J-0.157765
G02 X18.918226 Y19.214250 Z-1.000000 I0.050559 J0.048804
G00 X16.332853 Y18.245701
G00 X21.265885 Y22.568506
G03 X21.451921 Y21.907564 Z-1.000000 I1.882243 J0.515933
G03 X21.646340 Y22.287988 Z-1.000000 I-0.292034 J0.292034
G03 X21.267952 Y22.568501 Z-1.000000 I-0.416231 J-0.165997
G00 X21.867399 Y22.380410
G00 X20.556885 Y23.884793
G00 X20.586857 Y24.227926
G00 X20.369299 Y25.952148
G00 X19.074288 Y26.225514
G03 X19.077474 Y25.899324 Z-1.000000 I0.728772 J-0.010827
G03 X19.092052 Y26.216047 Z-1.000000 I-1.707979 J-0.993503
G00 X18.521350 Y27.420372
G00 X15.607833 Y30.712194
G03 X15.678800 Y30.383104 Z-1.000000 I0.539447 J0.205737
G03 X15.639587 Y30.697232 Z-1.000000 I-0.522481 J-0.136765
G03 X15.345555 Y30.820132 Z-1.000000 I-0.000000 J-0.247704 F3500.000000
G00 X11.593608 Y28.113941
G03 X11.870741 Y27.845376 Z-1.000000 I1.507757 J1.993362
G03 X11.686600 Y28.087778 Z-1.000000 I-0.441516 J-0.366365
G00 X11.121285 Y27.913398
G02 X10.733952 Y27.843411 Z-1.000000 I-0.737746 J3.290073
G03 X10.929658 Y27.469725 Z-1.000000 I2.412543 J3.084684
G02 X11.055664 Y27.815725 Z-1.000000 I0.351153 J-0.158959
G00 X11.545549 Y27.360892
G01 X11.263395 Y27.251888 Z-1.000000
G03 X11.618387 Y27.120467 Z-1.000000 I0.122798 J0.153635
G00 X12.092285 Y26.986265
G00 X10.241235 Y26.778974
G00 X10.244853 Y27.736638
G03 X10.057367 Y27.472949 Z-1.000000 I0.055284 J-0.029588
G02 X10.477901 Y27.498284 Z-1.000000 I0.325751 J-1.135655
G02 X10.164371 Y27.558414 Z-1.000000 I-0.317009 J1.446215
G00 X9.865548 Y27.736638
G03 X9.180514 Y27.588082 Z-1.000000 I0.037060 J-1.824615 F3500.000000
G02 X9.101253 Y27.234343 Z-1.000000 I-0.319302 J0.079815
G03 X9.299174 Y26.904647 Z-1.000000 I0.557282 J0.334312
G03 X8.961457 Y26.961340 Z-1.000000 I-0.461981 J-0.383346
G02 X8.672855 Y26.848319 Z-1.000000 I0.004567 J0.336417
G03 X8.393285 Y26.986295 Z-1.000000 I-0.089936 J-0.182401
G02 X8.678284 Y26.674804 Z-1.000000 I-0.453219 J-0.647134
G03 X8.861474 Y26.322770 Z-1.000000 I0.456971 J0.272823
G02 X8.965860 Y26.035449 Z-1.000000 I-0.235352 J-0.085571
G02 X9.147147 Y25.744780 Z-1.000000 I-0.069676 J-0.181522
G02 X9.314160 Y25.440137 Z-1.000000 I-0.094772 J-0.040081
G02 X9.866064 Y25.435480 Z-1.000000 I0.172850 J-1.502369
G01 X10.265523 Y25.386390 Z-1.000000
G01 X9.936344 Y25.521265 Z-1.000000
G01 X9.607682 Y25.656141 Z-1.000000
G03 X10.014913 Y25.725891 Z-1.000000 I-0.006305 J0.174743
G03 X10.335361 Y25.916844 Z-1.000000 I0.088005 J0.170181
G02 X10.227569 Y26.207523 Z-1.000000 I3.612764 J3.179494
G03 X10.076891 Y26.562942 Z-1.000000 I-2.856348 J-2.448237
G02 X9.779004 Y26.864899 Z-1.000000 I2.934248 J3.192622
G03 X10.122379 Y26.915499 Z-1.000000 I-0.004087 J0.066455
G03 X9.711034 Y27.178016 Z-1.000000 I-0.169572 J-0.265504
G02 X9.519366 Y26.921193 Z-1.000000 I-0.062968 J-0.038899
G02 X9.425275 Y27.253088 Z-1.000000 I0.055921 J0.034562
G03 X9.903793 Y27.663849 Z-1.000000 I-0.399369 J0.701767
G00 X10.210229 Y28.196591
G00 X9.384957 Y28.295291
G00 X9.230961 Y27.926318
G00 X8.187097 Y28.458051
G03 X8.188776 Y28.140669 Z-1.000000 I0.275952 J0.105904
G03 X8.257377 Y28.434796 Z-1.000000 I-0.238947 J0.002378
G00 X8.100281 Y28.740755
G00 X10.101192 Y30.621761
G03 X9.765905 Y30.446725 Z-1.000000 I0.550757 J-1.029030
G03 X10.106225 Y30.574985 Z-1.000000 I-0.549682 J1.027278
G00 X9.622152 Y25.342898
G00 X9.386507 Y25.092900
G03 X9.192721 Y24.807129 Z-1.000000 I1.013288 J-0.631443
G03 X9.182386 Y24.449528 Z-1.000000 I0.087752 J-0.002558
G02 X9.298141 Y24.135335 Z-1.000000 I-0.843890 J-0.310480
G02 X9.611177 Y23.984619 Z-1.000000 I0.242482 J-0.563961
G03 X9.961532 Y24.005611 Z-1.000000 I0.012860 J1.356670
G03 X9.728326 Y24.426313 Z-1.000000 I-0.223928 J0.074651
G02 X9.401036 Y24.571051 Z-1.000000 I-0.000000 J0.105932
G02 X9.714136 Y24.631404 Z-1.000000 I-0.013478 J-0.854449
G03 X9.491911 Y25.056191 Z-1.000000 I-2.358974 J-2.000168
G00 X9.812838 Y25.010780
G00 X9.384957 Y23.313680
G00 X11.692826 Y25.104692
G00 X9.388058 Y18.997113
G03 X9.089884 Y18.809010 Z-1.000000 I0.198788 J-0.315200
G03 X9.515193 Y18.952117 Z-1.000000 I-1.819535 J2.312830
G00 X10.052100 Y13.410409
G00 X10.303764 Y13.069344
G03 X10.068265 Y12.876327 Z-1.000000 I0.039038 J-0.053373
G03 X10.374559 Y12.937569 Z-1.000000 I-0.044826 J0.083866
G03 X9.968833 Y12.667510 Z-1.000000 I-0.000000 J-1.808437 F3500.000000
G03 X10.312032 Y12.590304 Z-1.000000 I0.174820 J1.763690
G03 X10.652181 Y12.638206 Z-1.000000 I-0.364137 J3.817375
G03 X10.312032 Y12.700371 Z-1.000000 I-0.341388 J-3.618363
G03 X10.221399 Y12.402544 Z-1.000000 I-0.008182 J-0.659436 F3500.000000
G00 X10.485664 Y12.175342
G03 X10.095755 Y12.113048 Z-1.000000 I0.065188 J-1.133633
G02 X10.454435 Y12.027872 Z-1.000000 I0.512340 J-1.911335
G01 X10.261906 Y11.797638 Z-1.000000
G00 X10.719243 Y11.644625
G03 X10.206767 Y11.500067 Z-1.000000 I0.115377 J-0.615056
G03 X10.572482 Y11.256020 Z-1.000000 I0.166936 J0.593761
G02 X10.738879 Y11.572280 Z-1.000000 I0.071356 J-0.033182
G00 X10.677383 Y11.088070
G03 X10.302608 Y11.025861 Z-1.000000 I0.017610 J-1.266101 F3500.000000
G03 X10.746722 Y11.040490 Z-1.000000 I-0.469840 J1.348246
G00 X10.635013 Y10.758374
G03 X10.278610 Y10.602108 Z-1.000000 I0.085189 J-0.445686
G03 X10.538993 Y10.355363 Z-1.000000 I0.189801 J0.117304
G03 X10.745600 Y10.640548 Z-1.000000 I-0.125671 J0.308477
G00 X10.523392 Y10.160994
G00 X10.510989 Y9.828699
G03 X10.312035 Y9.585303 Z-1.000000 I0.200885 J-0.192352
G03 X10.621184 Y9.624043 Z-1.000000 I-0.148764 J0.278105
G00 X10.500139 Y9.317102
G00 X10.522359 Y8.993091
G03 X10.435098 Y8.634964 Z-1.000000 I0.312372 J-0.583887
G03 X10.725448 Y8.715593 Z-1.000000 I-0.174237 J0.368583
G00 X10.630360 Y8.367806
G03 X10.423136 Y8.110975 Z-1.000000 I0.366551 J-0.237878
G03 X10.743828 Y8.099672 Z-1.000000 I-0.078244 J0.110504
G03 X10.648961 Y7.782313 Z-1.000000 I0.154328 J-0.588603
G03 X10.406086 Y7.484135 Z-1.000000 I1.300720 J-0.217110
G03 X10.734748 Y7.437115 Z-1.000000 I0.035177 J0.245740
G03 X10.758460 Y7.788892 Z-1.000000 I-0.077184 J0.047724
G00 X10.909929 Y7.339962
G03 X10.580751 Y7.158061 Z-1.000000 I0.715441 J-1.294586
G03 X10.928232 Y7.305975 Z-1.000000 I-0.401482 J0.481004
G00 X10.861359 Y6.942049
G03 X10.556380 Y6.729340 Z-1.000000 I0.144481 J-0.296512
G02 X10.577545 Y6.354357 Z-1.000000 I-1.509230 J-0.406004
G03 X10.659827 Y6.046662 Z-1.000000 I0.086164 J0.000499
G02 X11.018604 Y6.258306 Z-1.000000 I10.047978 J-11.936078
G02 X11.010186 Y6.639225 Z-1.000000 I0.216829 J-0.040611
G02 X10.653246 Y6.686163 Z-1.000000 I-0.683337 J1.277103
G03 X10.856864 Y6.926626 Z-1.000000 I-4.559894 J5.692818
G00 X10.952309 Y5.931776
G03 X10.786144 Y5.591596 Z-1.000000 I0.000000 J-0.113739 F3500.000000
G03 X10.926030 Y5.237872 Z-1.000000 I0.225162 J0.043048
G03 X10.984604 Y5.600745 Z-1.000000 I-0.104638 J0.040146
G00 X11.002431 Y4.957159
G03 X11.011948 Y4.611459 Z-1.000000 I0.151110 J0.039554
G03 X11.006598 Y4.957165 Z-1.000000 I-0.106324 J-0.025577
G00 X11.772410 Y2.173827
G00 X11.821500 Y1.797626
G00 X12.340848 Y0.457645
G03 X12.097965 Y0.235436 Z-1.000000 I0.039532 J-0.036811
G03 X12.352338 Y0.439171 Z-1.000000 I-0.741921 J0.284964
G00 X29.345495 Y0.998745
G03 X29.704815 Y0.590743 Z-1.000000 I2.464343 J2.087080
G01 X29.345495 Y0.998745 Z-1.000000
G00 X35.748724 Y4.483288
G03 X36.114255 Y4.380482 Z-1.000000 I0.045864 J0.819007
G03 X35.748724 Y4.483288 Z-1.000000 I-0.259847 J-1.607599
G00 X35.451589 Y6.841797
G00 X27.465507 Y15.615451
G03 X26.911968 Y15.475451 Z-1.000000 I0.379383 J-1.786231
G03 X27.230379 Y15.476958 Z-1.000000 I-0.159287 J1.056857
G00 X27.928528 Y16.273288
G03 X27.540955 Y16.035060 Z-1.000000 I0.899251 J-1.533300
G01 X27.277405 Y15.798381 Z-1.000000
G03 X27.836429 Y15.936543 Z-1.000000 I-0.554566 J2.540845
G03 X28.123348 Y16.050041 Z-1.000000 I-0.962408 J2.852339
G01 X28.405501 Y16.178715 Z-1.000000
G02 X27.951416 Y16.130605 Z-1.000000 I-0.086433 J0.449266
G00 X26.666589 Y16.137896
G00 X26.282633 Y16.542522
G00 X26.564270 Y16.687733
G03 X26.887348 Y16.501472 Z-1.000000 I0.192474 J0.736218
G03 X26.564273 Y16.687734 Z-1.000000 I-0.222257 J-0.625051
G00 X26.543599 Y17.355313
G03 X26.259896 Y17.155322 Z-1.000000 I0.077531 J-0.062243
G02 X26.632104 Y17.249733 Z-1.000000 I0.058866 J-0.153370
G00 X27.330632 Y17.865359
G03 X27.168764 Y17.554266 Z-1.000000 I0.000000 J-0.187176
G03 X27.610136 Y17.693458 Z-1.000000 I-4.312514 J5.008948
G03 X27.352836 Y17.859045 Z-1.000000 I-0.778311 J-0.958813
G00 X27.635006 Y18.140281
G02 X27.854625 Y17.916009 Z-1.000000 I-0.323032 J-0.589039
G03 X27.635000 Y18.140302 Z-1.000000 I-0.262247 J-0.491011
G00 X28.315068 Y17.587853
G03 X27.649636 Y17.418517 Z-1.000000 I0.017045 J-1.751438 F3500.000000
G03 X27.564726 Y17.109334 Z-1.000000 I0.101328 J-0.194078
G02 X27.346204 Y16.841871 Z-1.000000 I-0.962367 J1.183244
G02 X27.008027 Y16.916623 Z-1.000000 I-1.064574 J1.989107
G03 X26.666590 Y16.835973 Z-1.000000 I0.029507 J-0.115531
G03 X26.980266 Y16.859223 Z-1.000000 I-0.016394 J0.221593
G03 X27.335286 Y16.700573 Z-1.000000 I0.068255 J0.327679
G02 X27.718726 Y16.761033 Z-1.000000 I0.017937 J-0.114282
G03 X28.037052 Y16.881439 Z-1.000000 I-0.245885 J0.649740
G01 X27.930082 Y17.168759 Z-1.000000
G02 X28.240661 Y17.366170 Z-1.000000 I0.152341 J-0.336962
G03 X28.593095 Y17.441100 Z-1.000000 I-0.294843 J1.387929
G03 X28.465092 Y17.111559 Z-1.000000 I0.208149 J-0.234874
G02 X28.768606 Y17.271180 Z-1.000000 I0.182237 J-0.000000
G03 X28.606018 Y17.599178 Z-1.000000 I-0.419939 J-0.328906
G00 X28.981177 Y18.092221
G03 X28.584727 Y18.004233 Z-1.000000 I1.533374 J-5.232574
G02 X28.932107 Y17.941106 Z-1.000000 I-0.087843 J-1.220075
G00 X28.629260 Y18.326831
G00 X29.010632 Y18.526867
G00 X29.916003 Y19.336113
G00 X28.506787 Y21.117954
G03 X27.840211 Y21.081342 Z-1.000000 I0.169945 J-9.180441 F3500.000000
G03 X27.759805 Y20.733003 Z-1.000000 I0.134237 J-0.134233
G03 X28.566215 Y20.500935 Z-1.000000 I0.806410 J1.285058
G01 X28.875240 Y20.406885 Z-1.000000
G01 X28.781186 Y20.005361 Z-1.000000
G02 X29.159933 Y20.138762 Z-1.000000 I0.685372 J-1.796213
G02 X29.542471 Y20.210977 Z-1.000000 I0.390611 J-2.235183
G03 X29.321605 Y19.952239 Z-1.000000 I0.556128 J-0.682730
G02 X29.627129 Y19.843003 Z-1.000000 I-0.031769 J-0.091636
G02 X29.795594 Y20.124635 Z-1.000000 I0.232479 J0.082673
G02 X29.713454 Y20.429524 Z-1.000000 I0.051430 J0.083244
G03 X29.722006 Y20.946536 Z-1.000000 I-0.344711 J0.213050
G03 X29.394591 Y21.019154 Z-1.000000 I-0.201013 J-0.131894
G03 X28.506790 Y21.117854 Z-1.000000 I-0.499001 J-9.035266
G00 X26.287284 Y21.088504
G02 X25.981322 Y20.998884 Z-1.000000 I-0.050074 J0.000000
G03 X25.918312 Y20.638918 Z-1.000000 I0.403012 J0.061145
G02 X26.254772 Y20.881792 Z-1.000000 I0.339968 J-0.268615
G02 X26.640278 Y20.818232 Z-1.000000 I-0.036047 J-0.218857
G02 X26.817257 Y20.254796 Z-1.000000 I-0.741791 J-0.542514
G02 X26.614958 Y19.696854 Z-1.000000 I-0.928892 J0.021152
G03 X26.503289 Y20.026998 Z-1.000000 I-0.333328 J0.064261
G03 X26.126147 Y19.911278 Z-1.000000 I0.395186 J-0.749937
G03 X25.970503 Y20.225622 Z-1.000000 I-0.522858 J0.000000
G03 X25.804203 Y20.533979 Z-1.000000 I-1.488481 J-0.603730
G03 X25.599325 Y20.830677 Z-1.000000 I-353.152448 J-243.641531
G03 X25.021822 Y20.672988 Z-1.000000 I3.551931 J-10.819239
G03 X24.517704 Y20.401599 Z-1.000000 I0.799246 J-2.088540
G03 X23.741796 Y19.754698 Z-1.000000 I4.049619 J-5.645982
G03 X23.119256 Y18.994111 Z-1.000000 I2.919914 J-3.025018
G03 X22.987837 Y18.574925 Z-1.000000 I0.706727 J-0.451759
G02 X22.944573 Y18.113124 Z-1.000000 I-4.235213 J0.163853
G03 X22.625565 Y17.239107 Z-1.000000 I1.275704 J-0.895604
G02 X22.877245 Y16.994107 Z-1.000000 I-0.000000 J-0.061827
G03 X23.071555 Y16.718191 Z-1.000000 I0.178845 J0.172005
G02 X23.188860 Y17.037034 Z-1.000000 I0.314270 J0.158422
G02 X23.117762 Y17.384306 Z-1.000000 I0.202337 J0.000000
G03 X23.471016 Y17.446824 Z-1.000000 I-0.099430 J0.167058
G02 X23.221630 Y17.714758 Z-1.000000 I-0.000000 J0.195192
G03 X23.588726 Y17.639542 Z-1.000000 I0.115178 J0.044198
G02 X24.045658 Y17.712441 Z-1.000000 I0.104228 J-0.743971
G03 X24.948445 Y17.771871 Z-1.000000 I-0.391156 J5.914540
G03 X26.538755 Y18.638673 Z-1.000000 I-0.492414 J2.795687
G03 X27.084749 Y20.078707 Z-1.000000 I-1.505580 J1.394371
G02 X27.100816 Y20.729409 Z-1.000000 I6.956248 J0.153786
G03 X27.058399 Y21.040406 Z-1.000000 I-0.093411 J-0.049242
G03 X26.560267 Y21.079664 Z-1.000000 I-1.382459 J-14.361706
G00 X26.301754 Y19.373883
G00 X23.564970 Y19.279783
G03 X23.776322 Y18.971274 Z-1.000000 I0.141856 J0.095623
G02 X23.470917 Y19.192450 Z-1.000000 I0.304554 J0.337435
G00 X23.611995 Y18.809527
G03 X23.893632 Y18.681887 Z-1.000000 I0.044409 J0.171551
G02 X24.258089 Y18.396039 Z-1.000000 I-0.014221 J-0.503651
G02 X24.457248 Y18.117099 Z-1.000000 I-0.398447 J-0.712092
G02 X24.102945 Y18.135337 Z-1.000000 I0.001779 J0.425809
G02 X23.776329 Y18.376014 Z-1.000000 I0.764258 J1.379114
G02 X23.549425 Y18.718944 Z-1.000000 I0.645385 J0.673559
G00 X25.642879 Y22.937476
G00 X25.522990 Y23.602639
G03 X25.256856 Y23.367512 Z-1.000000 I2.222604 J-2.512132
G03 X25.521771 Y23.569160 Z-1.000000 I-1.936740 J1.820033
G00 X25.853202 Y23.602639
G03 X25.570688 Y23.260846 Z-1.000000 I1.226076 J-0.766160
G03 X25.877033 Y23.572969 Z-1.000000 I-0.454231 J0.409451
G00 X25.316284 Y23.948353
G03 X25.079606 Y23.614525 Z-1.000000 I0.244861 J-0.117936
G03 X25.322613 Y23.818629 Z-1.000000 I0.000000 J0.076433
G00 X24.419698 Y24.779319
G00 X23.749972 Y24.449106
G03 X23.445422 Y24.417995 Z-1.000000 I-0.081869 J-0.000000
G03 X23.689080 Y24.029056 Z-1.000000 I0.513804 J0.464976
G02 X23.678659 Y24.340021 Z-1.000000 I0.216551 J-0.000000
G00 X23.429578 Y23.925613
G02 X23.232865 Y23.296182 Z-1.000000 I-1.832728 J0.345684
G02 X23.169124 Y23.002152 Z-1.000000 I-0.138661 J-0.000000
G03 X23.052899 Y22.717970 Z-1.000000 I0.631734 J0.355667
G02 X23.209996 Y22.100436 Z-1.000000 I-1.966467 J-0.498748
G03 X23.250675 Y21.669899 Z-1.000000 I3.034450 J0.069515
G02 X23.251356 Y21.276197 Z-1.000000 I-0.676657 J0.075269
G02 X23.179016 Y20.970791 Z-1.000000 I-0.057213 J0.034469
G02 X23.498897 Y20.873641 Z-1.000000 I-0.064081 J-0.136886
G03 X23.914001 Y21.025335 Z-1.000000 I-0.728547 J0.850975
G02 X24.120048 Y21.433299 Z-1.000000 I1.604393 J-0.880039
G03 X24.220817 Y21.916990 Z-1.000000 I-0.499118 J0.103616
G02 X24.250787 Y22.277175 Z-1.000000 I0.185785 J-0.015476
G02 X24.027549 Y22.733478 Z-1.000000 I0.397679 J0.144158
G02 X24.175860 Y23.050770 Z-1.000000 I1.674390 J-1.070569
G03 X23.749563 Y22.487499 Z-1.000000 I1.170722 J-0.575417
G02 X23.604869 Y22.098892 Z-1.000000 I-1.353124 J0.503219
G02 X23.659680 Y22.648778 Z-1.000000 I40.114637 J-9.672795
G03 X23.733520 Y23.049027 Z-1.000000 I-2.721096 J0.708937
G02 X23.609030 Y23.720548 Z-1.000000 I5.426213 J-0.239024
G00 X23.126237 Y24.321976
G00 X24.231596 Y25.813137
G00 X24.950932 Y26.091678
G03 X24.717839 Y25.790161 Z-1.000000 I4.969123 J-2.982803
G03 X24.970846 Y26.041979 Z-1.000000 I-0.544561 J0.568360
G00 X25.991178 Y26.650294
G00 X26.381335 Y26.422414
G03 X26.115002 Y26.205000 Z-1.000000 I1.016580 J-1.296591
G03 X26.379611 Y26.406268 Z-1.000000 I-2.798006 J2.194084
G00 X26.841772 Y26.515944
G03 X26.478487 Y26.187281 Z-1.000000 I4.358247 J-4.826033
G03 X26.214621 Y25.895150 Z-1.000000 I4.024896 J-3.900706
G03 X26.572538 Y26.187281 Z-1.000000 I-4.440231 J4.932529
G03 X26.833745 Y26.475855 Z-1.000000 I-4.100027 J3.973705
G00 X25.886792 Y27.167645
G02 X25.534359 Y27.080315 Z-1.000000 I-0.081060 J0.331288
G03 X25.310321 Y26.807398 Z-1.000000 I1.176085 J-0.629550
G03 X25.912050 Y27.109405 Z-1.000000 I-0.419741 J0.926044
G00 X26.160160 Y28.190391
G03 X25.982042 Y27.902348 Z-1.000000 I0.296151 J-0.229359
G03 X25.755498 Y27.633357 Z-1.000000 I0.100328 J-0.383529
G03 X25.542023 Y27.298068 Z-1.000000 I0.595503 J-0.784161
G03 X25.960664 Y27.479940 Z-1.000000 I-1.209703 J2.652994
G03 X26.290227 Y27.820408 Z-1.000000 I-0.576750 J0.888015
G02 X26.139465 Y28.090755 Z-1.000000 I0.125140 J0.069651
G00 X26.296069 Y29.711741
G00 X25.673885 Y30.087944
G03 X25.785314 Y29.791325 Z-1.000000 I0.404998 J0.250242
G03 X26.008748 Y30.013527 Z-1.000000 I0.001228 J0.222202
G03 X25.673885 Y30.087941 Z-1.000000 I-0.301691 J-1.359438
G00 X25.820646 Y30.357694
G00 X25.350391 Y29.618211
G00 X23.529313 Y28.359351
G01 X23.282817 Y28.153163 Z-1.000000
G03 X23.564986 Y28.323629 Z-1.000000 I-0.079917 J0.075111
G00 X23.083862 Y28.723705
G00 X23.063192 Y29.572741
G00 X23.164994 Y30.236255
G03 X23.132859 Y29.843981 Z-1.000000 I0.557218 J-0.000000
G03 X23.251700 Y30.153491 Z-1.000000 I-0.454559 J0.000000
G00 X25.129215 Y32.667631
G03 X24.709133 Y32.417305 Z-1.000000 I0.158438 J-0.306399
G03 X24.928483 Y32.047058 Z-1.000000 I0.133193 J0.003800
G03 X25.162254 Y32.651614 Z-1.000000 I-0.680034 J0.610433
G00 X27.147697 Y31.027937
G00 X28.166756 Y30.746301
G03 X27.900497 Y30.528805 Z-1.000000 I1.069249 J-1.363822
G03 X28.165503 Y30.730148 Z-1.000000 I-3.357960 J2.633138
G00 X28.443742 Y27.059125
G02 X28.639122 Y26.799749 Z-1.000000 I-0.179998 J-0.370899
G03 X28.969334 Y26.704149 Z-1.000000 I0.030993 J0.107082
G02 X28.622070 Y26.955812 Z-1.000000 I0.456217 J0.839153
G00 X28.314551 Y26.798144
G00 X28.506270 Y26.559864
G03 X28.255704 Y26.368012 Z-1.000000 I0.092914 J-0.127067
G03 X28.533013 Y26.535358 Z-1.000000 I-0.170044 J0.105087
G00 X28.696956 Y26.112348
G00 X29.048873 Y25.982638
G03 X28.747190 Y25.780867 Z-1.000000 I2.336573 J-1.754547
G02 X29.074720 Y25.887557 Z-1.000000 I0.047877 J-0.200760
G00 X29.032853 Y25.475708
G01 X28.867489 Y25.056098 Z-1.000000 F3500.000000
G03 X28.620859 Y24.870665 Z-1.000000 I0.531435 J-0.963546
G03 X28.932084 Y24.636486 Z-1.000000 I0.301036 J0.824120
G03 X29.272115 Y24.826655 Z-1.000000 I-0.060820 J0.108774
G02 X28.828315 Y24.855086 Z-1.000000 I-1.641708 J4.022339
G01 X29.157393 Y25.215778 Z-1.000000
G00 X29.215271 Y26.609984
G00 X27.146663 Y25.287088
M5
G00 X0.0000 Y0.0000
M2
%