%
(Header)
(Generated by gcodetools from Inkscape.)
(Using default header. To add your own header create file "header" in the output dir.)
M3
(Header end.)
G21 (All units in mm)

(Start cutting path id: path26)
(Change tool to Default tool)

G00 Z5.000000
G00 X27.122860 Y16.626890

G01 Z-1.000000 F100.0(Penetrate)
G03 X28.078299 Y15.767249 Z-1.000000 I2.517033 J1.836754 F3500.000000
G03 X28.290632 Y15.942334 Z-1.000000 I0.073584 J0.127057
G03 X28.193366 Y16.074810 Z-1.000000 I-0.254302 J-0.084767
G03 X28.089292 Y16.083272 Z-1.000000 I-0.059019 J-0.081647
G02 X27.981459 Y16.081871 Z-1.000000 I-0.054997 J0.082496
G02 X27.404736 Y16.526220 Z-1.000000 I2.056839 J3.266023
G03 X27.156912 Y16.671408 Z-1.000000 I-0.535589 J-0.630104
G01 X27.122860 Y16.626890 Z-1.000000
G01 X27.122860 Y16.626890 Z-1.000000
G00 Z5.000000

(End cutting path id: path26)


(Start cutting path id: path25)
(Change tool to Default tool)

G00 Z5.000000
G00 X28.532240 Y18.237610

G01 Z-1.000000 F100.0(Penetrate)
G03 X28.576004 Y18.038894 Z-1.000000 I0.473032 J0.000000 F3500.000000
G03 X28.814116 Y17.633590 Z-1.000000 I2.188263 J1.012988
G02 X29.314973 Y16.528471 Z-1.000000 I-2.817024 J-1.942776
G02 X29.156394 Y16.324880 Z-1.000000 I-0.158579 J-0.040036
G02 X29.013412 Y16.408405 Z-1.000000 I-0.000000 J0.164145
G02 X28.934920 Y16.707426 Z-1.000000 I0.530327 J0.299021
G03 X28.871644 Y17.067621 Z-1.000000 I-1.056842 J0.000000
G03 X28.753714 Y17.210776 Z-1.000000 I-0.260482 J-0.094432
G03 X28.530280 Y17.040118 Z-1.000000 I-0.082440 J-0.123660
G03 X29.116126 Y16.123540 Z-1.000000 I2.110682 J0.703561
G03 X29.467607 Y15.885576 Z-1.000000 I1.075345 J1.209763
G03 X29.840950 Y15.761128 Z-1.000000 I0.622238 J1.244476
G03 X29.957806 Y15.811819 Z-1.000000 I0.015530 J0.124238
G03 X29.941620 Y15.902066 Z-1.000000 I-0.051453 J0.037347
G02 X29.777293 Y16.081481 Z-1.000000 I0.395186 J0.526915
G01 X29.800682 Y16.123540 Z-1.000000
G01 X29.837449 Y16.182977 Z-1.000000
G03 X29.659744 Y16.445684 Z-1.000000 I-1.078889 J-0.538345
G02 X29.390172 Y16.784012 Z-1.000000 I0.842599 J0.947923
G02 X29.337600 Y16.989302 Z-1.000000 I0.374540 J0.205290
G03 X29.283486 Y17.229716 Z-1.000000 I-0.561107 J-0.000000
G03 X28.934920 Y17.834930 Z-1.000000 I-3.960785 J-1.878186
G03 X28.582093 Y18.259083 Z-1.000000 I-1.941887 J-1.256515
G01 X28.532240 Y18.237610 Z-1.000000
G01 X28.532240 Y18.237610 Z-1.000000
G00 Z5.000000

(End cutting path id: path25)


(Start cutting path id: path23)
(Change tool to Default tool)

G00 Z5.000000
G00 X29.679878 Y18.197342

G01 Z-1.000000 F100.0(Penetrate)
G02 X29.630076 Y18.090514 Z-1.000000 I-0.077299 J-0.028987 F3500.000000
G02 X29.458404 Y18.116806 Z-1.000000 I-0.061280 J0.173481
G01 X29.386125 Y18.079810 Z-1.000000
G03 X29.478538 Y17.774528 Z-1.000000 I0.680182 J0.039272
G01 X29.840950 Y17.150374 Z-1.000000
G01 X29.981888 Y17.673858 Z-1.000000
G03 X29.973952 Y18.361477 Z-1.000000 I-1.314726 J0.328681
G03 X29.740280 Y18.539620 Z-1.000000 I-0.233672 J-0.064183
G03 X29.656208 Y18.467056 Z-1.000000 I0.000000 J-0.084985
G03 X29.679878 Y18.197342 Z-1.000000 I0.577053 J-0.085253
G01 X29.679878 Y18.197342 Z-1.000000
G00 Z5.000000

(End cutting path id: path23)


(Start cutting path id: path24)
(Change tool to Default tool)

G00 Z5.000000
G00 X30.424836 Y18.298012

G01 Z-1.000000 F100.0(Penetrate)
G02 X30.408280 Y18.019407 Z-1.000000 I-0.420875 J-0.114784 F3500.000000
G02 X30.283898 Y17.935600 Z-1.000000 I-0.124382 J0.050397
G01 X30.238268 Y17.871590 Z-1.000000
G03 X30.344300 Y17.734260 Z-1.000000 I0.256599 J0.088520
G02 X30.451566 Y17.597861 Z-1.000000 I-0.135667 J-0.217067
G01 X30.404702 Y17.532920 Z-1.000000
G03 X30.225864 Y17.313954 Z-1.000000 I0.000000 J-0.182515
G03 X30.606042 Y16.566488 Z-1.000000 I1.543364 J0.314574
G02 X30.839552 Y15.966181 Z-1.000000 I-0.654881 J-0.600307
G02 X30.606042 Y15.660458 Z-1.000000 I-0.316889 J-0.000000
G03 X30.543249 Y15.593051 Z-1.000000 I0.018970 J-0.080622
G01 X30.585908 Y15.539654 Z-1.000000
G03 X31.266426 Y15.900362 Z-1.000000 I0.035929 J0.754508
G03 X31.129526 Y16.425550 Z-1.000000 I-0.321749 J0.196567
G02 X31.011942 Y16.596007 Z-1.000000 I0.155254 J0.232881
G02 X31.028856 Y16.848364 Z-1.000000 I0.428457 J0.098028
G03 X31.039337 Y17.076130 Z-1.000000 I-0.346901 J0.130088
G03 X30.968454 Y17.130240 Z-1.000000 I-0.070883 J-0.019374
G03 X30.827333 Y17.077669 Z-1.000000 I-0.000000 J-0.215698
G03 X30.706712 Y16.888632 Z-1.000000 I0.256831 J-0.296881
G02 X30.604002 Y16.808477 Z-1.000000 I-0.111685 J0.037228
G02 X30.485238 Y16.868498 Z-1.000000 I-0.009796 J0.128126
G02 X30.454459 Y17.084814 Z-1.000000 I0.210436 J0.140290
G02 X30.666444 Y17.412116 Z-1.000000 I0.698655 J-0.220202
G03 X30.806856 Y17.656593 Z-1.000000 I-0.381899 J0.381899
G03 X30.746980 Y17.734260 Z-1.000000 I-0.059876 J0.015754
G02 X30.626176 Y17.794662 Z-1.000000 I-0.000000 J0.151005
G02 X30.626176 Y17.895332 Z-1.000000 I0.067113 J0.050335
G03 X30.643702 Y18.037157 Z-1.000000 I-0.191259 J0.095629
G03 X30.505372 Y18.338280 Z-1.000000 I-0.765725 J-0.169423
G01 X30.447842 Y18.354029 Z-1.000000
G01 X30.424836 Y18.298012 Z-1.000000
G01 X30.424836 Y18.298012 Z-1.000000
G00 Z5.000000

(End cutting path id: path24)


(Start cutting path id: path21)
(Change tool to Default tool)

G00 Z5.000000
G00 X28.411436 Y19.808062

G01 Z-1.000000 F100.0(Penetrate)
G02 X28.387346 Y19.418103 Z-1.000000 I-0.907720 J-0.139649 F3500.000000
G02 X28.290632 Y19.344980 Z-1.000000 I-0.096714 J0.027397
G03 X28.226010 Y19.273106 Z-1.000000 I0.000000 J-0.064988
G03 X28.310766 Y19.063104 Z-1.000000 I0.411079 J0.043805
G02 X28.273081 Y18.883352 Z-1.000000 I-0.089959 J-0.074966
G02 X27.445004 Y18.640290 Z-1.000000 I-1.092544 J2.190039
G02 X26.371600 Y18.569045 Z-1.000000 I-1.073404 J8.050528
G02 X26.136294 Y18.640290 Z-1.000000 I0.000000 J0.424204
G03 X25.967502 Y18.663684 Z-1.000000 I-0.119005 J-0.238010
G03 X25.914820 Y18.600022 Z-1.000000 I0.012125 J-0.063662
G02 X25.841559 Y18.484414 Z-1.000000 I-0.127848 J0.000000
G02 X25.532274 Y18.398682 Z-1.000000 I-0.403265 J0.854063
G02 X25.216827 Y18.502215 Z-1.000000 I-0.033173 J0.431250
G02 X24.928254 Y18.902032 Z-1.000000 I0.692237 J0.803680
G03 X24.798882 Y19.048191 Z-1.000000 I-0.236197 J-0.078732
G03 X24.726914 Y19.002702 Z-1.000000 I-0.021608 J-0.045489
G03 X24.916929 Y18.194464 Z-1.000000 I1.606831 J-0.048692
G03 X25.230264 Y18.076538 Z-1.000000 I0.224067 J0.120121
G02 X25.509828 Y18.079311 Z-1.000000 I0.143594 J-0.382917
G02 X25.975222 Y17.814796 Z-1.000000 I-0.502871 J-1.426432
G03 X26.135224 Y17.723626 Z-1.000000 I0.309387 J0.356985
G01 X26.156428 Y17.754394 Z-1.000000
G02 X26.088710 Y18.037589 Z-1.000000 I0.315037 J0.225027
G02 X26.236964 Y18.217476 Z-1.000000 I0.224695 J-0.034148
G02 X26.593058 Y18.116262 Z-1.000000 I0.113543 J-0.277548
G02 X26.901386 Y17.291312 Z-1.000000 I-1.330791 J-0.967482
G03 X26.979711 Y17.177459 Z-1.000000 I0.171880 J0.034376
G03 X27.142994 Y17.130240 Z-1.000000 I0.163283 J0.258707
G03 X27.221905 Y17.196933 Z-1.000000 I0.000000 J0.080030
G03 X27.183262 Y17.391982 Z-1.000000 I-0.276068 J0.046658
G02 X27.016023 Y18.100960 Z-1.000000 I0.961710 J0.601069
G02 X27.283932 Y18.358414 Z-1.000000 I0.283718 J-0.027119
G03 X28.673490 Y18.510167 Z-1.000000 I-2.026592 J24.994636
G03 X28.854384 Y18.600022 Z-1.000000 I-0.043166 J0.313915
G03 X28.876909 Y18.683057 Z-1.000000 I-0.061166 J0.061166
G03 X28.632910 Y19.465784 Z-1.000000 I-8.516469 J-2.225444
G03 X28.449411 Y19.822166 Z-1.000000 I-2.611530 J-1.119227
G01 X28.411436 Y19.808062 Z-1.000000
G01 X28.411436 Y19.808062 Z-1.000000
G00 Z5.000000

(End cutting path id: path21)


(Start cutting path id: path20)
(Change tool to Default tool)

G00 Z5.000000
G00 X29.095992 Y21.519452

G01 Z-1.000000 F100.0(Penetrate)
G03 X29.085054 Y21.017581 Z-1.000000 I1.515066 J-0.284075 F3500.000000
G03 X29.156394 Y20.955700 Z-1.000000 I0.071340 J0.010182
G02 X29.267072 Y20.883913 Z-1.000000 I0.000000 J-0.121213
G02 X29.337600 Y20.553020 Z-1.000000 I-0.740954 J-0.330893
G03 X29.420885 Y20.221041 Z-1.000000 I0.703287 J-0.000000
G03 X29.538940 Y20.150340 Z-1.000000 I0.118055 J0.063212
G02 X29.645186 Y20.061037 Z-1.000000 I0.000000 J-0.107853
G02 X29.639610 Y19.606722 Z-1.000000 I-1.215800 J-0.212270
G03 X29.661517 Y19.445575 Z-1.000000 I0.264843 J-0.046060
G01 X29.720146 Y19.445650 Z-1.000000
G03 X29.986749 Y20.672141 Z-1.000000 I-2.419934 J1.168244
G03 X29.700012 Y20.915432 Z-1.000000 I-0.251203 J-0.005446
G02 X29.525331 Y20.981985 Z-1.000000 I-0.042862 J0.150018
G02 X29.337600 Y21.459050 Z-1.000000 I1.149416 J0.727780
G01 X29.216796 Y22.063070 Z-1.000000
G01 X29.095992 Y21.519452 Z-1.000000
G00 Z5.000000

(End cutting path id: path20)


(Start cutting path id: path19)
(Change tool to Default tool)

G00 Z5.000000
G00 X30.022156 Y22.405348

G01 Z-1.000000 F100.0(Penetrate)
G02 X30.056865 Y22.041232 Z-1.000000 I-0.684692 J-0.248979 F3500.000000
G02 X29.941620 Y21.861730 Z-1.000000 I-0.262971 J0.042087
G03 X29.807404 Y21.710837 Z-1.000000 I0.173881 J-0.289802
G03 X29.740280 Y21.398648 Z-1.000000 I0.692428 J-0.312189
G03 X29.810709 Y21.299672 Z-1.000000 I0.104762 J0.000000
G03 X29.921486 Y21.338246 Z-1.000000 I0.030993 J0.089346
G02 X30.080122 Y21.427631 Z-1.000000 I0.172562 J-0.120794
G02 X30.183228 Y21.358380 Z-1.000000 I0.006718 J-0.101380
G01 X30.224644 Y21.360107 Z-1.000000
G03 X30.283898 Y21.841596 Z-1.000000 I-3.285634 J0.648733
G03 X30.215637 Y22.534987 Z-1.000000 I-2.358143 J0.117907
G03 X30.102692 Y22.687224 Z-1.000000 I-0.240562 J-0.060457
G03 X30.022943 Y22.659099 Z-1.000000 I-0.029322 J-0.043984
G03 X30.022156 Y22.405348 Z-1.000000 I0.407448 J-0.128141
G01 X30.022156 Y22.405348 Z-1.000000
G00 Z5.000000

(End cutting path id: path19)


(Start cutting path id: path18)
(Change tool to Default tool)

G00 Z5.000000
G00 X30.646310 Y22.767760

G01 Z-1.000000 F100.0(Penetrate)
G02 X30.729414 Y22.530593 Z-1.000000 I-0.420990 J-0.280660 F3500.000000
G02 X30.767114 Y21.237576 Z-1.000000 I-11.327308 J-0.977323
G03 X30.929049 Y20.067768 Z-1.000000 I3.814246 J-0.068112
G03 X31.210062 Y19.747660 Z-1.000000 I0.491821 J0.148355
G03 X31.305794 Y19.751337 Z-1.000000 I0.044517 J0.089034
G01 X31.310732 Y19.808062 Z-1.000000
G02 X31.093714 Y20.160555 Z-1.000000 I0.369906 J0.470790
G02 X30.988588 Y21.338246 Z-1.000000 I5.285852 J1.065378
G02 X31.071997 Y22.373282 Z-1.000000 I10.178718 J-0.299374
G01 X31.129526 Y22.385214 Z-1.000000
G03 X31.252408 Y22.340245 Z-1.000000 I0.089270 J0.053562
G03 X31.532206 Y22.526152 Z-1.000000 I-0.212784 J0.623757
G03 X31.593620 Y22.683227 Z-1.000000 I-0.170165 J0.157075
G01 X31.532206 Y22.727492 Z-1.000000
G02 X31.254804 Y22.696354 Z-1.000000 I-0.200449 J0.534531
G02 X30.867784 Y22.808028 Z-1.000000 I0.186982 J1.374479
G03 X30.681254 Y22.839616 Z-1.000000 I-0.139955 J-0.259916
G01 X30.646310 Y22.767760 Z-1.000000
G01 X30.646310 Y22.767760 Z-1.000000
G00 Z5.000000

(End cutting path id: path18)


(Start cutting path id: path13)
(Change tool to Default tool)

G00 Z5.000000
G00 X31.069124 Y25.042902

G01 Z-1.000000 F100.0(Penetrate)
G03 X30.907213 Y23.242246 Z-1.000000 I12.454628 J-2.027498 F3500.000000
G03 X31.028856 Y23.190574 Z-1.000000 I0.071252 J-0.001281
G03 X31.910707 Y25.121908 Z-1.000000 I-2.147586 J2.147586
G03 X31.290598 Y25.787860 Z-1.000000 I-0.620109 J0.044266
G01 X31.244525 Y25.753409 Z-1.000000
G03 X31.069124 Y25.042902 Z-1.000000 I7.866412 J-2.318869
G01 X31.069124 Y25.042902 Z-1.000000
G00 Z5.000000

(End cutting path id: path13)


(Start cutting path id: path15)
(Change tool to Default tool)

G00 Z5.000000
G00 X31.814082 Y25.143572

G01 Z-1.000000 F100.0(Penetrate)
G03 X31.667335 Y24.859779 Z-1.000000 I0.528855 J-0.453304 F3500.000000
G03 X31.491938 Y23.875130 Z-1.000000 I6.979939 J-1.751292
G03 X31.531581 Y23.363607 Z-1.000000 I1.508868 J-0.140360
G03 X31.632876 Y23.351646 Z-1.000000 I0.052932 J0.013372
G03 X31.802769 Y23.839965 Z-1.000000 I-1.436458 J0.773477
G03 X31.793948 Y24.338212 Z-1.000000 I-1.276495 J0.226603
G02 X31.803584 Y24.685972 Z-1.000000 I0.764191 J0.152838
G02 X31.894618 Y24.720758 Z-1.000000 I0.057876 J-0.014951
G02 X32.437411 Y23.939883 Z-1.000000 I-0.622748 J-1.011965
G02 X32.136226 Y23.573120 Z-1.000000 I-0.301185 J-0.059716
G03 X32.026626 Y23.499146 Z-1.000000 I-0.000000 J-0.118179
G03 X31.955020 Y23.130172 Z-1.000000 I0.914830 J-0.368974
G03 X32.048443 Y22.949137 Z-1.000000 I0.222116 J-0.000000
G03 X32.176494 Y22.969100 Z-1.000000 I0.053786 J0.075662
G01 X32.267897 Y22.950790 Z-1.000000
G02 X32.317432 Y22.143606 Z-1.000000 I-3.628343 J-0.627776
G03 X32.363567 Y21.115456 Z-1.000000 I5.129186 J-0.284955
G03 X32.478504 Y21.016102 Z-1.000000 I0.114937 J0.016805
G03 X32.605594 Y21.092090 Z-1.000000 I0.000000 J0.144273
G03 X32.639576 Y21.338246 Z-1.000000 I-0.314153 J0.168793
G02 X32.590349 Y21.670472 Z-1.000000 I2.292497 J0.509444
G02 X32.498638 Y23.130172 Z-1.000000 I57.023712 J4.315472
G03 X32.313422 Y24.558042 Z-1.000000 I-8.418113 J-0.366005
G03 X32.156360 Y24.781160 Z-1.000000 I-0.343256 J-0.074793
G02 X32.014612 Y24.967015 Z-1.000000 I0.148869 J0.260521
G02 X32.035556 Y25.163706 Z-1.000000 I0.273691 J0.070318
G01 X31.990512 Y25.238994 Z-1.000000
G03 X31.814082 Y25.143572 Z-1.000000 I0.024548 J-0.256205
G01 X31.814082 Y25.143572 Z-1.000000
G00 Z5.000000

(End cutting path id: path15)


(Start cutting path id: path11)
(Change tool to Default tool)

G00 Z5.000000
G00 X30.545640 Y25.707324

G01 Z-1.000000 F100.0(Penetrate)
G02 X30.527429 Y25.048145 Z-1.000000 I-11.938953 J0.000000 F3500.000000
G02 X30.444970 Y24.056336 Z-1.000000 I-17.933956 J0.991691
G03 X30.480664 Y23.772362 Z-1.000000 I0.672139 J-0.059746
G01 X30.545640 Y23.774460 Z-1.000000
G03 X30.950365 Y26.149903 Z-1.000000 I-13.033712 J3.442867
G03 X30.726846 Y26.391880 Z-1.000000 I-0.223519 J0.017754
G03 X30.624874 Y26.313485 Z-1.000000 I0.000000 J-0.105517
G03 X30.545640 Y25.707324 Z-1.000000 I2.279023 J-0.606161
G01 X30.545640 Y25.707324 Z-1.000000
G00 Z5.000000

(End cutting path id: path11)


(Start cutting path id: path9)
(Change tool to Default tool)

G00 Z5.000000
G00 X30.827516 Y27.599920

G01 Z-1.000000 F100.0(Penetrate)
G02 X30.975459 Y27.089163 Z-1.000000 I-4.101537 J-1.464835 F3500.000000
G02 X31.089258 Y26.552952 Z-1.000000 I-22.800018 J-5.118974
G03 X31.251115 Y26.111273 Z-1.000000 I1.504858 J0.300972
G03 X31.351000 Y26.089870 Z-1.000000 I0.059257 J0.032768
G03 X31.585034 Y26.735103 Z-1.000000 I-0.320992 J0.481488
G03 X30.867784 Y27.942198 Z-1.000000 I-2.729651 J-0.805305
G01 X30.802137 Y27.919507 Z-1.000000
G03 X30.827516 Y27.599920 Z-1.000000 I0.804821 J-0.096889
G01 X30.827516 Y27.599920 Z-1.000000
G00 Z5.000000

(End cutting path id: path9)


(Start cutting path id: path10)
(Change tool to Default tool)

G00 Z5.000000
G00 X29.538940 Y27.579786

G01 Z-1.000000 F100.0(Penetrate)
G03 X29.601020 Y27.488091 Z-1.000000 I0.098758 J0.000000 F3500.000000
G03 X29.740280 Y27.499250 Z-1.000000 I0.058382 J0.145955
G02 X29.851404 Y27.461475 Z-1.000000 I0.041051 J-0.061576
G02 X29.941620 Y26.915364 Z-1.000000 I-1.607799 J-0.546111
G03 X30.027177 Y26.256987 Z-1.000000 I2.575945 J-0.000000
G03 X30.163094 Y26.089870 Z-1.000000 I0.252905 J0.066860
G03 X30.259236 Y26.123361 Z-1.000000 I0.038014 J0.045616
G03 X30.324166 Y26.875096 Z-1.000000 I-3.098374 J0.646291
G03 X30.134045 Y27.651383 Z-1.000000 I-2.155673 J-0.116523
G03 X29.901352 Y27.801260 Z-1.000000 I-0.232693 J-0.105696
G03 X29.617265 Y27.720418 Z-1.000000 I0.000000 J-0.539580
G03 X29.538940 Y27.579786 Z-1.000000 I0.087091 J-0.140632
G01 X29.538940 Y27.579786 Z-1.000000
G00 Z5.000000

(End cutting path id: path10)


(Start cutting path id: path8)
(Change tool to Default tool)

G00 Z5.000000
G00 X28.149694 Y27.821394

G01 Z-1.000000 F100.0(Penetrate)
G03 X27.932868 Y27.595403 Z-1.000000 I0.338789 J-0.542062 F3500.000000
G03 X27.787282 Y27.177106 Z-1.000000 I1.061862 J-0.604058
G03 X27.872462 Y27.000381 Z-1.000000 I0.170171 J-0.026869
G03 X28.069158 Y27.016034 Z-1.000000 I0.086793 J0.153032
G02 X28.225916 Y27.047110 Z-1.000000 I0.108295 J-0.135369
G02 X28.270498 Y26.955632 Z-1.000000 I-0.019206 J-0.065963
G03 X28.241258 Y26.632169 Z-1.000000 I0.777913 J-0.233374
G03 X28.330900 Y26.492550 Z-1.000000 I0.185860 J0.020745
G03 X28.456482 Y26.518481 Z-1.000000 I0.049986 J0.074979
G03 X28.532240 Y26.774426 Z-1.000000 I-0.394473 J0.255945
G03 X28.458490 Y27.149300 Z-1.000000 I-0.989624 J-0.000000
G03 X28.330900 Y27.297910 Z-1.000000 I-0.287316 J-0.117601
G02 X28.234906 Y27.594679 Z-1.000000 I0.117851 J0.202030
G02 X28.552374 Y27.801260 Z-1.000000 I0.317468 J-0.140647
G02 X28.638219 Y27.733034 Z-1.000000 I0.000000 J-0.088121
G02 X28.612776 Y27.559652 Z-1.000000 I-0.233972 J-0.054223
G03 X28.625953 Y27.488791 Z-1.000000 I0.048397 J-0.027655
G03 X28.713446 Y27.479116 Z-1.000000 I0.051231 J0.062847
G03 X28.850191 Y27.652636 Z-1.000000 I-0.197550 J0.296325
G03 X28.834250 Y27.821394 Z-1.000000 I-0.184341 J0.067719
G03 X28.590621 Y27.945456 Z-1.000000 I-0.243629 J-0.177185
G03 X28.149694 Y27.821394 Z-1.000000 I0.000000 J-0.845579
G01 X28.149694 Y27.821394 Z-1.000000
G00 Z5.000000

(End cutting path id: path8)


(Start cutting path id: path1-0)
(Change tool to Default tool)

G00 Z5.000000
G00 X28.632910 Y29.371712

G01 Z-1.000000 F100.0(Penetrate)
G03 X28.073341 Y29.100420 Z-1.000000 I1.179903 J-3.146407 F3500.000000
G03 X27.767148 Y28.828094 Z-1.000000 I0.583342 J-0.964186
G02 X27.647751 Y28.743217 Z-1.000000 I-0.244133 J0.217007
G01 X27.626210 Y28.767692 Z-1.000000
G03 X27.536822 Y28.875757 Z-1.000000 I-0.068569 J0.034284
G03 X26.760448 Y28.526084 Z-1.000000 I0.783244 J-2.775746
G03 X24.897467 Y26.129423 Z-1.000000 I2.420837 J-3.804173
G03 X24.002090 Y20.150340 Z-1.000000 I17.093738 J-5.616399
G03 X24.298418 Y15.314565 Z-1.000000 I58.514564 J1.158704
G03 X24.545708 Y14.794696 Z-1.000000 I0.855217 J0.088058
G03 X25.394218 Y14.612398 Z-1.000000 I0.565287 J0.565287
G03 X25.955088 Y15.318180 Z-1.000000 I-0.312077 J0.823748
G03 X25.945710 Y15.904736 Z-1.000000 I-1.524239 J0.268983
G03 X25.814150 Y16.123540 Z-1.000000 I-0.380342 J-0.079734
G03 X25.698352 Y16.095013 Z-1.000000 I-0.047921 J-0.054767
G03 X25.632944 Y15.640324 Z-1.000000 I0.955999 J-0.369572
G02 X25.583120 Y15.023039 Z-1.000000 I-1.765554 J-0.168148
G02 X25.431604 Y14.855098 Z-1.000000 I-0.237842 J0.062261
G02 X25.287831 Y14.916459 Z-1.000000 I-0.043351 J0.097540
G02 X25.149728 Y15.640324 Z-1.000000 I2.213138 J0.797341
G02 X25.174778 Y16.459139 Z-1.000000 I5.671087 J0.236295
G02 X25.250398 Y16.546354 Z-1.000000 I0.100003 J-0.010318
G03 X25.423757 Y16.561357 Z-1.000000 I0.000000 J1.009049
G03 X25.773882 Y16.626890 Z-1.000000 I-2.474211 J14.187214
G02 X25.995712 Y16.603670 Z-1.000000 I0.076226 J-0.343016
G02 X26.015490 Y16.526220 Z-1.000000 I-0.021252 J-0.046678
G03 X26.003848 Y16.366031 Z-1.000000 I0.152692 J-0.091615
G03 X26.136294 Y16.224210 Z-1.000000 I0.256972 J0.107230
G02 X26.248931 Y16.053594 Z-1.000000 I-0.207671 J-0.259588
G02 X26.236964 Y15.781262 Z-1.000000 I-0.424069 J-0.117794
G03 X26.259030 Y15.624398 Z-1.000000 I0.147935 J-0.059174
G03 X26.398036 Y15.579922 Z-1.000000 I0.101930 J0.079111
G02 X26.565136 Y15.557361 Z-1.000000 I0.063605 J-0.159011
G02 X26.599376 Y15.438984 Z-1.000000 I-0.062322 J-0.082167
G03 X26.625033 Y15.213006 Z-1.000000 I0.211112 J-0.090477
G03 X27.203396 Y14.593356 Z-1.000000 I2.859642 J2.089369
G02 X27.681370 Y13.920900 Z-1.000000 I-0.989564 J-1.209468
G02 X27.787282 Y13.043038 Z-1.000000 I-1.815566 J-0.664364
G03 X27.809311 Y12.129840 Z-1.000000 I2.868706 J-0.387663
G03 X28.028890 Y11.694060 Z-1.000000 I0.855754 J0.157984
G03 X29.060427 Y11.562557 Z-1.000000 I0.592678 J0.537545
G03 X29.740280 Y12.821564 Z-1.000000 I-0.825838 J1.259007
G02 X29.917864 Y13.535677 Z-1.000000 I1.524614 J-0.000000
G02 X30.203362 Y13.707460 Z-1.000000 I0.285498 J-0.151354
G03 X30.639644 Y13.751683 Z-1.000000 I0.000000 J2.174165
G03 X32.156360 Y14.110140 Z-1.000000 I-5.205992 J25.415824
G02 X33.656320 Y14.484175 Z-1.000000 I11.290708 J-42.083547
G02 X33.908018 Y14.512820 Z-1.000000 I0.251698 J-1.091487
G02 X34.050000 Y14.420693 Z-1.000000 I0.000000 J-0.155471
G02 X34.270430 Y13.707460 Z-1.000000 I-2.849987 J-1.271490
G03 X35.083799 Y12.610834 Z-1.000000 I1.496952 J0.260339
G03 X35.901284 Y12.881966 Z-1.000000 I0.273583 J0.543083
G03 X36.310891 Y14.840071 Z-1.000000 I-3.513905 J1.756953
G03 X35.740212 Y16.485952 Z-1.000000 I-3.120106 J-0.159963
G03 X33.565052 Y19.190361 Z-1.000000 I-32.271204 J-23.728826
G03 X33.223462 Y19.344980 Z-1.000000 I-0.341590 J-0.300017
G02 X33.055479 Y19.435384 Z-1.000000 I-0.000000 J0.201270
G02 X32.961720 Y19.747660 Z-1.000000 I0.473157 J0.312276
G03 X32.851332 Y20.051457 Z-1.000000 I-0.473233 J-0.000000
G03 X32.639576 Y20.150340 Z-1.000000 I-0.211756 J-0.177296
G03 X32.511896 Y20.049570 Z-1.000000 I0.000000 J-0.131273
G03 X32.559040 Y19.848330 Z-1.000000 I0.224323 J-0.053590
G02 X32.688661 Y19.605090 Z-1.000000 I-0.456457 J-0.399400
G02 X32.639576 Y19.526186 Z-1.000000 I-0.061584 J-0.016409
G03 X32.455453 Y19.509797 Z-1.000000 I-0.000000 J-1.042428
G03 X32.156360 Y19.445650 Z-1.000000 I0.801558 J-4.466754
G02 X30.432017 Y19.218789 Z-1.000000 I-1.999475 J8.531093
G02 X30.122826 Y19.385248 Z-1.000000 I-0.010994 J0.349964
G03 X30.026060 Y19.393829 Z-1.000000 I-0.051827 J-0.034551
G03 X29.941620 Y19.183908 Z-1.000000 I0.218714 J-0.209921
G03 X30.087994 Y18.920096 Z-1.000000 I0.310923 J0.000000
G03 X30.444970 Y18.861764 Z-1.000000 I0.248304 J0.398090
G02 X30.953332 Y18.915620 Z-1.000000 I0.508362 J-2.372355
G02 X31.250330 Y18.861764 Z-1.000000 I0.000000 J-0.845851
G02 X31.399160 Y18.676531 Z-1.000000 I-0.084834 J-0.220569
G02 X31.330866 Y18.298012 Z-1.000000 I-0.589233 J-0.089109
G03 X31.221191 Y17.992601 Z-1.000000 I1.683052 J-0.776793
G01 X31.250330 Y17.975868 Z-1.000000
G02 X31.392542 Y17.988217 Z-1.000000 I0.078455 J-0.078455
G02 X31.874484 Y17.553054 Z-1.000000 I-1.529656 J-2.178548
G02 X32.207324 Y16.907161 Z-1.000000 I-1.349467 J-1.104109
G02 X32.075824 Y16.787962 Z-1.000000 I-0.096058 J-0.026164
G03 X31.836640 Y16.780615 Z-1.000000 I-0.110642 J-0.295045
G03 X31.673144 Y16.606756 Z-1.000000 I0.126221 J-0.282503
G03 X31.709216 Y16.431015 Z-1.000000 I0.151295 J-0.060518
G03 X31.914752 Y16.365148 Z-1.000000 I0.166764 J0.166764
G03 X32.704309 Y16.773099 Z-1.000000 I-0.204605 J1.364036
G03 X32.961720 Y17.412116 Z-1.000000 I-0.664467 J0.639017
G01 X32.909120 Y17.450853 Z-1.000000
G03 X32.780514 Y17.351714 Z-1.000000 I0.069222 J-0.222781
G02 X32.347295 Y17.309235 Z-1.000000 I-0.233246 J0.148430
G02 X31.753680 Y18.438950 Z-1.000000 I1.679380 J1.603255
G03 X31.681178 Y18.637758 Z-1.000000 I-0.568762 J-0.094794
G03 X31.491938 Y18.902032 Z-1.000000 I-1.606238 J-0.950295
G02 X31.488741 Y19.054594 Z-1.000000 I0.095725 J0.078320
G02 X31.653010 Y19.123506 Z-1.000000 I0.140973 J-0.105802
G03 X32.036770 Y19.115329 Z-1.000000 I0.217449 J1.195970
G03 X32.297298 Y19.204042 Z-1.000000 I-0.099199 J0.718235
G02 X32.526979 Y19.258584 Z-1.000000 I0.188439 J-0.282658
G02 X33.001988 Y19.123506 Z-1.000000 I-0.193740 J-1.584033
G02 X33.907655 Y18.420897 Z-1.000000 I-0.870075 J-2.056541
G02 X33.767080 Y18.136940 Z-1.000000 I-0.140575 J-0.107183
G03 X33.676214 Y18.067814 Z-1.000000 I0.000000 J-0.094285
G03 X33.686544 Y17.834930 Z-1.000000 I0.363192 J-0.100561
G03 X33.863042 Y17.592452 Z-1.000000 I0.813873 J0.406936
G03 X34.008688 Y17.532920 Z-1.000000 I0.145646 J0.148397
G03 X34.111073 Y17.610881 Z-1.000000 I0.000000 J0.106211
G03 X34.089224 Y17.834930 Z-1.000000 I-0.302832 J0.083558
G02 X34.078894 Y18.067814 Z-1.000000 I0.352862 J0.132323
G02 X34.169760 Y18.136940 Z-1.000000 I0.090866 J-0.025159
G02 X34.766353 Y17.570768 Z-1.000000 I0.000000 J-0.597410
G02 X34.270430 Y16.465818 Z-1.000000 I-1.324406 J-0.069346
G01 X34.270490 Y16.404165 Z-1.000000
G03 X34.371100 Y16.385282 Z-1.000000 I0.067293 J0.081070
G03 X34.572409 Y16.525876 Z-1.000000 I-0.083492 J0.333966
G03 X34.652976 Y16.787962 Z-1.000000 I-0.386003 J0.262086
G02 X34.697918 Y16.986252 Z-1.000000 I0.308615 J0.034291
G02 X34.793914 Y17.009436 Z-1.000000 I0.059777 J-0.037180
G02 X34.910485 Y16.864117 Z-1.000000 I-0.138132 J-0.230220
G02 X34.975120 Y16.465818 Z-1.000000 I-1.194896 J-0.398299
G03 X35.058002 Y16.303543 Z-1.000000 I0.200300 J0.000000
G03 X35.176460 Y16.324880 Z-1.000000 I0.048962 J0.067667
G02 X35.377094 Y16.503498 Z-1.000000 I0.405396 J-0.253372
G02 X35.478470 Y16.485952 Z-1.000000 I0.038242 J-0.080680
G02 X35.418417 Y16.196383 Z-1.000000 I-0.125073 J-0.125073
G02 X33.344266 Y15.640324 Z-1.000000 I-3.454800 J8.740307
G03 X33.030314 Y15.554410 Z-1.000000 I0.115342 J-1.038074
G03 X32.458370 Y15.237644 Z-1.000000 I1.636122 J-3.628864
G02 X32.097143 Y15.065269 Z-1.000000 I-0.780204 J1.170306
G01 X32.055690 Y15.116840 Z-1.000000
G03 X31.964868 Y15.257846 Z-1.000000 I-0.079201 J0.048739
G03 X29.599342 Y14.814830 Z-1.000000 I2.514303 J-19.962333
G01 X28.532240 Y14.553088 Z-1.000000
G01 X26.901386 Y16.284612 Z-1.000000
G03 X25.700633 Y17.484589 Z-1.000000 I-14.298039 J-13.106535
G01 X25.632944 Y17.432250 Z-1.000000
G01 X25.995356 Y16.828230 Z-1.000000
G01 X25.492006 Y17.291312 Z-1.000000
G03 X24.949717 Y17.678972 Z-1.000000 I-2.468159 J-2.879519
G03 X24.747048 Y17.734260 Z-1.000000 I-0.202669 J-0.343822
G02 X24.590880 Y17.889645 Z-1.000000 I0.000000 J0.156170
G02 X24.726914 Y21.459050 Z-1.000000 I41.428195 J0.208415
G02 X25.040298 Y24.259194 Z-1.000000 I67.479356 J-6.134487
G02 X25.230264 Y25.183840 Z-1.000000 I6.652997 J-0.885003
G02 X25.359001 Y25.409280 Z-1.000000 I0.605858 J-0.196494
G01 X25.411470 Y25.385180 Z-1.000000
G03 X24.929550 Y21.343066 Z-1.000000 I64.179801 J-9.701598
G03 X24.948388 Y20.170474 Z-1.000000 I5.661272 J-0.495500
G01 X25.003793 Y20.170632 Z-1.000000
G03 X25.189996 Y21.861730 Z-1.000000 I-31.777163 J4.354712
G02 X25.400596 Y24.071866 Z-1.000000 I37.527308 J-2.460807
G02 X25.552408 Y24.740892 Z-1.000000 I3.457050 J-0.432720
G03 X25.681690 Y25.425338 Z-1.000000 I-4.772046 J1.255802
G03 X25.673212 Y25.888530 Z-1.000000 I-1.717699 J0.200235
G02 X25.717828 Y26.181405 Z-1.000000 I0.386542 J0.090951
G02 X25.874552 Y26.230808 Z-1.000000 I0.105854 J-0.062512
G03 X26.031202 Y26.283450 Z-1.000000 I0.045304 J0.124585
G03 X26.075892 Y26.552952 Z-1.000000 I-0.288278 J0.186260
G02 X26.138605 Y26.881170 Z-1.000000 I0.385653 J0.096413
G02 X26.538974 Y27.197240 Z-1.000000 I0.749863 J-0.538247
G03 X27.063949 Y27.497620 Z-1.000000 I-1.541013 J3.302170
G03 X27.364468 Y27.781126 Z-1.000000 I-0.766083 J1.113084
G01 X27.356582 Y27.841137 Z-1.000000
G03 X27.283932 Y27.841528 Z-1.000000 I-0.036588 J-0.048784
G02 X26.998220 Y27.744351 Z-1.000000 I-0.285712 J0.371426
G02 X26.840984 Y27.841528 Z-1.000000 I-0.000000 J0.175795
G03 X26.716788 Y27.924914 Z-1.000000 I-0.135619 J-0.067810
G03 X26.599376 Y27.861662 Z-1.000000 I-0.009316 J-0.123306
G02 X26.452943 Y27.664072 Z-1.000000 I-0.489737 J0.209887
G02 X26.277232 Y27.599920 Z-1.000000 I-0.175711 J0.208556
G02 X26.212610 Y27.671794 Z-1.000000 I0.000000 J0.064988
G02 X26.297366 Y27.881796 Z-1.000000 I0.411079 J-0.043805
G02 X26.586461 Y28.065985 Z-1.000000 I0.459243 J-0.401837
G02 X27.082592 Y28.103270 Z-1.000000 I0.336589 J-1.159284
G03 X27.619702 Y28.140572 Z-1.000000 I0.132167 J1.982504
G03 X28.149694 Y28.324744 Z-1.000000 I-0.443764 J2.131684
G02 X29.828867 Y28.899182 Z-1.000000 I3.149202 J-6.464151
G02 X30.908052 Y28.868362 Z-1.000000 I0.475072 J-2.274671
G02 X31.203652 Y28.646010 Z-1.000000 I-0.105344 J-0.447712
G02 X31.351000 Y28.083136 Z-1.000000 I-1.001426 J-0.562874
G03 X31.421893 Y27.456787 Z-1.000000 I2.802368 J-0.000000
G03 X31.512072 Y27.318044 Z-1.000000 I0.234579 J0.053791
G02 X31.610492 Y27.165324 Z-1.000000 I-0.105724 J-0.176206
G02 X31.632876 Y26.472416 Z-1.000000 I-4.191408 J-0.482219
G03 X31.750122 Y26.104340 Z-1.000000 I0.504420 J-0.042035
G03 X31.955020 Y26.089870 Z-1.000000 I0.109470 J0.092185
G02 X32.272378 Y26.258350 Z-1.000000 I0.474926 J-0.511459
G02 X32.357700 Y26.190540 Z-1.000000 I0.015714 J-0.067810
G03 X32.408149 Y26.048265 Z-1.000000 I0.225846 J-0.000000
G01 X32.478504 Y26.049602 Z-1.000000
G03 X32.515799 Y26.170606 Z-1.000000 I-0.095766 J0.095766
G03 X32.377834 Y26.532818 Z-1.000000 I-1.084466 J-0.205688
G03 X32.210891 Y26.687341 Z-1.000000 I-0.348566 J-0.209140
G01 X32.156360 Y26.653622 Z-1.000000
G02 X31.979009 Y26.547036 Z-1.000000 I-0.120704 J0.000000
G02 X31.793948 Y26.854962 Z-1.000000 I0.163651 J0.307926
G03 X31.749145 Y27.296724 Z-1.000000 I-12.339068 J-1.028256
G03 X31.632876 Y28.002600 Z-1.000000 I-8.029666 J-0.960102
G02 X31.715723 Y28.313135 Z-1.000000 I0.356304 J0.071261
G02 X31.914752 Y28.324744 Z-1.000000 I0.105223 J-0.092070
G02 X32.247876 Y27.913036 Z-1.000000 I-1.171047 J-1.288151
G02 X32.659710 Y27.016034 Z-1.000000 I-4.395200 J-2.560976
G02 X33.082038 Y25.130645 Z-1.000000 I-6.437861 J-2.432081
G02 X33.203328 Y20.553020 Z-1.000000 I-43.057634 J-3.431282
G03 X33.284098 Y19.845606 Z-1.000000 I2.258952 J-0.100398
G03 X33.404668 Y19.828196 Z-1.000000 I0.064122 J0.017870
G03 X33.884321 Y21.854485 Z-1.000000 I-3.355642 J1.864245
G03 X33.042256 Y26.794560 Z-1.000000 I-19.826066 J-0.837665
G03 X32.232935 Y28.345386 Z-1.000000 I-4.285837 J-1.250036
G03 X31.109392 Y29.210640 Z-1.000000 I-2.357859 J-1.899614
G03 X29.774532 Y29.528930 Z-1.000000 I-1.616343 J-3.820447
G03 X28.632910 Y29.371712 Z-1.000000 I-0.192285 J-2.827229
G01 X28.632910 Y29.371712 Z-1.000000
G00 Z5.000000

(End cutting path id: path1-0)


(Start cutting path id: path12)
(Change tool to Default tool)

G00 Z5.000000
G00 X27.304066 Y25.143572

G01 Z-1.000000 F100.0(Penetrate)
G03 X27.264002 Y24.413292 Z-1.000000 I3.849495 J-0.577424 F3500.000000
G03 X27.344334 Y24.036202 Z-1.000000 I1.134520 J0.044586
G03 X27.429586 Y24.024265 Z-1.000000 I0.046236 J0.019816
G03 X27.505406 Y24.237542 Z-1.000000 I-0.262059 J0.213277
G02 X27.613956 Y24.640485 Z-1.000000 I1.026235 J-0.060367
G02 X27.747014 Y24.680490 Z-1.000000 I0.085525 J-0.043179
G02 X27.864598 Y24.510033 Z-1.000000 I-0.155254 J-0.232881
G02 X27.847684 Y24.257676 Z-1.000000 I-0.428457 J-0.098028
G03 X27.824966 Y24.018920 Z-1.000000 I0.361285 J-0.154837
G03 X27.928220 Y23.875130 Z-1.000000 I0.218130 J0.047670
G03 X28.043074 Y23.914953 Z-1.000000 I0.042321 J0.063481
G03 X28.129560 Y24.459016 Z-1.000000 I-1.668054 J0.544063
G03 X28.007596 Y25.000359 Z-1.000000 I-1.262367 J-0.000000
G03 X27.847684 Y25.063036 Z-1.000000 I-0.113323 J-0.053794
G02 X27.645846 Y25.100513 Z-1.000000 I-0.073635 J0.165679
G02 X27.485272 Y25.425448 Z-1.000000 I0.399629 J0.399629
G01 X27.414609 Y25.439698 Z-1.000000
G03 X27.304066 Y25.143572 Z-1.000000 I0.621516 J-0.400706
G01 X27.304066 Y25.143572 Z-1.000000
G00 Z5.000000

(End cutting path id: path12)


(Start cutting path id: path16)
(Change tool to Default tool)

G00 Z5.000000
G00 X25.854418 Y24.660356

G01 Z-1.000000 F100.0(Penetrate)
G02 X25.726860 Y24.026375 Z-1.000000 I-9.550561 J1.591760 F3500.000000
G02 X25.592676 Y23.492584 Z-1.000000 I-18.696766 J4.416230
G03 X25.591135 Y23.066721 Z-1.000000 I0.919102 J-0.216259
G03 X25.713480 Y22.969100 Z-1.000000 I0.122345 J0.027854
G03 X25.834284 Y23.029502 Z-1.000000 I0.000000 J0.151005
G03 X25.834284 Y23.130172 Z-1.000000 I-0.067113 J0.050335
G02 X25.790638 Y23.324136 Z-1.000000 I0.271728 J0.163037
G02 X25.934954 Y24.056336 Z-1.000000 I3.840316 J-0.376600
G03 X26.091363 Y24.783093 Z-1.000000 I-4.484364 J1.345309
G03 X26.055758 Y25.042902 Z-1.000000 I-0.489569 J0.065253
G01 X25.997410 Y25.047430 Z-1.000000
G03 X25.854418 Y24.660356 Z-1.000000 I1.496893 J-0.772929
G01 X25.854418 Y24.660356 Z-1.000000
G00 Z5.000000

(End cutting path id: path16)


(Start cutting path id: path17)
(Change tool to Default tool)

G00 Z5.000000
G00 X27.142994 Y23.291244

G01 Z-1.000000 F100.0(Penetrate)
G03 X27.027600 Y23.001664 Z-1.000000 I0.342132 J-0.304118 F3500.000000
G03 X27.102726 Y22.546286 Z-1.000000 I1.188742 J-0.037772
G03 X27.272357 Y22.251713 Z-1.000000 I1.025570 J0.394450
G01 X27.324200 Y22.264410 Z-1.000000
G03 X27.354872 Y22.473524 Z-1.000000 I-5.343011 J0.890502
G03 X27.424870 Y23.029502 Z-1.000000 I-313.570004 J39.760978
G03 X27.325662 Y23.304587 Z-1.000000 I-0.317417 J0.040957
G03 X27.142994 Y23.291244 Z-1.000000 I-0.085148 J-0.091360
G01 X27.142994 Y23.291244 Z-1.000000
G00 Z5.000000

(End cutting path id: path17)


(Start cutting path id: path14)
(Change tool to Default tool)

G00 Z5.000000
G00 X28.995322 Y24.579820

G01 Z-1.000000 F100.0(Penetrate)
G03 X28.869522 Y23.641732 Z-1.000000 I5.418558 J-1.204124 F3500.000000
G03 X28.934920 Y23.573120 Z-1.000000 I0.065398 J-0.003138
G02 X29.036512 Y23.518000 Z-1.000000 I-0.000000 J-0.121183
G02 X29.196662 Y23.150306 Z-1.000000 I-1.018622 J-0.662388
G02 X29.163255 Y22.901762 Z-1.000000 I-0.315443 J-0.084118
G02 X29.015456 Y22.848296 Z-1.000000 I-0.105905 J0.061742
G03 X28.840272 Y22.797212 Z-1.000000 I-0.054968 J-0.137420
G03 X28.733580 Y22.465750 Z-1.000000 I0.461534 J-0.331462
G01 X28.733580 Y21.962400 Z-1.000000
G01 X29.136260 Y22.365080 Z-1.000000
G03 X29.441499 Y22.812679 Z-1.000000 I-1.030893 J1.030893
G03 X29.418136 Y22.989234 Z-1.000000 I-0.157895 J0.068930
G02 X29.336629 Y23.230317 Z-1.000000 I0.408788 J0.272525
G02 X29.317466 Y24.398614 Z-1.000000 I12.242601 J0.785117
G03 X29.293472 Y25.551596 Z-1.000000 I-27.714276 J-0.000000
G01 X29.257064 Y25.586520 Z-1.000000
G01 X29.212854 Y25.552648 Z-1.000000
G03 X28.995322 Y24.579820 Z-1.000000 I11.122873 J-2.997901
G01 X28.995322 Y24.579820 Z-1.000000
G00 Z5.000000

(End cutting path id: path14)


(Start cutting path id: path1-0)
(Change tool to Default tool)

G00 Z5.000000
G00 X24.525574 Y22.365080

G01 Z-1.000000 F100.0(Penetrate)
G02 X24.389526 Y21.651899 Z-1.000000 I-3.753665 J0.346492 F3500.000000
G01 X24.324234 Y21.660390 Z-1.000000
G02 X24.450202 Y24.063870 Z-1.000000 I16.548450 J0.337723
G02 X24.626244 Y24.116738 Z-1.000000 I0.099727 J-0.012544
G02 X24.660059 Y24.057354 Z-1.000000 I-0.027485 J-0.054971
G02 X24.525574 Y22.365080 Z-1.000000 I-113.870410 J8.197806
G01 X24.525574 Y22.365080 Z-1.000000
G00 Z5.000000

(End cutting path id: path1-0)


(Start cutting path id: path1-0)
(Change tool to Default tool)

G00 Z5.000000
G00 X24.948388 Y15.821530

G01 Z-1.000000 F100.0(Penetrate)
G02 X24.814760 Y15.004293 Z-1.000000 I-5.023748 J0.401900 F3500.000000
G01 X24.767182 Y14.996036 Z-1.000000
G02 X24.364157 Y15.884004 Z-1.000000 I0.980441 J0.980441
G02 X24.646378 Y16.989302 Z-1.000000 I1.827195 J0.122133
G02 X24.847514 Y16.958244 Z-1.000000 I0.094088 J-0.057498
G02 X24.948388 Y15.821530 Z-1.000000 I-3.619809 J-0.894061
G01 X24.948388 Y15.821530 Z-1.000000
G00 Z5.000000

(End cutting path id: path1-0)


(Start cutting path id: path1-0)
(Change tool to Default tool)

G00 Z5.000000
G00 X28.270498 Y14.371882

G01 Z-1.000000 F100.0(Penetrate)
G02 X28.806093 Y12.628778 Z-1.000000 I-2.925267 J-1.852669 F3500.000000
G02 X28.290632 Y12.096740 Z-1.000000 I-0.515461 J-0.016319
G02 X28.193286 Y12.184170 Z-1.000000 I0.000000 J0.097908
G02 X28.189962 Y13.063172 Z-1.000000 I4.231607 J0.455509
G03 X28.136350 Y13.953618 Z-1.000000 I-2.700386 J0.284251
G03 X27.867818 Y14.472552 Z-1.000000 I-1.140444 J-0.261198
G02 X27.631704 Y14.830429 Z-1.000000 I0.999714 J0.916405
G02 X27.686612 Y14.915500 Z-1.000000 I0.054908 J0.024816
G02 X27.867212 Y14.844771 Z-1.000000 I-0.000000 J-0.265936
G02 X28.270498 Y14.371882 Z-1.000000 I-1.790721 J-1.935560
G01 X28.270498 Y14.371882 Z-1.000000
G00 Z5.000000

(End cutting path id: path1-0)


(Start cutting path id: path1-0)
(Change tool to Default tool)

G00 Z5.000000
G00 X29.216796 Y12.861832

G01 Z-1.000000 F100.0(Penetrate)
G02 X28.918167 Y12.257370 Z-1.000000 I-1.333706 J0.282907 F3500.000000
G02 X28.753714 Y12.318214 Z-1.000000 I-0.070971 J0.060844
G02 X28.915726 Y13.322168 Z-1.000000 I2.805342 J0.062341
G02 X29.176528 Y13.506120 Z-1.000000 I0.260802 J-0.092904
G02 X29.270066 Y13.415045 Z-1.000000 I0.000000 J-0.093571
G02 X29.216796 Y12.861832 Z-1.000000 I-2.270135 J-0.060576
G01 X29.216796 Y12.861832 Z-1.000000
G00 Z5.000000

(End cutting path id: path1-0)


(Start cutting path id: path1-0)
(Change tool to Default tool)

G00 Z5.000000
G00 X33.022122 Y14.673892

G01 Z-1.000000 F100.0(Penetrate)
G02 X32.893196 Y14.568022 Z-1.000000 I-0.160725 J0.064290 F3500.000000
G02 X32.297298 Y14.512820 Z-1.000000 I-0.595898 J3.188742
G03 X30.615204 Y14.292816 Z-1.000000 I0.230668 J-8.304045
G03 X29.579208 Y13.828264 Z-1.000000 I0.695027 J-2.937442
G02 X29.315543 Y13.787616 Z-1.000000 I-0.186804 J0.336247
G02 X28.995322 Y13.949068 Z-1.000000 I0.136390 J0.668797
G02 X28.998980 Y14.132060 Z-1.000000 I0.097058 J0.089592
G02 X29.317466 Y14.271212 Z-1.000000 I0.336791 J-0.336791
G03 X29.907683 Y14.360397 Z-1.000000 I-0.000000 J1.997599
G03 X30.324166 Y14.553088 Z-1.000000 I-0.509731 J1.648171
G02 X32.663656 Y15.332096 Z-1.000000 I2.478380 J-3.540543
G02 X33.022122 Y14.673892 Z-1.000000 I0.013484 J-0.419371
G01 X33.022122 Y14.673892 Z-1.000000
G00 Z5.000000

(End cutting path id: path1-0)


(Start cutting path id: path1-0)
(Change tool to Default tool)

G00 Z5.000000
G00 X34.673110 Y15.318180

G01 Z-1.000000 F100.0(Penetrate)
G02 X34.980110 Y15.472447 Z-1.000000 I0.451616 J-0.516132 F3500.000000
G02 X35.317398 Y15.459118 Z-1.000000 I0.142755 J-0.661773
G02 X35.364433 Y15.352160 Z-1.000000 I-0.013995 J-0.069975
G02 X35.136192 Y15.157108 Z-1.000000 I-0.409568 J0.248192
G03 X34.639590 Y14.887484 Z-1.000000 I0.717891 J-1.914376
G03 X34.572440 Y14.754428 Z-1.000000 I0.098249 J-0.133056
G02 X34.490216 Y14.664893 Z-1.000000 I-0.089861 J0.000000
G02 X33.928152 Y14.673892 Z-1.000000 I-0.236675 J2.774805
G02 X33.642615 Y14.816660 Z-1.000000 I0.071384 J0.499689
G02 X33.666410 Y14.935634 Z-1.000000 I0.051555 J0.051555
G03 X33.801478 Y15.052922 Z-1.000000 I-0.082757 J0.231718
G01 X33.767080 Y15.116840 Z-1.000000
G01 X33.732682 Y15.180758 Z-1.000000
G02 X33.867750 Y15.298046 Z-1.000000 I0.217825 J-0.114430
G02 X34.234114 Y15.363358 Z-1.000000 I0.310961 J-0.684115
G02 X34.330832 Y15.277912 Z-1.000000 I-0.007863 J-0.106362
G03 X34.437833 Y15.214557 Z-1.000000 I0.094681 J0.037872
G03 X34.673110 Y15.318180 Z-1.000000 I-0.053633 J0.440686
G01 X34.673110 Y15.318180 Z-1.000000
G00 Z5.000000

(End cutting path id: path1-0)


(Start cutting path id: path1-0)
(Change tool to Default tool)

G00 Z5.000000
G00 X35.397934 Y14.351748

G01 Z-1.000000 F100.0(Penetrate)
G01 X35.460492 Y14.327321 Z-1.000000 F3500.000000
G03 X35.579140 Y14.512820 Z-1.000000 I-0.280888 J0.310354
G01 X35.657210 Y14.510901 Z-1.000000
G02 X35.720078 Y13.969202 Z-1.000000 I-1.874332 J-0.492027
G02 X35.408836 Y13.252393 Z-1.000000 I-1.064123 J0.036072
G02 X35.095924 Y13.345048 Z-1.000000 I-0.131296 J0.131296
G02 X35.001789 Y14.725328 Z-1.000000 I5.440069 J1.064361
G02 X35.176460 Y14.814830 Z-1.000000 I0.113589 J-0.006484
G02 X35.323157 Y14.654337 Z-1.000000 I-0.135631 J-0.271261
G02 X35.397934 Y14.351748 Z-1.000000 I-1.105501 J-0.433731
G01 X35.397934 Y14.351748 Z-1.000000
G00 Z5.000000

(End cutting path id: path1-0)


(Start cutting path id: path22)
(Change tool to Default tool)

G00 Z5.000000
G00 X32.961720 Y18.801362

G01 Z-1.000000 F100.0(Penetrate)
G03 X33.021944 Y18.586777 Z-1.000000 I0.412404 J0.000000 F3500.000000
G03 X33.183194 Y18.418816 Z-1.000000 I0.460130 J0.280360
G02 X33.272073 Y18.272450 Z-1.000000 I-0.087654 J-0.153395
G02 X33.203328 Y18.096672 Z-1.000000 I-0.235159 J-0.009364
G03 X33.067670 Y17.590087 Z-1.000000 I0.370735 J-0.370735
G03 X33.404668 Y17.331580 Z-1.000000 I0.336998 J0.090407
G03 X33.733761 Y17.715298 Z-1.000000 I0.000000 J0.332981
G03 X33.183194 Y18.801362 Z-1.000000 I-1.934945 J-0.298314
G03 X33.026588 Y18.866230 Z-1.000000 I-0.156606 J-0.156606
G03 X32.961720 Y18.801362 Z-1.000000 I0.000000 J-0.064868
G01 X32.961720 Y18.801362 Z-1.000000
G00 Z5.000000

(End cutting path id: path22)


(Start cutting path id: path2)
(Change tool to Default tool)

G00 Z5.000000
G00 X15.465274 Y17.492652

G01 Z-1.000000 F100.0(Penetrate)
G02 X15.775359 Y16.958086 Z-1.000000 I-1.737053 J-1.364827 F3500.000000
G02 X15.847820 Y16.586622 Z-1.000000 I-0.915902 J-0.371464
G02 X15.749291 Y16.557873 Z-1.000000 I-0.055065 J0.005507
G02 X15.243800 Y17.331580 Z-1.000000 I4.094237 J3.226896
G02 X14.731503 Y18.454722 Z-1.000000 I8.787083 J4.686444
G02 X14.659914 Y18.841630 Z-1.000000 I1.009739 J0.386908
G01 X14.728081 Y18.872317 Z-1.000000
G02 X14.881388 Y18.640290 Z-1.000000 I-0.355742 J-0.401711
G03 X15.132667 Y18.065000 Z-1.000000 I5.543670 J2.078876
G03 X15.465274 Y17.492652 Z-1.000000 I4.807963 J2.411223
G01 X15.465274 Y17.492652 Z-1.000000
G00 Z5.000000

(End cutting path id: path2)


(Start cutting path id: path7)
(Change tool to Default tool)

G00 Z5.000000
G00 X12.223700 Y18.136940

G01 Z-1.000000 F100.0(Penetrate)
G03 X12.303276 Y18.024763 Z-1.000000 I0.118855 J0.000000 F3500.000000
G03 X12.827720 Y17.935600 Z-1.000000 I0.524444 J1.497765
G03 X13.356427 Y18.029217 Z-1.000000 I0.000000 J1.539759
G03 X13.431740 Y18.136940 Z-1.000000 I-0.039383 J0.107723
G03 X13.342999 Y18.258293 Z-1.000000 I-0.127346 J0.000000
G03 X12.827720 Y18.338280 Z-1.000000 I-0.515279 J-1.619739
G03 X12.317317 Y18.262967 Z-1.000000 I-0.000000 J-1.767175
G03 X12.223700 Y18.136940 Z-1.000000 I0.038020 J-0.126027
G01 X12.223700 Y18.136940 Z-1.000000
G00 Z5.000000

(End cutting path id: path7)


(Start cutting path id: path6)
(Change tool to Default tool)

G00 Z5.000000
G00 X11.821020 Y20.532886

G01 Z-1.000000 F100.0(Penetrate)
G03 X11.904482 Y20.429920 Z-1.000000 I0.105244 J0.000000 F3500.000000
G03 X12.223700 Y20.452350 Z-1.000000 I0.120405 J0.569165
G02 X12.636679 Y20.481820 Z-1.000000 I0.264073 J-0.792219
G02 X12.948524 Y20.331546 Z-1.000000 I-0.115801 J-0.639013
G03 X13.241480 Y20.186875 Z-1.000000 I0.533438 J0.711251
G03 X13.371338 Y20.230876 Z-1.000000 I0.032812 J0.116785
G03 X13.396044 Y20.360463 Z-1.000000 I-0.082967 J0.082967
G03 X13.230400 Y20.553020 Z-1.000000 I-0.392101 J-0.169775
G03 X12.143257 Y20.862303 Z-1.000000 I-1.044896 J-1.607532
G03 X11.821020 Y20.532886 Z-1.000000 I0.007260 J-0.329417
G01 X11.821020 Y20.532886 Z-1.000000
G00 Z5.000000

(End cutting path id: path6)


(Start cutting path id: path2)
(Change tool to Default tool)

G00 Z5.000000
G00 X8.398240 Y20.251010

G01 Z-1.000000 F100.0(Penetrate)
G03 X8.693850 Y20.018226 Z-1.000000 I0.770054 J0.673798 F3500.000000
G03 X9.425074 Y19.707392 Z-1.000000 I2.299460 J4.393875
G02 X10.111946 Y19.403412 Z-1.000000 I-0.659537 J-2.418302
G02 X10.210300 Y19.224176 Z-1.000000 I-0.114138 J-0.179236
G03 X10.803118 Y18.566706 Z-1.000000 I0.660996 J0.000000
G03 X12.485442 Y18.982568 Z-1.000000 I0.263775 J2.543687
G02 X12.749843 Y19.075992 Z-1.000000 I0.389641 J-0.681872
G02 X13.592812 Y19.143640 Z-1.000000 I0.842969 J-5.218376
G02 X14.283729 Y18.986650 Z-1.000000 I-0.000000 J-1.598866
G02 X14.438440 Y18.740960 Z-1.000000 I-0.117730 J-0.245690
G03 X14.506164 Y18.324962 Z-1.000000 I1.311516 J-0.000000
G03 X14.901522 Y17.371848 Z-1.000000 I6.951732 J2.325073
G02 X15.290945 Y16.403855 Z-1.000000 I-5.755644 J-2.877822
G02 X15.304202 Y16.083272 Z-1.000000 I-0.595928 J-0.185209
G03 X15.361601 Y15.812314 Z-1.000000 I0.292136 J-0.079673
G03 X15.827686 Y15.438984 Z-1.000000 I1.101584 J0.897668
G02 X16.369210 Y15.055878 Z-1.000000 I-1.576516 J-2.802695
G02 X16.834386 Y14.532954 Z-1.000000 I-1.852681 J-2.116451
G02 X17.503524 Y12.927593 Z-1.000000 I-3.167145 J-2.262247
G02 X17.297468 Y11.774596 Z-1.000000 I-1.700021 J-0.291094
G02 X17.107907 Y11.710938 Z-1.000000 I-0.129659 J0.072033
G02 X16.874654 Y11.955802 Z-1.000000 I0.177912 J0.403004
G02 X16.686401 Y12.535760 Z-1.000000 I6.359498 J2.384812
G02 X16.653180 Y12.781296 Z-1.000000 I0.890770 J0.245536
G03 X16.331906 Y13.600694 Z-1.000000 I-1.205561 J-0.000000
G03 X15.344470 Y14.190676 Z-1.000000 I-1.500983 J-1.390840
G03 X14.838713 Y14.213625 Z-1.000000 I-0.305358 J-1.145091
G03 X14.277368 Y14.029604 Z-1.000000 I0.341307 J-1.989324
G02 X13.697428 Y13.783455 Z-1.000000 I-1.676023 J3.142543
G02 X12.928390 Y13.586656 Z-1.000000 I-1.961788 J6.065137
G03 X12.171556 Y13.375461 Z-1.000000 I0.762713 J-4.194920
G03 X11.982092 Y13.224244 Z-1.000000 I0.141958 J-0.372165
G03 X11.818994 Y12.555826 Z-1.000000 I0.837805 J-0.558536
G03 X12.082762 Y12.378616 Z-1.000000 I0.206654 J0.022687
G02 X12.179976 Y12.379759 Z-1.000000 I0.052305 J-0.313831
G01 X12.183432 Y12.358482 Z-1.000000
G03 X12.078648 Y12.209400 Z-1.000000 I0.115548 J-0.192579
G03 X12.022360 Y11.633658 Z-1.000000 I2.916346 J-0.575742
G02 X11.789346 Y10.545372 Z-1.000000 I-2.657914 J-0.000000
G02 X11.539144 Y10.506154 Z-1.000000 I-0.137874 J0.061877
G02 X11.468829 Y10.633357 Z-1.000000 I0.185670 J0.185670
G02 X11.277402 Y11.694060 Z-1.000000 I11.425946 J2.609686
G03 X10.897635 Y12.588112 Z-1.000000 I-1.947711 J-0.299648
G03 X10.210300 Y13.083306 Z-1.000000 I-1.156241 J-0.880264
G02 X9.377705 Y13.517516 Z-1.000000 I1.150535 J3.221499
G02 X8.176766 Y14.532954 Z-1.000000 I5.465797 J7.682174
G02 X7.165756 Y16.122239 Z-1.000000 I3.212448 J3.159785
G02 X6.807654 Y18.237610 Z-1.000000 I5.371075 J1.997244
G01 X6.827788 Y19.244310 Z-1.000000
G01 X7.029128 Y18.338280 Z-1.000000
G03 X7.294407 Y17.477444 Z-1.000000 I4.357167 J0.871433
G03 X7.552612 Y17.049704 Z-1.000000 I1.618375 J0.685127
G03 X8.555673 Y16.307711 Z-1.000000 I2.410467 J2.209595
G03 X9.163332 Y16.264478 Z-1.000000 I0.358922 J0.752725
G03 X9.477187 Y16.735360 Z-1.000000 I-0.156930 J0.444635
G03 X9.102930 Y17.251044 Z-1.000000 I-0.587539 J-0.032756
G02 X8.525413 Y17.788741 Z-1.000000 I0.386671 J0.994297
G02 X7.915024 Y19.808062 Z-1.000000 I6.433231 J3.046515
G02 X8.078895 Y20.272237 Z-1.000000 I0.514939 J0.079221
G02 X8.398240 Y20.251010 Z-1.000000 I0.149483 J-0.163911
G01 X8.398240 Y20.251010 Z-1.000000
G00 Z5.000000

(End cutting path id: path2)


(Start cutting path id: path2)
(Change tool to Default tool)

G00 Z5.000000
G00 X7.653282 Y20.432216

G01 Z-1.000000 F100.0(Penetrate)
G03 X7.594478 Y19.166418 Z-1.000000 I1.861975 J-0.720764 F3500.000000
G03 X8.418374 Y17.653724 Z-1.000000 I3.759001 J1.066640
G02 X8.525098 Y17.035839 Z-1.000000 I-0.459330 J-0.397497
G02 X8.136498 Y16.928900 Z-1.000000 I-0.234096 J0.091143
G02 X7.574301 Y17.715136 Z-1.000000 I1.030347 J1.330865
G02 X7.069396 Y20.049670 Z-1.000000 I9.719709 J3.324013
G01 X6.928458 Y21.459050 Z-1.000000
G01 X7.351272 Y21.096638 Z-1.000000
G02 X7.641502 Y20.688406 Z-1.000000 I-1.063062 J-1.063062
G02 X7.653282 Y20.432216 Z-1.000000 I-0.293141 J-0.141845
G01 X7.653282 Y20.432216 Z-1.000000
G00 Z5.000000

(End cutting path id: path2)


(Start cutting path id: path2)
(Change tool to Default tool)

G00 Z5.000000
G00 X5.639882 Y19.103372

G01 Z-1.000000 F100.0(Penetrate)
G02 X5.465045 Y17.266714 Z-1.000000 I-25.478730 J1.498749 F3500.000000
G02 X5.358006 Y17.049704 Z-1.000000 I-0.373248 J0.049199
G02 X5.209700 Y17.092333 Z-1.000000 I-0.063780 J0.057402
G02 X5.136532 Y18.237610 Z-1.000000 I5.185386 J0.906251
G03 X5.163010 Y18.639425 Z-1.000000 I-8.066607 J0.733328
G02 X5.196934 Y19.405382 Z-1.000000 I115.310844 J-4.723420
G02 X5.294127 Y20.068692 Z-1.000000 I3.509654 J-0.175483
G02 X5.398274 Y20.150340 Z-1.000000 I0.104147 J-0.025600
G03 X5.508952 Y20.222127 Z-1.000000 I-0.000000 J0.121213
G03 X5.579480 Y20.553020 Z-1.000000 I-0.740954 J0.330893
G02 X5.618882 Y20.922493 Z-1.000000 I1.752000 J0.000000
G01 X5.660016 Y20.955700 Z-1.000000
G02 X5.712789 Y20.901802 Z-1.000000 I0.000000 J-0.052784
G02 X5.639882 Y19.103372 Z-1.000000 I-46.355044 J0.978499
G01 X5.639882 Y19.103372 Z-1.000000
G00 Z5.000000

(End cutting path id: path2)


(Start cutting path id: path2)
(Change tool to Default tool)

G00 Z5.000000
G00 X7.089530 Y14.875232

G01 Z-1.000000 F100.0(Penetrate)
G03 X7.078136 Y14.648717 Z-1.000000 I0.629172 J-0.145194 F3500.000000
G01 X7.129798 Y14.633624 Z-1.000000
G02 X7.302342 Y14.683493 Z-1.000000 I0.114087 J-0.071305
G02 X7.854622 Y14.291346 Z-1.000000 I-0.880259 J-1.824687
G02 X8.317414 Y13.746113 Z-1.000000 I-3.101963 J-3.101963
G01 X8.297570 Y13.707460 Z-1.000000
G02 X6.078085 Y14.336075 Z-1.000000 I-0.000000 J4.232534
G02 X5.861356 Y15.096706 Z-1.000000 I0.307128 J0.498702
G02 X5.998899 Y15.188031 Z-1.000000 I0.197384 J-0.148038
G02 X6.586180 Y15.277912 Z-1.000000 I0.774897 J-3.099586
G02 X7.002989 Y15.149651 Z-1.000000 I0.042979 J-0.601710
G02 X7.089530 Y14.875232 Z-1.000000 I-0.158608 J-0.200874
G01 X7.089530 Y14.875232 Z-1.000000
G00 Z5.000000

(End cutting path id: path2)


(Start cutting path id: path2)
(Change tool to Default tool)

G00 Z5.000000
G00 X6.586180 Y14.210810

G01 Z-1.000000 F100.0(Penetrate)
G02 X7.061048 Y13.778814 Z-1.000000 I-1.849518 J-2.510060 F3500.000000
G01 X7.029128 Y13.707460 Z-1.000000
G02 X6.822639 Y13.756550 Z-1.000000 I-0.000000 J0.458825
G02 X6.062696 Y14.210810 Z-1.000000 I2.770973 J5.498425
G02 X5.584534 Y14.635488 Z-1.000000 I1.591140 J2.273057
G01 X5.619748 Y14.714160 Z-1.000000
G02 X5.884873 Y14.649008 Z-1.000000 I0.000000 J-0.572020
G02 X6.586180 Y14.210810 Z-1.000000 I-2.505970 J-4.790930
G01 X6.586180 Y14.210810 Z-1.000000
G00 Z5.000000

(End cutting path id: path2)


(Start cutting path id: path2)
(Change tool to Default tool)

G00 Z5.000000
G00 X5.841222 Y14.029604

G01 Z-1.000000 F100.0(Penetrate)
G02 X6.213721 Y13.574323 Z-1.000000 I-0.290800 J-0.617950 F3500.000000
G02 X6.002294 Y13.304780 Z-1.000000 I-0.211427 J-0.051851
G03 X5.929796 Y13.242811 Z-1.000000 I0.000000 J-0.073393
G03 X5.941892 Y12.801430 Z-1.000000 I1.193906 J-0.188136
G02 X5.860681 Y12.437750 Z-1.000000 I-0.511398 J-0.076710
G02 X5.599614 Y12.298080 Z-1.000000 I-0.261067 J0.174153
G02 X5.378281 Y12.431182 Z-1.000000 I-0.000000 J0.250576
G02 X5.378140 Y12.700760 Z-1.000000 I0.254208 J0.134922
G03 X5.531379 Y13.621924 Z-1.000000 I-1.324159 J0.693607
G03 X5.196934 Y13.908800 Z-1.000000 I-0.334445 J-0.051513
G03 X5.104309 Y13.833287 Z-1.000000 I-0.000000 J-0.094564
G03 X5.076130 Y13.405450 Z-1.000000 I1.536696 J-0.316060
G02 X5.059612 Y12.949429 Z-1.000000 I-1.274910 J-0.182130
G02 X4.955326 Y12.781296 Z-1.000000 I-0.289138 J0.062931
G02 X4.853205 Y12.813436 Z-1.000000 I-0.036810 J0.061350
G02 X4.774120 Y13.183976 Z-1.000000 I0.828507 J0.370540
G03 X4.746391 Y13.673770 Z-1.000000 I-4.339554 J-0.000000
G03 X4.673450 Y13.949068 Z-1.000000 I-0.973268 J-0.110557
G02 X4.831764 Y14.199640 Z-1.000000 I0.169894 J0.067958
G02 X5.841222 Y14.029604 Z-1.000000 I0.141959 J-2.238687
G01 X5.841222 Y14.029604 Z-1.000000
G00 Z5.000000

(End cutting path id: path2)


(Start cutting path id: path2)
(Change tool to Default tool)

G00 Z5.000000
G00 X9.727084 Y11.694060

G01 Z-1.000000 F100.0(Penetrate)
G02 X9.899822 Y11.573031 Z-1.000000 I0.000000 J-0.183784 F3500.000000
G02 X9.968692 Y11.049772 Z-1.000000 I-1.148847 J-0.417371
G02 X9.663358 Y10.707571 Z-1.000000 I-0.383499 J0.034864
G02 X9.384806 Y10.928968 Z-1.000000 I-0.047012 J0.226781
G01 X9.344538 Y11.593390 Z-1.000000
G01 X9.223734 Y10.888700 Z-1.000000
G03 X9.235683 Y10.249919 Z-1.000000 I1.514130 J-0.291179
G03 X9.404940 Y10.043072 Z-1.000000 I0.294225 J0.068083
G01 X9.414084 Y9.979578 Z-1.000000
G02 X9.304270 Y9.942402 Z-1.000000 I-0.092521 J0.092521
G02 X9.051539 Y10.125939 Z-1.000000 I0.040129 J0.321032
G02 X8.841188 Y10.969236 Z-1.000000 I2.035365 J0.955583
G02 X8.930156 Y11.735275 Z-1.000000 I2.069569 J0.147826
G02 X9.102930 Y11.814864 Z-1.000000 I0.122304 J-0.038175
G03 X9.437466 Y11.724214 Z-1.000000 I0.959733 J2.879200
G03 X9.727084 Y11.694060 Z-1.000000 I0.289618 J1.375760
G01 X9.727084 Y11.694060 Z-1.000000
G00 Z5.000000

(End cutting path id: path2)


(Start cutting path id: path2)
(Change tool to Default tool)

G00 Z5.000000
G00 X15.545810 Y13.747728

G01 Z-1.000000 F100.0(Penetrate)
G02 X15.423525 Y13.673133 Z-1.000000 I-0.215120 J0.215120 F3500.000000
G02 X14.982058 Y13.586656 Z-1.000000 I-0.589675 J1.840219
G03 X14.551809 Y13.531465 Z-1.000000 I0.405432 J-4.865187
G03 X13.935090 Y13.405450 Z-1.000000 I1.824353 J-10.500569
G01 X13.907172 Y13.463413 Z-1.000000
G02 X14.237100 Y13.667192 Z-1.000000 I0.811888 J-0.945510
G02 X15.455347 Y13.946228 Z-1.000000 I1.500016 J-3.750041
G02 X15.545810 Y13.747728 Z-1.000000 I0.008124 J-0.116161
G01 X15.545810 Y13.747728 Z-1.000000
G00 Z5.000000

(End cutting path id: path2)


(Start cutting path id: path2)
(Change tool to Default tool)

G00 Z5.000000
G00 X16.210232 Y13.204110

G01 Z-1.000000 F100.0(Penetrate)
G02 X16.081559 Y13.133118 Z-1.000000 I-0.187206 J0.187206 F3500.000000
G02 X15.223666 Y12.982636 Z-1.000000 I-1.954284 J8.620650
G02 X14.570894 Y12.990325 Z-1.000000 I-0.293062 J2.832931
G02 X14.539110 Y13.083306 Z-1.000000 I0.006912 J0.054285
G02 X14.779646 Y13.212209 Z-1.000000 I0.433728 J-0.520473
G02 X15.445140 Y13.345048 Z-1.000000 I1.051532 J-3.534528
G02 X16.181808 Y13.306551 Z-1.000000 I0.224588 J-2.769913
G02 X16.210232 Y13.204110 Z-1.000000 I-0.010909 J-0.058191
G01 X16.210232 Y13.204110 Z-1.000000
G00 Z5.000000

(End cutting path id: path2)


(Start cutting path id: path2)
(Change tool to Default tool)

G00 Z5.000000
G00 X16.411572 Y11.814864

G01 Z-1.000000 F100.0(Penetrate)
G03 X16.581123 Y11.233318 Z-1.000000 I1.450670 J0.107457 F3500.000000
G03 X16.753850 Y11.170576 Z-1.000000 I0.121494 J0.065341
G02 X16.888809 Y11.132412 Z-1.000000 I0.039427 J-0.118282
G02 X16.914922 Y10.969236 Z-1.000000 I-0.123304 J-0.103409
G02 X16.343580 Y10.836745 Z-1.000000 I-0.330321 J0.126299
G02 X15.847820 Y11.975936 Z-1.000000 I1.060973 J1.139191
G02 X16.115462 Y12.177534 Z-1.000000 I0.209746 J0.000000
G02 X16.411572 Y11.814864 Z-1.000000 I-0.113376 J-0.394786
G01 X16.411572 Y11.814864 Z-1.000000
G00 Z5.000000

(End cutting path id: path2)


(Start cutting path id: path2)
(Change tool to Default tool)

G00 Z5.000000
G00 X14.901522 Y24.438882

G01 Z-1.000000 F100.0(Penetrate)
G03 X14.950214 Y24.281523 Z-1.000000 I0.124217 J-0.047776 F3500.000000
G03 X15.163264 Y24.257676 Z-1.000000 I0.128773 J0.186844
G02 X15.312731 Y24.248650 Z-1.000000 I0.064158 J-0.179644
G01 X15.324336 Y24.177140 Z-1.000000
G02 X15.062384 Y24.071790 Z-1.000000 I-0.254522 J0.254522
G02 X14.619646 Y24.197274 Z-1.000000 I0.018789 J0.910080
G03 X14.124642 Y24.384664 Z-1.000000 I-0.952903 J-1.769677
G03 X13.693482 Y24.398614 Z-1.000000 I-0.250439 J-1.070378
G02 X13.304217 Y24.427033 Z-1.000000 I-0.100391 J1.305086
G02 X13.230400 Y24.519418 Z-1.000000 I0.020904 J0.092385
G02 X13.311616 Y24.623262 Z-1.000000 I0.106996 J0.000000
G02 X14.136430 Y24.740892 Z-1.000000 I0.988844 J-3.983131
G02 X14.817156 Y24.623222 Z-1.000000 I0.047396 J-1.753666
G02 X14.901522 Y24.438882 Z-1.000000 I-0.052447 J-0.135479
G01 X14.901522 Y24.438882 Z-1.000000
G00 Z5.000000

(End cutting path id: path2)


(Start cutting path id: path4)
(Change tool to Default tool)

G00 Z5.000000
G00 X14.096162 Y25.485850

G01 Z-1.000000 F100.0(Penetrate)
G03 X14.195865 Y25.281306 Z-1.000000 I0.259667 J0.000000 F3500.000000
G03 X14.478708 Y25.183840 Z-1.000000 I0.282843 J0.361669
G03 X14.748118 Y25.283553 Z-1.000000 I-0.000000 J0.413810
G03 X14.841120 Y25.485850 Z-1.000000 I-0.173516 J0.202297
G03 X14.748118 Y25.688147 Z-1.000000 I-0.266518 J-0.000000
G03 X14.478708 Y25.787860 Z-1.000000 I-0.269410 J-0.314096
G03 X14.195865 Y25.690394 Z-1.000000 I-0.000000 J-0.459135
G03 X14.096162 Y25.485850 Z-1.000000 I0.159964 J-0.204544
G01 X14.096162 Y25.485850 Z-1.000000
G00 Z5.000000

(End cutting path id: path4)


(Start cutting path id: path2)
(Change tool to Default tool)

G00 Z5.000000
G00 X14.680048 Y26.311344

G01 Z-1.000000 F100.0(Penetrate)
G03 X15.074566 Y26.147514 Z-1.000000 I0.568576 J0.812252 F3500.000000
G03 X15.928356 Y26.089870 Z-1.000000 I0.690134 J3.870115
G02 X16.453877 Y25.921306 Z-1.000000 I0.019175 J-0.843693
G02 X16.492108 Y25.667056 Z-1.000000 I-0.109893 J-0.146524
G02 X16.129874 Y25.371584 Z-1.000000 I-0.839951 J0.659961
G02 X15.968624 Y25.405314 Z-1.000000 I-0.059331 J0.118662
G03 X15.736102 Y25.531029 Z-1.000000 I-0.427795 J-0.513354
G03 X15.364604 Y25.586520 Z-1.000000 I-0.371498 J-1.215799
G03 X15.259631 Y25.459562 Z-1.000000 I0.005574 J-0.111486
G03 X15.425006 Y25.163706 Z-1.000000 I0.463351 J0.064852
G02 X15.788932 Y24.768503 Z-1.000000 I-1.399304 J-1.653723
G02 X15.787418 Y24.640222 Z-1.000000 I-0.088414 J-0.063106
G02 X15.646480 Y24.616194 Z-1.000000 I-0.093851 J0.125135
G02 X15.364604 Y24.761026 Z-1.000000 I0.283823 J0.899097
G03 X15.035581 Y24.928715 Z-1.000000 I-0.496353 J-0.567261
G03 X14.398172 Y24.982500 Z-1.000000 I-0.509980 J-2.239941
G02 X13.653342 Y25.056156 Z-1.000000 I-0.145632 J2.330113
G02 X13.633080 Y25.183840 Z-1.000000 I0.018145 J0.068329
G03 X13.613932 Y25.297444 Z-1.000000 I-0.034081 J0.052671
G03 X12.565978 Y25.445582 Z-1.000000 I-1.262862 J-5.152917
G03 X11.882188 Y25.405743 Z-1.000000 I-0.158437 J-3.168749
G03 X11.740484 Y25.284510 Z-1.000000 I0.029963 J-0.178456
G02 X11.637555 Y25.222285 Z-1.000000 I-0.088008 J0.029336
G02 X11.398206 Y25.344912 Z-1.000000 I0.070469 J0.432446
G03 X11.119561 Y25.516929 Z-1.000000 I-0.687761 J-0.802388
G03 X10.774052 Y25.586520 Z-1.000000 I-0.345509 J-0.822910
G02 X10.504642 Y25.686233 Z-1.000000 I-0.000000 J0.413810
G02 X10.411640 Y25.888530 Z-1.000000 I0.173516 J0.202297
G02 X10.466699 Y26.101217 Z-1.000000 I0.438321 J0.000000
G02 X10.572712 Y26.150272 Z-1.000000 I0.086591 J-0.048053
G03 X10.716598 Y26.146486 Z-1.000000 I0.080462 J0.321847
G03 X11.257268 Y26.271076 Z-1.000000 I-1.554754 J7.982431
G02 X11.796528 Y26.341743 Z-1.000000 I0.539260 J-2.022226
G02 X12.062628 Y26.271076 Z-1.000000 I-0.000000 J-0.536341
G02 X12.072063 Y26.144397 Z-1.000000 I-0.044679 J-0.067019
G02 X11.720350 Y25.969066 Z-1.000000 I-0.487481 J0.537453
G01 X11.708422 Y25.889769 Z-1.000000
G03 X12.002226 Y25.807994 Z-1.000000 I0.309866 J0.544615
G03 X12.572039 Y25.937151 Z-1.000000 I0.030442 J1.187228
G03 X12.606246 Y26.110004 Z-1.000000 I-0.050920 J0.099888
G02 X12.648244 Y26.258264 Z-1.000000 I0.074911 J0.058858
G02 X13.149864 Y26.311344 Z-1.000000 I0.355922 J-0.966804
G03 X13.523436 Y26.307804 Z-1.000000 I0.197271 J1.104719
G01 X13.532410 Y26.371746 Z-1.000000
G02 X13.512075 Y26.481265 Z-1.000000 I0.027441 J0.061743
G02 X13.733750 Y26.573086 Z-1.000000 I0.221675 J-0.221675
G02 X14.325673 Y26.490773 Z-1.000000 I-0.000000 J-2.169458
G02 X14.680048 Y26.311344 Z-1.000000 I-0.283465 J-0.999510
G01 X14.680048 Y26.311344 Z-1.000000
G00 Z5.000000

(End cutting path id: path2)


(Start cutting path id: path2)
(Change tool to Default tool)

G00 Z5.000000
G00 X12.928390 Y24.982500

G01 Z-1.000000 F100.0(Penetrate)
G02 X12.925965 Y24.856112 Z-1.000000 I-0.102097 J-0.061258 F3500.000000
G02 X12.787452 Y24.781160 Z-1.000000 I-0.138513 J0.090511
G03 X12.735072 Y24.718979 Z-1.000000 I0.000000 J-0.053152
G03 X12.827720 Y24.579820 Z-1.000000 I0.203529 J0.035083
G02 X12.919365 Y24.442346 Z-1.000000 I-0.130305 J-0.186150
G02 X12.867988 Y24.378480 Z-1.000000 I-0.051377 J-0.011268
G02 X12.663230 Y24.454526 Z-1.000000 I0.000000 J0.313684
G02 X12.505576 Y24.680490 Z-1.000000 I0.362897 J0.421170
G03 X12.343105 Y24.860076 Z-1.000000 I-0.403479 J-0.201739
G03 X12.203566 Y24.861696 Z-1.000000 I-0.071085 J-0.112471
G03 X12.114146 Y24.729753 Z-1.000000 I0.097348 J-0.162247
G03 X12.143164 Y24.539552 Z-1.000000 I0.309112 J-0.050154
G01 X12.110205 Y24.486558 Z-1.000000
G02 X11.821020 Y24.579820 Z-1.000000 I0.108829 J0.832431
G02 X11.588778 Y24.835089 Z-1.000000 I0.262052 J0.471694
G02 X11.639814 Y25.002634 Z-1.000000 I0.123300 J0.053987
G02 X12.476206 Y25.232429 Z-1.000000 I0.796061 J-1.260430
G02 X12.928390 Y24.982500 Z-1.000000 I-0.015197 J-0.561516
G01 X12.928390 Y24.982500 Z-1.000000
G00 Z5.000000

(End cutting path id: path2)


(Start cutting path id: path2)
(Change tool to Default tool)

G00 Z5.000000
G00 X10.532444 Y24.640222

G01 Z-1.000000 F100.0(Penetrate)
G03 X12.271532 Y23.825453 Z-1.000000 I2.871219 J3.865103 F3500.000000
G03 X14.800852 Y23.613388 Z-1.000000 I1.949051 J8.056763
G02 X15.416840 Y23.517938 Z-1.000000 I0.097137 J-1.408489
G02 X15.606212 Y23.291244 Z-1.000000 I-0.113516 J-0.287271
G02 X15.596357 Y22.958596 Z-1.000000 I-0.724958 J-0.144992
G02 X15.485408 Y22.787894 Z-1.000000 I-0.313278 J0.082210
G03 X15.321909 Y22.624395 Z-1.000000 I0.163499 J-0.326999
G03 X15.143130 Y22.103338 Z-1.000000 I1.856041 J-0.928020
G03 X15.152247 Y21.683755 Z-1.000000 I0.682698 J-0.195056
G03 X15.324336 Y21.559720 Z-1.000000 I0.172089 J0.057363
G02 X15.515714 Y21.402828 Z-1.000000 I0.000000 J-0.195168
G02 X15.445140 Y20.955700 Z-1.000000 I-0.640328 J-0.128066
G02 X15.181906 Y20.691274 Z-1.000000 I-0.584920 J0.319048
G02 X14.941790 Y20.673824 Z-1.000000 I-0.139017 J0.252148
G02 X14.762204 Y20.836295 Z-1.000000 I0.201739 J0.403479
G02 X14.760584 Y20.975834 Z-1.000000 I0.112471 J0.071085
G03 X14.758708 Y21.103012 Z-1.000000 I-0.103461 J0.062077
G03 X14.659914 Y21.157040 Z-1.000000 I-0.098794 J-0.063312
G03 X14.503365 Y20.973450 Z-1.000000 I0.000000 J-0.158541
G03 X14.760584 Y20.452350 Z-1.000000 I0.971325 J0.155422
G02 X14.928425 Y20.125697 Z-1.000000 I-0.424631 J-0.424631
G02 X14.861254 Y19.868464 Z-1.000000 I-0.322125 J-0.053270
G02 X13.641344 Y19.179445 Z-1.000000 I-1.519936 J1.266614
G02 X12.827720 Y19.546320 Z-1.000000 I-0.124272 J0.810030
G03 X12.667144 Y19.637767 Z-1.000000 I-0.157621 J-0.090069
G03 X12.062628 Y19.526186 Z-1.000000 I0.030235 J-1.857145
G02 X11.429665 Y19.432326 Z-1.000000 I-0.602753 J1.883603
G02 X11.096196 Y19.546320 Z-1.000000 I0.008711 J0.570235
G03 X10.773340 Y19.737600 Z-1.000000 I-0.675414 J-0.771902
G03 X10.250568 Y19.848330 Z-1.000000 I-0.648214 J-1.770910
G02 X9.714998 Y19.895224 Z-1.000000 I0.861020 J12.915305
G03 X9.465342 Y19.908732 Z-1.000000 I-0.249656 J-2.300374
G02 X9.267278 Y19.988063 Z-1.000000 I0.081898 J0.491390
G02 X8.196900 Y20.774494 Z-1.000000 I10.124929 J14.902253
G01 X7.170066 Y21.579854 Z-1.000000
G01 X7.311004 Y22.727492 Z-1.000000
G02 X7.540075 Y23.830463 Z-1.000000 I5.186805 J-0.501949
G02 X7.955292 Y24.781160 Z-1.000000 I5.007707 J-1.621097
G02 X8.857961 Y25.723553 Z-1.000000 I2.280409 J-1.280778
G02 X9.384806 Y25.667056 Z-1.000000 I0.227146 J-0.366531
G03 X9.921081 Y25.153440 Z-1.000000 I4.845197 J4.522184
G03 X10.532444 Y24.640222 Z-1.000000 I27.538220 J32.183680
G01 X10.532444 Y24.640222 Z-1.000000
G00 Z5.000000

(End cutting path id: path2)


(Start cutting path id: path2)
(Change tool to Default tool)

G00 Z5.000000
G00 X9.928424 Y26.895230

G01 Z-1.000000 F100.0(Penetrate)
G03 X9.925228 Y26.490282 Z-1.000000 I0.836353 J-0.209088 F3500.000000
G03 X10.049228 Y26.391880 Z-1.000000 I0.124000 J0.028928
G02 X10.119993 Y26.321115 Z-1.000000 I0.000000 J-0.070765
G02 X10.049228 Y26.150272 Z-1.000000 I-0.241608 J-0.000000
G02 X9.660054 Y26.200842 Z-1.000000 I-0.175117 J0.175117
G02 X9.626414 Y26.854962 Z-1.000000 I0.618244 J0.359720
G02 X9.828424 Y27.006458 Z-1.000000 I0.235841 J-0.104048
G02 X9.928424 Y26.895230 Z-1.000000 I0.011898 J-0.089870
G01 X9.928424 Y26.895230 Z-1.000000
G00 Z5.000000

(End cutting path id: path2)


(Start cutting path id: path3)
(Change tool to Default tool)

G00 Z5.000000
G00 X11.357938 Y28.063002

G01 Z-1.000000 F100.0(Penetrate)
G03 X11.327831 Y27.829817 Z-1.000000 I0.125063 J-0.134683 F3500.000000
G03 X11.519010 Y27.801260 Z-1.000000 I0.107959 J0.068532
G02 X11.725407 Y27.846049 Z-1.000000 I0.146105 J-0.175325
G02 X11.821020 Y27.720724 Z-1.000000 I-0.034328 J-0.125325
G03 X11.909365 Y27.512232 Z-1.000000 I0.290190 J0.000000
G03 X12.022360 Y27.499250 Z-1.000000 I0.064952 J0.067090
G02 X12.160336 Y27.508023 Z-1.000000 I0.079358 J-0.158717
G02 X12.223700 Y27.418714 Z-1.000000 I-0.031256 J-0.089309
G03 X12.300821 Y27.325084 Z-1.000000 I0.095397 J0.000000
G03 X12.565978 Y27.338178 Z-1.000000 I0.106067 J0.543394
G02 X12.719540 Y27.322662 Z-1.000000 I0.060699 J-0.166921
G02 X12.747184 Y27.217374 Z-1.000000 I-0.041140 J-0.067074
G01 X12.789268 Y27.148652 Z-1.000000
G03 X13.431740 Y27.318044 Z-1.000000 I-0.449976 J3.009756
G02 X14.229227 Y27.513266 Z-1.000000 I1.149691 J-2.970035
G02 X14.498842 Y27.418714 Z-1.000000 I0.036464 J-0.327702
G03 X14.892453 Y27.226000 Z-1.000000 I0.478026 J0.478026
G03 X15.042460 Y27.358312 Z-1.000000 I0.016652 J0.132312
G03 X14.984756 Y27.463549 Z-1.000000 I-0.124815 J0.000000
G03 X14.398172 Y27.760992 Z-1.000000 I-1.799794 J-2.822238
G03 X13.822804 Y27.832505 Z-1.000000 I-0.431604 J-1.122169
G03 X13.532410 Y27.660322 Z-1.000000 I0.050022 J-0.415338
G02 X13.054877 Y27.489688 Z-1.000000 I-0.367828 J0.275871
G02 X12.928390 Y27.801260 Z-1.000000 I0.049524 J0.201566
G03 X12.896426 Y27.885260 Z-1.000000 I-0.049036 J0.029422
G03 X12.626380 Y27.901930 Z-1.000000 I-0.168862 J-0.539838
G02 X12.308355 Y27.913474 Z-1.000000 I-0.132724 J0.729982
G02 X12.223700 Y28.022734 Z-1.000000 I0.028181 J0.109260
G03 X11.970285 Y28.293377 Z-1.000000 I-0.271229 J0.000000
G03 X11.357938 Y28.063002 Z-1.000000 I-0.052042 J-0.790680
G01 X11.357938 Y28.063002 Z-1.000000
G00 Z5.000000

(End cutting path id: path3)


(Start cutting path id: path2)
(Change tool to Default tool)

G00 Z5.000000
G00 X11.217000 Y29.009300

G01 Z-1.000000 F100.0(Penetrate)
G03 X10.592931 Y28.709844 Z-1.000000 I0.417543 J-1.670172 F3500.000000
G03 X9.505610 Y27.720724 Z-1.000000 I5.040723 J-6.633371
G02 X8.462310 Y26.715476 Z-1.000000 I-6.255888 J5.448677
G02 X8.116364 Y26.593220 Z-1.000000 I-0.345946 J0.428330
G03 X7.073850 Y26.243982 Z-1.000000 I0.000000 J-1.730628
G03 X5.901624 Y24.922098 Z-1.000000 I2.693983 J-3.569680
G03 X5.024990 Y22.415268 Z-1.000000 I5.763917 J-3.422326
G03 X4.492244 Y14.915500 Z-1.000000 I56.394367 J-7.774779
G01 X4.472110 Y12.418884 Z-1.000000
G01 X5.015728 Y12.096740 Z-1.000000
G03 X5.852101 Y12.106335 Z-1.000000 I0.409780 J0.737604
G03 X6.344572 Y12.881966 Z-1.000000 I-0.507782 J0.866564
G02 X6.460919 Y13.472168 Z-1.000000 I3.856998 J-0.453764
G01 X6.505644 Y13.506120 Z-1.000000
G02 X6.604617 Y13.476804 Z-1.000000 I-0.000000 J-0.181726
G02 X7.270736 Y13.002770 Z-1.000000 I-5.233757 J-8.059589
G03 X8.179957 Y12.573441 Z-1.000000 I1.433305 J1.857987
G03 X8.357972 Y12.761162 Z-1.000000 I0.033555 J0.146446
G03 X8.211208 Y12.921709 Z-1.000000 I-0.355804 J-0.177902
G03 X7.834488 Y13.063172 Z-1.000000 I-0.548235 J-0.887627
G02 X7.491128 Y13.217311 Z-1.000000 I0.121807 J0.730842
G02 X7.391540 Y13.425584 Z-1.000000 I0.167993 J0.208273
G02 X7.585847 Y13.571051 Z-1.000000 I0.151605 J0.000000
G02 X8.519044 Y13.103440 Z-1.000000 I-0.825701 J-2.812808
G03 X9.330305 Y12.571348 Z-1.000000 I4.168932 J5.471724
G03 X9.606280 Y12.499420 Z-1.000000 I0.275975 J0.493468
G01 X9.642062 Y12.574753 Z-1.000000
G03 X9.284136 Y12.881966 Z-1.000000 I-1.034866 J-0.843584
G02 X8.438121 Y13.565527 Z-1.000000 I2.196690 J3.584073
G02 X8.498910 Y13.707460 Z-1.000000 I0.060789 J0.057949
G02 X8.629465 Y13.669329 Z-1.000000 I-0.000000 J-0.242569
G02 X9.143198 Y13.304780 Z-1.000000 I-3.473506 J-5.439217
G03 X9.687296 Y12.959268 Z-1.000000 I1.990420 J2.533262
G03 X9.928424 Y12.902100 Z-1.000000 I0.241128 J0.479943
G02 X10.111043 Y12.677804 Z-1.000000 I0.000000 J-0.186491
G02 X9.807620 Y12.358482 Z-1.000000 I-0.408801 J0.084628
G03 X9.560373 Y12.196884 Z-1.000000 I0.126339 J-0.463244
G03 X9.545878 Y12.016204 Z-1.000000 I0.125028 J-0.100952
G01 X9.514227 Y11.983949 Z-1.000000
G02 X9.243868 Y12.157142 Z-1.000000 I0.553996 J1.162419
G03 X8.749999 Y12.143663 Z-1.000000 I-0.240081 J-0.257864
G03 X8.398240 Y11.271246 Z-1.000000 I0.905985 J-0.872417
G03 X8.527927 Y10.345863 Z-1.000000 I3.366387 J-0.000000
G03 X8.800920 Y9.882000 Z-1.000000 I1.031872 J0.295015
G03 X9.353952 Y9.608711 Z-1.000000 I0.680144 J0.680144
G03 X9.868022 Y9.741062 Z-1.000000 I0.093505 J0.701351
G03 X10.077551 Y10.033995 Z-1.000000 I-0.388130 J0.499024
G03 X10.250568 Y10.868566 Z-1.000000 I-3.164833 J1.091328
G02 X10.435342 Y11.634000 Z-1.000000 I2.240252 J-0.135773
G02 X10.673382 Y11.814864 Z-1.000000 I0.281510 J-0.123426
G02 X10.878730 Y11.702353 Z-1.000000 I0.027609 J-0.193260
G02 X11.015660 Y11.069906 Z-1.000000 I-1.392096 J-0.632447
G03 X11.139405 Y10.344322 Z-1.000000 I2.189123 J0.000000
G03 X11.337804 Y10.143742 Z-1.000000 I0.311077 J0.109284
G03 X11.872646 Y10.307931 Z-1.000000 I0.158671 J0.436346
G03 X12.223700 Y11.392050 Z-1.000000 I-1.498454 J1.084119
G02 X12.468733 Y11.836109 Z-1.000000 I0.524889 J0.000000
G02 X13.612946 Y12.277946 Z-1.000000 I1.697510 J-2.693511
G02 X15.282945 Y12.175300 Z-1.000000 I0.600535 J-3.865944
G02 X15.646480 Y11.694060 Z-1.000000 I-0.136760 J-0.481240
G03 X15.798729 Y10.989033 Z-1.000000 I1.708521 J0.000000
G03 X16.169964 Y10.566556 Z-1.000000 I0.879386 J0.398382
G03 X16.662330 Y10.406070 Z-1.000000 I0.512444 J0.736638
G03 X16.995458 Y10.546422 Z-1.000000 I0.009893 J0.442038
G03 X17.222891 Y10.880548 Z-1.000000 I-0.765583 J0.765583
G03 X17.579344 Y11.875266 Z-1.000000 I-7.370509 J3.202421
G03 X17.695662 Y12.894419 Z-1.000000 I-3.799373 J0.949843
G03 X17.539076 Y13.808130 Z-1.000000 I-3.060221 J-0.054167
G03 X16.814845 Y15.056853 Z-1.000000 I-3.628099 J-1.269835
G03 X15.807552 Y15.781262 Z-1.000000 I-2.030854 J-1.761383
G02 X15.744726 Y15.913898 Z-1.000000 I0.040071 J0.100178
G02 X15.908222 Y16.123540 Z-1.000000 I0.362964 J-0.114493
G03 X16.135773 Y16.590311 Z-1.000000 I-0.276192 J0.423495
G03 X15.767284 Y17.633590 Z-1.000000 I-2.195032 J-0.188576
G02 X15.148237 Y19.150186 Z-1.000000 I3.254534 J2.213083
G02 X15.324336 Y20.049670 Z-1.000000 I1.243349 J0.223560
G03 X16.317906 Y22.356020 Z-1.000000 I-6.064197 J3.979629
G03 X16.029026 Y23.089904 Z-1.000000 I-0.671933 J0.159304
G02 X15.769629 Y23.682787 Z-1.000000 I0.294606 J0.482083
G02 X16.331036 Y24.599954 Z-1.000000 I1.529700 J-0.305940
G03 X16.768734 Y25.039627 Z-1.000000 I-1.578900 J2.009509
G03 X16.975324 Y25.425448 Z-1.000000 I-1.021477 J0.795177
G02 X17.124986 Y25.817166 Z-1.000000 I2.052815 J-0.559859
G02 X17.680014 Y26.834828 Z-1.000000 I14.542931 J-7.271465
G03 X18.202651 Y27.769911 Z-1.000000 I-10.867125 J6.687462
G01 X18.183364 Y27.801260 Z-1.000000
G03 X18.147159 Y27.794030 Z-1.000000 I0.000000 J-0.094269
G03 X17.458540 Y27.479116 Z-1.000000 I4.187755 J-10.067663
G02 X16.807952 Y27.394793 Z-1.000000 I-0.446502 J0.893004
G02 X15.163264 Y27.962332 Z-1.000000 I1.410393 J6.754078
G03 X13.303803 Y28.791806 Z-1.000000 I-10.337563 J-20.675127
G03 X12.223700 Y29.109970 Z-1.000000 I-2.321351 J-5.888079
G03 X11.926886 Y29.115246 Z-1.000000 I-0.173066 J-1.384530
G03 X11.217000 Y29.009300 Z-1.000000 I0.536631 J-6.026906
G01 X11.217000 Y29.009300 Z-1.000000
G00 Z5.000000

(End cutting path id: path2)


(Start cutting path id: path2)
(Change tool to Default tool)

G00 Z5.000000
G00 X12.586112 Y28.385146

G01 Z-1.000000 F100.0(Penetrate)
G03 X12.607178 Y28.269513 Z-1.000000 I0.037755 J-0.052857 F3500.000000
G03 X13.633080 Y28.103270 Z-1.000000 I1.348219 J5.071409
G02 X14.308450 Y27.987028 Z-1.000000 I-0.153153 J-2.909908
G02 X15.143130 Y27.640188 Z-1.000000 I-1.220053 J-4.113850
G02 X15.504701 Y27.315703 Z-1.000000 I-0.466003 J-0.882953
G02 X15.445140 Y27.197240 Z-1.000000 I-0.063013 J-0.042523
G03 X15.186549 Y27.124435 Z-1.000000 I-0.000000 J-0.495640
G03 X15.183398 Y27.036168 Z-1.000000 I0.027628 J-0.045176
G01 X15.165746 Y26.959171 Z-1.000000
G02 X13.874688 Y26.854962 Z-1.000000 I-1.562907 J11.313439
G03 X12.328774 Y26.780245 Z-1.000000 I0.752242 J-31.594146
G03 X11.478742 Y26.693890 Z-1.000000 I1.091732 J-14.973216
G02 X10.556051 Y26.855538 Z-1.000000 I-0.217867 J1.470605
G02 X10.431774 Y27.257642 Z-1.000000 I0.142278 J0.264231
G03 X10.528480 Y27.626819 Z-1.000000 I-0.656315 J0.369177
G03 X10.431774 Y27.760992 Z-1.000000 I-0.141431 J0.000000
G02 X10.263872 Y27.875303 Z-1.000000 I0.117859 J0.353578
G02 X10.210300 Y28.022734 Z-1.000000 I0.176080 J0.147431
G02 X10.266126 Y28.086286 Z-1.000000 I0.064086 J0.000000
G02 X10.552578 Y28.063002 Z-1.000000 I0.088699 J-0.682458
G03 X10.694497 Y28.091077 Z-1.000000 I0.049998 J0.119996
G03 X10.713650 Y28.224074 Z-1.000000 I-0.079297 J0.079297
G02 X10.670617 Y28.353002 Z-1.000000 I0.431019 J0.215509
G01 X10.693516 Y28.365012 Z-1.000000
G03 X10.852343 Y28.321440 Z-1.000000 I0.134638 J0.179517
G03 X11.579412 Y28.485816 Z-1.000000 I-0.352178 J3.247938
G02 X12.539485 Y28.596739 Z-1.000000 I0.726146 J-2.074703
G02 X12.586112 Y28.385146 Z-1.000000 I-0.012160 J-0.113613
G01 X12.586112 Y28.385146 Z-1.000000
G00 Z5.000000

(End cutting path id: path2)


(Start cutting path id: path2)
(Change tool to Default tool)

G00 Z5.000000
G00 X8.237168 Y25.727458

G01 Z-1.000000 F100.0(Penetrate)
G03 X7.851604 Y25.222656 Z-1.000000 I2.509024 J-2.316022 F3500.000000
G03 X7.794220 Y25.022768 Z-1.000000 I0.319449 J-0.199888
G02 X7.749317 Y24.778209 Z-1.000000 I-0.688438 J-0.000000
G02 X7.512344 Y24.318078 Z-1.000000 I-2.156395 J0.819484
G03 X7.024452 Y22.965052 Z-1.000000 I2.821099 J-1.781747
G03 X6.706984 Y18.298012 Z-1.000000 I38.094785 J-4.935658
G02 X6.551978 Y15.651459 Z-1.000000 I-26.836519 J0.243968
G02 X6.404974 Y15.519520 Z-1.000000 I-0.147004 J0.015926
G02 X6.313767 Y15.605493 Z-1.000000 I0.000000 J0.091367
G02 X6.384840 Y15.821530 Z-1.000000 I0.308429 J0.018241
G03 X6.403663 Y15.961100 Z-1.000000 I-0.099895 J0.084527
G03 X6.304304 Y16.002736 Z-1.000000 I-0.072487 J-0.033608
G03 X6.062553 Y15.832556 Z-1.000000 I0.162591 J-0.487773
G03 X5.982160 Y15.600056 Z-1.000000 I0.296007 J-0.232500
G02 X5.892990 Y15.404982 Z-1.000000 I-0.257964 J-0.000000
G02 X5.660016 Y15.318180 Z-1.000000 I-0.232974 J0.269248
G02 X5.488962 Y15.397132 Z-1.000000 I0.000000 J0.224775
G02 X5.478810 Y15.519520 Z-1.000000 I0.080067 J0.068257
G03 X5.452291 Y15.643918 Z-1.000000 I-0.091177 J0.045589
G03 X5.237202 Y15.720860 Z-1.000000 I-0.215089 J-0.262166
G02 X4.996510 Y15.861369 Z-1.000000 I0.000000 J0.276407
G02 X4.814388 Y16.465818 Z-1.000000 I1.251973 J0.706885
G02 X4.910809 Y16.825151 Z-1.000000 I0.588716 J0.034630
G02 X5.055996 Y16.828230 Z-1.000000 I0.073656 J-0.048582
G02 X5.247103 Y16.427730 Z-1.000000 I-1.544335 J-0.982759
G02 X5.237202 Y16.183942 Z-1.000000 I-0.324614 J-0.108911
G03 X5.254083 Y16.009149 Z-1.000000 I0.167975 J-0.071989
G03 X5.418408 Y15.922200 Z-1.000000 I0.164325 J0.111806
G03 X5.637694 Y16.003582 Z-1.000000 I0.000000 J0.336128
G03 X5.720418 Y16.183942 Z-1.000000 I-0.155255 J0.180360
G02 X5.727357 Y16.408720 Z-1.000000 I3.644177 J-0.000000
G03 X5.780820 Y17.532920 Z-1.000000 I-39.555792 J2.444509
G02 X5.843550 Y18.635006 Z-1.000000 I23.438790 J-0.781293
G02 X6.022428 Y20.331546 Z-1.000000 I34.489819 J-2.778800
G03 X6.108019 Y21.984671 Z-1.000000 I-10.727519 J1.384196
G03 X5.982160 Y22.465750 Z-1.000000 I-1.085561 J-0.026999
G02 X5.904531 Y22.905511 Z-1.000000 I0.598191 J0.332328
G02 X6.183500 Y23.774460 Z-1.000000 I2.956997 J-0.470065
G03 X6.519204 Y24.632061 Z-1.000000 I-3.795313 J1.980164
G03 X6.505644 Y24.922098 Z-1.000000 I-0.456322 J0.124001
G02 X6.538545 Y25.070403 Z-1.000000 I0.132884 J0.048322
G02 X6.686850 Y25.103304 Z-1.000000 I0.099983 J-0.099983
G03 X7.277857 Y25.282237 Z-1.000000 I0.178487 J0.475967
G03 X7.230468 Y25.868396 Z-1.000000 I-0.368332 J0.265217
G01 X7.250032 Y25.911330 Z-1.000000
G02 X7.431808 Y25.888530 Z-1.000000 I0.033761 J-0.466847
G03 X7.722411 Y25.854820 Z-1.000000 I0.199265 J0.448345
G03 X7.894890 Y25.969066 Z-1.000000 I-0.049714 J0.262375
G02 X8.047925 Y26.122101 Z-1.000000 I0.306070 J-0.153035
G02 X8.337838 Y26.190540 Z-1.000000 I0.289913 J-0.579826
G02 X8.425181 Y26.081817 Z-1.000000 I0.000000 J-0.089445
G02 X8.237168 Y25.727458 Z-1.000000 I-0.732780 J0.161737
G01 X8.237168 Y25.727458 Z-1.000000
G00 Z5.000000

(End cutting path id: path2)


(Start cutting path id: path5)
(Change tool to Default tool)

G00 Z5.000000
G00 X7.713684 Y23.875130

G01 Z-1.000000 F100.0(Penetrate)
G03 X7.783571 Y23.279945 Z-1.000000 I0.838405 J-0.203250 F3500.000000
G03 X8.015694 Y23.291244 Z-1.000000 I0.113519 J0.057893
G02 X8.117238 Y23.378339 Z-1.000000 I0.136239 J-0.056098
G01 X8.176766 Y23.331512 Z-1.000000
G03 X8.388016 Y23.184566 Z-1.000000 I0.161041 J0.006194
G03 X8.841188 Y23.552986 Z-1.000000 I-0.254348 J0.775780
G03 X8.927845 Y24.039415 Z-1.000000 I-0.701783 J0.375955
G03 X8.740518 Y24.257676 Z-1.000000 I-0.263898 J-0.036977
G03 X8.020031 Y24.224171 Z-1.000000 I-0.308024 J-1.139688
G03 X7.713684 Y23.875130 Z-1.000000 I0.171242 J-0.459254
G01 X7.713684 Y23.875130 Z-1.000000
G00 Z5.000000

(End cutting path id: path5)


(Footer)
M5
G00 X0.0000 Y0.0000
M2
(Using default footer. To add your own footer create file "footer" in the output dir.)
(end)
%